{
"type": "FeatureCollection",
"name": "musaffah_annotation_review_queue",
"crs": { "type": "name", "properties": { "name": "urn:ogc:def:crs:OGC:1.3:CRS84" } },
"features": [
{ "type": "Feature", "properties": { "rank": 1, "predicted": "Bare soil / sand", "confidence": 0.49, "p_road": 0.0, "p_building": 0.35, "p_bare": 0.49, "p_vegetation": 0.0, "p_water": 0.16 }, "geometry": { "type": "Point", "coordinates": [ 54.45595555165994, 24.391465253613962 ] } },
{ "type": "Feature", "properties": { "rank": 2, "predicted": "Bare soil / sand", "confidence": 0.36, "p_road": 0.0, "p_building": 0.35, "p_bare": 0.36, "p_vegetation": 0.0, "p_water": 0.29 }, "geometry": { "type": "Point", "coordinates": [ 54.460670514272834, 24.362661357828021 ] } },
{ "type": "Feature", "properties": { "rank": 3, "predicted": "Road / dark pavement", "confidence": 0.52, "p_road": 0.52, "p_building": 0.03, "p_bare": 0.45, "p_vegetation": 0.0, "p_water": 0.0 }, "geometry": { "type": "Point", "coordinates": [ 54.472024986172762, 24.35653300089492 ] } },
{ "type": "Feature", "properties": { "rank": 4, "predicted": "Bare soil / sand", "confidence": 0.36, "p_road": 0.0, "p_building": 0.33, "p_bare": 0.36, "p_vegetation": 0.0, "p_water": 0.31 }, "geometry": { "type": "Point", "coordinates": [ 54.465831180437711, 24.370690625515085 ] } },
{ "type": "Feature", "properties": { "rank": 5, "predicted": "Building / roof", "confidence": 0.42, "p_road": 0.0, "p_building": 0.42, "p_bare": 0.25, "p_vegetation": 0.0, "p_water": 0.33 }, "geometry": { "type": "Point", "coordinates": [ 54.518162861689561, 24.385457396675275 ] } },
{ "type": "Feature", "properties": { "rank": 6, "predicted": "Road / dark pavement", "confidence": 0.45, "p_road": 0.45, "p_building": 0.21, "p_bare": 0.34, "p_vegetation": 0.0, "p_water": 0.0 }, "geometry": { "type": "Point", "coordinates": [ 54.460877111950737, 24.357249236724641 ] } },
{ "type": "Feature", "properties": { "rank": 7, "predicted": "Building / roof", "confidence": 0.44, "p_road": 0.41, "p_building": 0.44, "p_bare": 0.13, "p_vegetation": 0.01, "p_water": 0.0 }, "geometry": { "type": "Point", "coordinates": [ 54.496376452065114, 24.390785196244487 ] } },
{ "type": "Feature", "properties": { "rank": 8, "predicted": "Bare soil / sand", "confidence": 0.34, "p_road": 0.03, "p_building": 0.33, "p_bare": 0.34, "p_vegetation": 0.01, "p_water": 0.29 }, "geometry": { "type": "Point", "coordinates": [ 54.45957260664143, 24.363365031486236 ] } },
{ "type": "Feature", "properties": { "rank": 9, "predicted": "Bare soil / sand", "confidence": 0.47, "p_road": 0.16, "p_building": 0.36, "p_bare": 0.47, "p_vegetation": 0.0, "p_water": 0.0 }, "geometry": { "type": "Point", "coordinates": [ 54.478534860954689, 24.371083128689257 ] } },
{ "type": "Feature", "properties": { "rank": 10, "predicted": "Building / roof", "confidence": 0.41, "p_road": 0.0, "p_building": 0.41, "p_bare": 0.28, "p_vegetation": 0.0, "p_water": 0.31 }, "geometry": { "type": "Point", "coordinates": [ 54.514035211403666, 24.389902782433534 ] } },
{ "type": "Feature", "properties": { "rank": 11, "predicted": "Water", "confidence": 0.35, "p_road": 0.0, "p_building": 0.33, "p_bare": 0.32, "p_vegetation": 0.0, "p_water": 0.35 }, "geometry": { "type": "Point", "coordinates": [ 54.457794623170415, 24.334000813112826 ] } },
{ "type": "Feature", "properties": { "rank": 12, "predicted": "Building / roof", "confidence": 0.39, "p_road": 0.0, "p_building": 0.39, "p_bare": 0.27, "p_vegetation": 0.0, "p_water": 0.33 }, "geometry": { "type": "Point", "coordinates": [ 54.461817638449922, 24.38416237100224 ] } },
{ "type": "Feature", "properties": { "rank": 13, "predicted": "Bare soil / sand", "confidence": 0.45, "p_road": 0.32, "p_building": 0.24, "p_bare": 0.45, "p_vegetation": 0.0, "p_water": 0.0 }, "geometry": { "type": "Point", "coordinates": [ 54.504372560828614, 24.339919373143577 ] } },
{ "type": "Feature", "properties": { "rank": 14, "predicted": "Bare soil / sand", "confidence": 0.43, "p_road": 0.18, "p_building": 0.39, "p_bare": 0.43, "p_vegetation": 0.0, "p_water": 0.0 }, "geometry": { "type": "Point", "coordinates": [ 54.545910832535057, 24.316226081868791 ] } },
{ "type": "Feature", "properties": { "rank": 15, "predicted": "Building / roof", "confidence": 0.41, "p_road": 0.19, "p_building": 0.41, "p_bare": 0.4, "p_vegetation": 0.0, "p_water": 0.0 }, "geometry": { "type": "Point", "coordinates": [ 54.494667619325519, 24.352486193847227 ] } },
{ "type": "Feature", "properties": { "rank": 16, "predicted": "Bare soil / sand", "confidence": 0.37, "p_road": 0.0, "p_building": 0.28, "p_bare": 0.37, "p_vegetation": 0.0, "p_water": 0.35 }, "geometry": { "type": "Point", "coordinates": [ 54.516480664109764, 24.390845535866386 ] } },
{ "type": "Feature", "properties": { "rank": 17, "predicted": "Bare soil / sand", "confidence": 0.51, "p_road": 0.45, "p_building": 0.04, "p_bare": 0.51, "p_vegetation": 0.0, "p_water": 0.0 }, "geometry": { "type": "Point", "coordinates": [ 54.508217374527732, 24.354875836542263 ] } },
{ "type": "Feature", "properties": { "rank": 18, "predicted": "Bare soil / sand", "confidence": 0.35, "p_road": 0.0, "p_building": 0.32, "p_bare": 0.35, "p_vegetation": 0.0, "p_water": 0.32 }, "geometry": { "type": "Point", "coordinates": [ 54.463803978697271, 24.368580725096869 ] } },
{ "type": "Feature", "properties": { "rank": 19, "predicted": "Road / dark pavement", "confidence": 0.49, "p_road": 0.49, "p_building": 0.01, "p_bare": 0.49, "p_vegetation": 0.0, "p_water": 0.0 }, "geometry": { "type": "Point", "coordinates": [ 54.469506583896447, 24.319664757285565 ] } },
{ "type": "Feature", "properties": { "rank": 20, "predicted": "Building / roof", "confidence": 0.39, "p_road": 0.0, "p_building": 0.39, "p_bare": 0.28, "p_vegetation": 0.0, "p_water": 0.33 }, "geometry": { "type": "Point", "coordinates": [ 54.506881962347151, 24.387799405538981 ] } },
{ "type": "Feature", "properties": { "rank": 21, "predicted": "Bare soil / sand", "confidence": 0.38, "p_road": 0.26, "p_building": 0.36, "p_bare": 0.38, "p_vegetation": 0.0, "p_water": 0.0 }, "geometry": { "type": "Point", "coordinates": [ 54.469387171686598, 24.355405856141392 ] } },
{ "type": "Feature", "properties": { "rank": 22, "predicted": "Bare soil / sand", "confidence": 0.34, "p_road": 0.0, "p_building": 0.33, "p_bare": 0.34, "p_vegetation": 0.0, "p_water": 0.33 }, "geometry": { "type": "Point", "coordinates": [ 54.457058894910112, 24.346173542399068 ] } },
{ "type": "Feature", "properties": { "rank": 23, "predicted": "Building / roof", "confidence": 0.35, "p_road": 0.0, "p_building": 0.35, "p_bare": 0.3, "p_vegetation": 0.0, "p_water": 0.35 }, "geometry": { "type": "Point", "coordinates": [ 54.512337783104989, 24.385993643828865 ] } },
{ "type": "Feature", "properties": { "rank": 24, "predicted": "Bare soil / sand", "confidence": 0.39, "p_road": 0.0, "p_building": 0.26, "p_bare": 0.39, "p_vegetation": 0.0, "p_water": 0.35 }, "geometry": { "type": "Point", "coordinates": [ 54.461173768881842, 24.376930814046506 ] } },
{ "type": "Feature", "properties": { "rank": 25, "predicted": "Building / roof", "confidence": 0.52, "p_road": 0.0, "p_building": 0.52, "p_bare": 0.48, "p_vegetation": 0.0, "p_water": 0.0 }, "geometry": { "type": "Point", "coordinates": [ 54.509727427551958, 24.343166585974227 ] } },
{ "type": "Feature", "properties": { "rank": 26, "predicted": "Road / dark pavement", "confidence": 0.52, "p_road": 0.52, "p_building": 0.07, "p_bare": 0.37, "p_vegetation": 0.04, "p_water": 0.0 }, "geometry": { "type": "Point", "coordinates": [ 54.484817118479974, 24.337429996473951 ] } },
{ "type": "Feature", "properties": { "rank": 27, "predicted": "Building / roof", "confidence": 0.41, "p_road": 0.0, "p_building": 0.41, "p_bare": 0.28, "p_vegetation": 0.0, "p_water": 0.31 }, "geometry": { "type": "Point", "coordinates": [ 54.510543189004082, 24.38704729094658 ] } },
{ "type": "Feature", "properties": { "rank": 28, "predicted": "Building / roof", "confidence": 0.55, "p_road": 0.03, "p_building": 0.55, "p_bare": 0.41, "p_vegetation": 0.0, "p_water": 0.0 }, "geometry": { "type": "Point", "coordinates": [ 54.475325398773599, 24.33916773992992 ] } },
{ "type": "Feature", "properties": { "rank": 29, "predicted": "Building / roof", "confidence": 0.36, "p_road": 0.0, "p_building": 0.36, "p_bare": 0.3, "p_vegetation": 0.0, "p_water": 0.33 }, "geometry": { "type": "Point", "coordinates": [ 54.479471741351738, 24.383464396706874 ] } },
{ "type": "Feature", "properties": { "rank": 30, "predicted": "Road / dark pavement", "confidence": 0.42, "p_road": 0.42, "p_building": 0.24, "p_bare": 0.34, "p_vegetation": 0.0, "p_water": 0.0 }, "geometry": { "type": "Point", "coordinates": [ 54.543756331795663, 24.330904231593085 ] } },
{ "type": "Feature", "properties": { "rank": 31, "predicted": "Building / roof", "confidence": 0.32, "p_road": 0.22, "p_building": 0.32, "p_bare": 0.28, "p_vegetation": 0.04, "p_water": 0.14 }, "geometry": { "type": "Point", "coordinates": [ 54.481528271547504, 24.394059080118655 ] } },
{ "type": "Feature", "properties": { "rank": 32, "predicted": "Bare soil / sand", "confidence": 0.37, "p_road": 0.0, "p_building": 0.27, "p_bare": 0.37, "p_vegetation": 0.0, "p_water": 0.36 }, "geometry": { "type": "Point", "coordinates": [ 54.521408768115442, 24.385781349366528 ] } },
{ "type": "Feature", "properties": { "rank": 33, "predicted": "Bare soil / sand", "confidence": 0.51, "p_road": 0.38, "p_building": 0.11, "p_bare": 0.51, "p_vegetation": 0.0, "p_water": 0.0 }, "geometry": { "type": "Point", "coordinates": [ 54.481477984705577, 24.341887619376422 ] } },
{ "type": "Feature", "properties": { "rank": 34, "predicted": "Bare soil / sand", "confidence": 0.44, "p_road": 0.0, "p_building": 0.23, "p_bare": 0.44, "p_vegetation": 0.0, "p_water": 0.33 }, "geometry": { "type": "Point", "coordinates": [ 54.500344956694825, 24.384442220633858 ] } },
{ "type": "Feature", "properties": { "rank": 35, "predicted": "Building / roof", "confidence": 0.45, "p_road": 0.32, "p_building": 0.45, "p_bare": 0.23, "p_vegetation": 0.0, "p_water": 0.0 }, "geometry": { "type": "Point", "coordinates": [ 54.520202172377502, 24.371861206369907 ] } },
{ "type": "Feature", "properties": { "rank": 36, "predicted": "Bare soil / sand", "confidence": 0.53, "p_road": 0.39, "p_building": 0.03, "p_bare": 0.53, "p_vegetation": 0.04, "p_water": 0.02 }, "geometry": { "type": "Point", "coordinates": [ 54.541077181607044, 24.393052278544026 ] } },
{ "type": "Feature", "properties": { "rank": 37, "predicted": "Building / roof", "confidence": 0.47, "p_road": 0.32, "p_building": 0.47, "p_bare": 0.2, "p_vegetation": 0.0, "p_water": 0.01 }, "geometry": { "type": "Point", "coordinates": [ 54.466919754728472, 24.316011175241822 ] } },
{ "type": "Feature", "properties": { "rank": 38, "predicted": "Building / roof", "confidence": 0.53, "p_road": 0.03, "p_building": 0.53, "p_bare": 0.44, "p_vegetation": 0.0, "p_water": 0.0 }, "geometry": { "type": "Point", "coordinates": [ 54.524534653571898, 24.361912921268299 ] } },
{ "type": "Feature", "properties": { "rank": 39, "predicted": "Bare soil / sand", "confidence": 0.35, "p_road": 0.0, "p_building": 0.33, "p_bare": 0.35, "p_vegetation": 0.0, "p_water": 0.32 }, "geometry": { "type": "Point", "coordinates": [ 54.46210059560994, 24.369996354307531 ] } },
{ "type": "Feature", "properties": { "rank": 40, "predicted": "Building / roof", "confidence": 0.4, "p_road": 0.28, "p_building": 0.4, "p_bare": 0.19, "p_vegetation": 0.12, "p_water": 0.0 }, "geometry": { "type": "Point", "coordinates": [ 54.534967066995591, 24.377788752120559 ] } },
{ "type": "Feature", "properties": { "rank": 41, "predicted": "Bare soil / sand", "confidence": 0.35, "p_road": 0.03, "p_building": 0.33, "p_bare": 0.35, "p_vegetation": 0.01, "p_water": 0.28 }, "geometry": { "type": "Point", "coordinates": [ 54.456566466616039, 24.346165281593134 ] } },
{ "type": "Feature", "properties": { "rank": 42, "predicted": "Building / roof", "confidence": 0.35, "p_road": 0.0, "p_building": 0.35, "p_bare": 0.35, "p_vegetation": 0.0, "p_water": 0.3 }, "geometry": { "type": "Point", "coordinates": [ 54.458533505791657, 24.366055393120465 ] } },
{ "type": "Feature", "properties": { "rank": 43, "predicted": "Bare soil / sand", "confidence": 0.38, "p_road": 0.01, "p_building": 0.32, "p_bare": 0.38, "p_vegetation": 0.0, "p_water": 0.29 }, "geometry": { "type": "Point", "coordinates": [ 54.495016067606784, 24.384805465971073 ] } },
{ "type": "Feature", "properties": { "rank": 44, "predicted": "Building / roof", "confidence": 0.4, "p_road": 0.38, "p_building": 0.4, "p_bare": 0.22, "p_vegetation": 0.0, "p_water": 0.0 }, "geometry": { "type": "Point", "coordinates": [ 54.500199007130341, 24.341746121787647 ] } },
{ "type": "Feature", "properties": { "rank": 45, "predicted": "Bare soil / sand", "confidence": 0.45, "p_road": 0.42, "p_building": 0.13, "p_bare": 0.45, "p_vegetation": 0.0, "p_water": 0.0 }, "geometry": { "type": "Point", "coordinates": [ 54.456281573540473, 24.320978028679356 ] } },
{ "type": "Feature", "properties": { "rank": 46, "predicted": "Road / dark pavement", "confidence": 0.47, "p_road": 0.47, "p_building": 0.09, "p_bare": 0.44, "p_vegetation": 0.0, "p_water": 0.0 }, "geometry": { "type": "Point", "coordinates": [ 54.490603137169245, 24.37372056876087 ] } },
{ "type": "Feature", "properties": { "rank": 47, "predicted": "Building / roof", "confidence": 0.42, "p_road": 0.0, "p_building": 0.42, "p_bare": 0.25, "p_vegetation": 0.0, "p_water": 0.33 }, "geometry": { "type": "Point", "coordinates": [ 54.479749388071845, 24.384371621493532 ] } },
{ "type": "Feature", "properties": { "rank": 48, "predicted": "Building / roof", "confidence": 0.51, "p_road": 0.04, "p_building": 0.51, "p_bare": 0.44, "p_vegetation": 0.0, "p_water": 0.02 }, "geometry": { "type": "Point", "coordinates": [ 54.464524565550228, 24.362094078318663 ] } },
{ "type": "Feature", "properties": { "rank": 49, "predicted": "Bare soil / sand", "confidence": 0.38, "p_road": 0.0, "p_building": 0.31, "p_bare": 0.38, "p_vegetation": 0.0, "p_water": 0.31 }, "geometry": { "type": "Point", "coordinates": [ 54.504862275359599, 24.314924842614015 ] } },
{ "type": "Feature", "properties": { "rank": 50, "predicted": "Bare soil / sand", "confidence": 0.49, "p_road": 0.44, "p_building": 0.06, "p_bare": 0.49, "p_vegetation": 0.0, "p_water": 0.0 }, "geometry": { "type": "Point", "coordinates": [ 54.470795367287337, 24.334127925909293 ] } },
{ "type": "Feature", "properties": { "rank": 51, "predicted": "Bare soil / sand", "confidence": 0.53, "p_road": 0.44, "p_building": 0.03, "p_bare": 0.53, "p_vegetation": 0.0, "p_water": 0.0 }, "geometry": { "type": "Point", "coordinates": [ 54.458652093356164, 24.335459342133689 ] } },
{ "type": "Feature", "properties": { "rank": 52, "predicted": "Bare soil / sand", "confidence": 0.54, "p_road": 0.06, "p_building": 0.4, "p_bare": 0.54, "p_vegetation": 0.0, "p_water": 0.0 }, "geometry": { "type": "Point", "coordinates": [ 54.488296004700423, 24.335862956473644 ] } },
{ "type": "Feature", "properties": { "rank": 53, "predicted": "Bare soil / sand", "confidence": 0.53, "p_road": 0.39, "p_building": 0.07, "p_bare": 0.53, "p_vegetation": 0.0, "p_water": 0.0 }, "geometry": { "type": "Point", "coordinates": [ 54.479863314748251, 24.353775204519465 ] } },
{ "type": "Feature", "properties": { "rank": 54, "predicted": "Bare soil / sand", "confidence": 0.43, "p_road": 0.0, "p_building": 0.3, "p_bare": 0.43, "p_vegetation": 0.0, "p_water": 0.27 }, "geometry": { "type": "Point", "coordinates": [ 54.504713460914921, 24.382799301679569 ] } },
{ "type": "Feature", "properties": { "rank": 55, "predicted": "Building / roof", "confidence": 0.34, "p_road": 0.0, "p_building": 0.34, "p_bare": 0.33, "p_vegetation": 0.0, "p_water": 0.33 }, "geometry": { "type": "Point", "coordinates": [ 54.464881640685874, 24.373833830660246 ] } },
{ "type": "Feature", "properties": { "rank": 56, "predicted": "Bare soil / sand", "confidence": 0.51, "p_road": 0.0, "p_building": 0.48, "p_bare": 0.51, "p_vegetation": 0.0, "p_water": 0.0 }, "geometry": { "type": "Point", "coordinates": [ 54.480922413652166, 24.374913792218749 ] } },
{ "type": "Feature", "properties": { "rank": 57, "predicted": "Building / roof", "confidence": 0.4, "p_road": 0.0, "p_building": 0.4, "p_bare": 0.25, "p_vegetation": 0.0, "p_water": 0.35 }, "geometry": { "type": "Point", "coordinates": [ 54.503815379565836, 24.38838071048567 ] } },
{ "type": "Feature", "properties": { "rank": 58, "predicted": "Road / dark pavement", "confidence": 0.4, "p_road": 0.4, "p_building": 0.39, "p_bare": 0.2, "p_vegetation": 0.0, "p_water": 0.01 }, "geometry": { "type": "Point", "coordinates": [ 54.505032705969498, 24.31628157750448 ] } },
{ "type": "Feature", "properties": { "rank": 59, "predicted": "Bare soil / sand", "confidence": 0.37, "p_road": 0.37, "p_building": 0.24, "p_bare": 0.37, "p_vegetation": 0.02, "p_water": 0.0 }, "geometry": { "type": "Point", "coordinates": [ 54.529731409330047, 24.373370839802547 ] } },
{ "type": "Feature", "properties": { "rank": 60, "predicted": "Building / roof", "confidence": 0.38, "p_road": 0.0, "p_building": 0.38, "p_bare": 0.26, "p_vegetation": 0.0, "p_water": 0.36 }, "geometry": { "type": "Point", "coordinates": [ 54.461650095426243, 24.377751134079862 ] } },
{ "type": "Feature", "properties": { "rank": 61, "predicted": "Vegetation", "confidence": 0.35, "p_road": 0.26, "p_building": 0.01, "p_bare": 0.16, "p_vegetation": 0.35, "p_water": 0.22 }, "geometry": { "type": "Point", "coordinates": [ 54.48258865272831, 24.390285780281992 ] } },
{ "type": "Feature", "properties": { "rank": 62, "predicted": "Bare soil / sand", "confidence": 0.38, "p_road": 0.28, "p_building": 0.34, "p_bare": 0.38, "p_vegetation": 0.0, "p_water": 0.0 }, "geometry": { "type": "Point", "coordinates": [ 54.534773389973239, 24.316587135571705 ] } },
{ "type": "Feature", "properties": { "rank": 63, "predicted": "Bare soil / sand", "confidence": 0.35, "p_road": 0.0, "p_building": 0.34, "p_bare": 0.35, "p_vegetation": 0.0, "p_water": 0.31 }, "geometry": { "type": "Point", "coordinates": [ 54.459808613211379, 24.366347555851711 ] } },
{ "type": "Feature", "properties": { "rank": 64, "predicted": "Road / dark pavement", "confidence": 0.42, "p_road": 0.42, "p_building": 0.33, "p_bare": 0.26, "p_vegetation": 0.0, "p_water": 0.0 }, "geometry": { "type": "Point", "coordinates": [ 54.501276840619617, 24.316941872637102 ] } },
{ "type": "Feature", "properties": { "rank": 65, "predicted": "Bare soil / sand", "confidence": 0.49, "p_road": 0.02, "p_building": 0.49, "p_bare": 0.49, "p_vegetation": 0.0, "p_water": 0.0 }, "geometry": { "type": "Point", "coordinates": [ 54.465586879327503, 24.358230672847625 ] } },
{ "type": "Feature", "properties": { "rank": 66, "predicted": "Bare soil / sand", "confidence": 0.56, "p_road": 0.43, "p_building": 0.01, "p_bare": 0.56, "p_vegetation": 0.0, "p_water": 0.0 }, "geometry": { "type": "Point", "coordinates": [ 54.489198940718246, 24.34002992561491 ] } },
{ "type": "Feature", "properties": { "rank": 67, "predicted": "Building / roof", "confidence": 0.51, "p_road": 0.0, "p_building": 0.51, "p_bare": 0.47, "p_vegetation": 0.0, "p_water": 0.02 }, "geometry": { "type": "Point", "coordinates": [ 54.503532732025889, 24.317430314620029 ] } },
{ "type": "Feature", "properties": { "rank": 68, "predicted": "Building / roof", "confidence": 0.36, "p_road": 0.01, "p_building": 0.36, "p_bare": 0.35, "p_vegetation": 0.0, "p_water": 0.29 }, "geometry": { "type": "Point", "coordinates": [ 54.460627874976041, 24.359862592643406 ] } },
{ "type": "Feature", "properties": { "rank": 69, "predicted": "Bare soil / sand", "confidence": 0.36, "p_road": 0.0, "p_building": 0.28, "p_bare": 0.36, "p_vegetation": 0.0, "p_water": 0.36 }, "geometry": { "type": "Point", "coordinates": [ 54.459415255517577, 24.331771473199822 ] } },
{ "type": "Feature", "properties": { "rank": 70, "predicted": "Water", "confidence": 0.33, "p_road": 0.0, "p_building": 0.33, "p_bare": 0.33, "p_vegetation": 0.0, "p_water": 0.33 }, "geometry": { "type": "Point", "coordinates": [ 54.464421505933174, 24.372201453233131 ] } },
{ "type": "Feature", "properties": { "rank": 71, "predicted": "Bare soil / sand", "confidence": 0.35, "p_road": 0.0, "p_building": 0.33, "p_bare": 0.35, "p_vegetation": 0.0, "p_water": 0.32 }, "geometry": { "type": "Point", "coordinates": [ 54.459158775370497, 24.364350948172671 ] } },
{ "type": "Feature", "properties": { "rank": 72, "predicted": "Road / dark pavement", "confidence": 0.52, "p_road": 0.52, "p_building": 0.05, "p_bare": 0.43, "p_vegetation": 0.0, "p_water": 0.0 }, "geometry": { "type": "Point", "coordinates": [ 54.540765867645234, 24.393859589132941 ] } },
{ "type": "Feature", "properties": { "rank": 73, "predicted": "Bare soil / sand", "confidence": 0.54, "p_road": 0.01, "p_building": 0.45, "p_bare": 0.54, "p_vegetation": 0.0, "p_water": 0.0 }, "geometry": { "type": "Point", "coordinates": [ 54.483896989921114, 24.319181992535505 ] } },
{ "type": "Feature", "properties": { "rank": 74, "predicted": "Bare soil / sand", "confidence": 0.44, "p_road": 0.41, "p_building": 0.16, "p_bare": 0.44, "p_vegetation": 0.0, "p_water": 0.0 }, "geometry": { "type": "Point", "coordinates": [ 54.487913065196928, 24.355262751418842 ] } },
{ "type": "Feature", "properties": { "rank": 75, "predicted": "Bare soil / sand", "confidence": 0.53, "p_road": 0.43, "p_building": 0.04, "p_bare": 0.53, "p_vegetation": 0.0, "p_water": 0.0 }, "geometry": { "type": "Point", "coordinates": [ 54.530298281462287, 24.354334619927517 ] } },
{ "type": "Feature", "properties": { "rank": 76, "predicted": "Bare soil / sand", "confidence": 0.55, "p_road": 0.0, "p_building": 0.45, "p_bare": 0.55, "p_vegetation": 0.0, "p_water": 0.0 }, "geometry": { "type": "Point", "coordinates": [ 54.493822539581544, 24.330358176125085 ] } },
{ "type": "Feature", "properties": { "rank": 77, "predicted": "Building / roof", "confidence": 0.41, "p_road": 0.0, "p_building": 0.41, "p_bare": 0.27, "p_vegetation": 0.0, "p_water": 0.31 }, "geometry": { "type": "Point", "coordinates": [ 54.510277693620218, 24.385508476126482 ] } },
{ "type": "Feature", "properties": { "rank": 78, "predicted": "Building / roof", "confidence": 0.4, "p_road": 0.0, "p_building": 0.4, "p_bare": 0.28, "p_vegetation": 0.0, "p_water": 0.31 }, "geometry": { "type": "Point", "coordinates": [ 54.513517857282928, 24.391157952569301 ] } },
{ "type": "Feature", "properties": { "rank": 79, "predicted": "Road / dark pavement", "confidence": 0.46, "p_road": 0.46, "p_building": 0.13, "p_bare": 0.41, "p_vegetation": 0.0, "p_water": 0.0 }, "geometry": { "type": "Point", "coordinates": [ 54.503472619451522, 24.320498236134998 ] } },
{ "type": "Feature", "properties": { "rank": 80, "predicted": "Bare soil / sand", "confidence": 0.49, "p_road": 0.44, "p_building": 0.06, "p_bare": 0.49, "p_vegetation": 0.0, "p_water": 0.0 }, "geometry": { "type": "Point", "coordinates": [ 54.478987736649927, 24.358183412720408 ] } },
{ "type": "Feature", "properties": { "rank": 81, "predicted": "Bare soil / sand", "confidence": 0.36, "p_road": 0.0, "p_building": 0.35, "p_bare": 0.36, "p_vegetation": 0.0, "p_water": 0.29 }, "geometry": { "type": "Point", "coordinates": [ 54.460269928269916, 24.358051399894169 ] } },
{ "type": "Feature", "properties": { "rank": 82, "predicted": "Bare soil / sand", "confidence": 0.53, "p_road": 0.08, "p_building": 0.39, "p_bare": 0.53, "p_vegetation": 0.0, "p_water": 0.0 }, "geometry": { "type": "Point", "coordinates": [ 54.471175123680382, 24.37944489304552 ] } },
{ "type": "Feature", "properties": { "rank": 83, "predicted": "Water", "confidence": 0.36, "p_road": 0.0, "p_building": 0.35, "p_bare": 0.29, "p_vegetation": 0.0, "p_water": 0.36 }, "geometry": { "type": "Point", "coordinates": [ 54.492052998597103, 24.315164992711253 ] } },
{ "type": "Feature", "properties": { "rank": 84, "predicted": "Road / dark pavement", "confidence": 0.53, "p_road": 0.53, "p_building": 0.06, "p_bare": 0.4, "p_vegetation": 0.0, "p_water": 0.01 }, "geometry": { "type": "Point", "coordinates": [ 54.457681589802718, 24.349523594687057 ] } },
{ "type": "Feature", "properties": { "rank": 85, "predicted": "Bare soil / sand", "confidence": 0.37, "p_road": 0.01, "p_building": 0.35, "p_bare": 0.37, "p_vegetation": 0.0, "p_water": 0.27 }, "geometry": { "type": "Point", "coordinates": [ 54.460950984299984, 24.368352417146244 ] } },
{ "type": "Feature", "properties": { "rank": 86, "predicted": "Bare soil / sand", "confidence": 0.38, "p_road": 0.0, "p_building": 0.25, "p_bare": 0.38, "p_vegetation": 0.0, "p_water": 0.37 }, "geometry": { "type": "Point", "coordinates": [ 54.499653550547308, 24.384521066997191 ] } },
{ "type": "Feature", "properties": { "rank": 87, "predicted": "Bare soil / sand", "confidence": 0.41, "p_road": 0.32, "p_building": 0.21, "p_bare": 0.41, "p_vegetation": 0.06, "p_water": 0.0 }, "geometry": { "type": "Point", "coordinates": [ 54.514532747291426, 24.3946948300913 ] } },
{ "type": "Feature", "properties": { "rank": 88, "predicted": "Building / roof", "confidence": 0.46, "p_road": 0.15, "p_building": 0.46, "p_bare": 0.39, "p_vegetation": 0.0, "p_water": 0.0 }, "geometry": { "type": "Point", "coordinates": [ 54.466989181695887, 24.357080737936958 ] } },
{ "type": "Feature", "properties": { "rank": 89, "predicted": "Building / roof", "confidence": 0.34, "p_road": 0.0, "p_building": 0.34, "p_bare": 0.33, "p_vegetation": 0.0, "p_water": 0.33 }, "geometry": { "type": "Point", "coordinates": [ 54.463622650860579, 24.372729637697713 ] } },
{ "type": "Feature", "properties": { "rank": 90, "predicted": "Building / roof", "confidence": 0.39, "p_road": 0.0, "p_building": 0.39, "p_bare": 0.28, "p_vegetation": 0.0, "p_water": 0.34 }, "geometry": { "type": "Point", "coordinates": [ 54.459814109359293, 24.390717711373789 ] } },
{ "type": "Feature", "properties": { "rank": 91, "predicted": "Building / roof", "confidence": 0.53, "p_road": 0.42, "p_building": 0.53, "p_bare": 0.05, "p_vegetation": 0.0, "p_water": 0.0 }, "geometry": { "type": "Point", "coordinates": [ 54.466674605460796, 24.34813973386153 ] } },
{ "type": "Feature", "properties": { "rank": 92, "predicted": "Road / dark pavement", "confidence": 0.5, "p_road": 0.5, "p_building": 0.03, "p_bare": 0.48, "p_vegetation": 0.0, "p_water": 0.0 }, "geometry": { "type": "Point", "coordinates": [ 54.543976393689633, 24.390933023996844 ] } },
{ "type": "Feature", "properties": { "rank": 93, "predicted": "Bare soil / sand", "confidence": 0.43, "p_road": 0.1, "p_building": 0.05, "p_bare": 0.43, "p_vegetation": 0.08, "p_water": 0.36 }, "geometry": { "type": "Point", "coordinates": [ 54.482307255863489, 24.384594692879372 ] } },
{ "type": "Feature", "properties": { "rank": 94, "predicted": "Bare soil / sand", "confidence": 0.34, "p_road": 0.0, "p_building": 0.33, "p_bare": 0.34, "p_vegetation": 0.0, "p_water": 0.33 }, "geometry": { "type": "Point", "coordinates": [ 54.482323351631145, 24.38378261619242 ] } },
{ "type": "Feature", "properties": { "rank": 95, "predicted": "Road / dark pavement", "confidence": 0.5, "p_road": 0.5, "p_building": 0.1, "p_bare": 0.41, "p_vegetation": 0.0, "p_water": 0.0 }, "geometry": { "type": "Point", "coordinates": [ 54.48003031511174, 24.325436089684466 ] } },
{ "type": "Feature", "properties": { "rank": 96, "predicted": "Building / roof", "confidence": 0.46, "p_road": 0.36, "p_building": 0.46, "p_bare": 0.18, "p_vegetation": 0.0, "p_water": 0.0 }, "geometry": { "type": "Point", "coordinates": [ 54.49661534352051, 24.348637132264908 ] } },
{ "type": "Feature", "properties": { "rank": 97, "predicted": "Bare soil / sand", "confidence": 0.51, "p_road": 0.37, "p_building": 0.12, "p_bare": 0.51, "p_vegetation": 0.0, "p_water": 0.0 }, "geometry": { "type": "Point", "coordinates": [ 54.465687418826676, 24.328446520320469 ] } },
{ "type": "Feature", "properties": { "rank": 98, "predicted": "Building / roof", "confidence": 0.41, "p_road": 0.0, "p_building": 0.41, "p_bare": 0.26, "p_vegetation": 0.0, "p_water": 0.33 }, "geometry": { "type": "Point", "coordinates": [ 54.512205681694851, 24.387706448022335 ] } },
{ "type": "Feature", "properties": { "rank": 99, "predicted": "Bare soil / sand", "confidence": 0.32, "p_road": 0.05, "p_building": 0.3, "p_bare": 0.32, "p_vegetation": 0.04, "p_water": 0.29 }, "geometry": { "type": "Point", "coordinates": [ 54.456457159330327, 24.346705005544603 ] } },
{ "type": "Feature", "properties": { "rank": 100, "predicted": "Building / roof", "confidence": 0.56, "p_road": 0.01, "p_building": 0.56, "p_bare": 0.44, "p_vegetation": 0.0, "p_water": 0.0 }, "geometry": { "type": "Point", "coordinates": [ 54.476512635126056, 24.343881054799237 ] } },
{ "type": "Feature", "properties": { "rank": 101, "predicted": "Bare soil / sand", "confidence": 0.41, "p_road": 0.0, "p_building": 0.28, "p_bare": 0.41, "p_vegetation": 0.0, "p_water": 0.31 }, "geometry": { "type": "Point", "coordinates": [ 54.501317535123185, 24.314866516630602 ] } },
{ "type": "Feature", "properties": { "rank": 102, "predicted": "Building / roof", "confidence": 0.42, "p_road": 0.0, "p_building": 0.42, "p_bare": 0.26, "p_vegetation": 0.0, "p_water": 0.31 }, "geometry": { "type": "Point", "coordinates": [ 54.509418756151419, 24.389104818268134 ] } },
{ "type": "Feature", "properties": { "rank": 103, "predicted": "Building / roof", "confidence": 0.34, "p_road": 0.0, "p_building": 0.34, "p_bare": 0.33, "p_vegetation": 0.0, "p_water": 0.34 }, "geometry": { "type": "Point", "coordinates": [ 54.490455702855272, 24.386174129371497 ] } },
{ "type": "Feature", "properties": { "rank": 104, "predicted": "Building / roof", "confidence": 0.49, "p_road": 0.13, "p_building": 0.49, "p_bare": 0.37, "p_vegetation": 0.0, "p_water": 0.0 }, "geometry": { "type": "Point", "coordinates": [ 54.491846913998486, 24.380601003257617 ] } },
{ "type": "Feature", "properties": { "rank": 105, "predicted": "Building / roof", "confidence": 0.46, "p_road": 0.14, "p_building": 0.46, "p_bare": 0.4, "p_vegetation": 0.0, "p_water": 0.0 }, "geometry": { "type": "Point", "coordinates": [ 54.47067476849444, 24.355066309199916 ] } },
{ "type": "Feature", "properties": { "rank": 106, "predicted": "Bare soil / sand", "confidence": 0.35, "p_road": 0.0, "p_building": 0.32, "p_bare": 0.35, "p_vegetation": 0.0, "p_water": 0.33 }, "geometry": { "type": "Point", "coordinates": [ 54.460953958942326, 24.373136226929581 ] } },
{ "type": "Feature", "properties": { "rank": 107, "predicted": "Building / roof", "confidence": 0.4, "p_road": 0.0, "p_building": 0.4, "p_bare": 0.27, "p_vegetation": 0.0, "p_water": 0.33 }, "geometry": { "type": "Point", "coordinates": [ 54.488057337906149, 24.387849314219153 ] } },
{ "type": "Feature", "properties": { "rank": 108, "predicted": "Bare soil / sand", "confidence": 0.46, "p_road": 0.0, "p_building": 0.35, "p_bare": 0.46, "p_vegetation": 0.0, "p_water": 0.19 }, "geometry": { "type": "Point", "coordinates": [ 54.491665170347936, 24.389804604676971 ] } },
{ "type": "Feature", "properties": { "rank": 109, "predicted": "Building / roof", "confidence": 0.44, "p_road": 0.35, "p_building": 0.44, "p_bare": 0.21, "p_vegetation": 0.0, "p_water": 0.0 }, "geometry": { "type": "Point", "coordinates": [ 54.543254224776554, 24.326292646754371 ] } },
{ "type": "Feature", "properties": { "rank": 110, "predicted": "Road / dark pavement", "confidence": 0.51, "p_road": 0.51, "p_building": 0.06, "p_bare": 0.44, "p_vegetation": 0.0, "p_water": 0.0 }, "geometry": { "type": "Point", "coordinates": [ 54.477642699306458, 24.3514817513224 ] } },
{ "type": "Feature", "properties": { "rank": 111, "predicted": "Bare soil / sand", "confidence": 0.49, "p_road": 0.12, "p_building": 0.38, "p_bare": 0.49, "p_vegetation": 0.0, "p_water": 0.01 }, "geometry": { "type": "Point", "coordinates": [ 54.470163668496475, 24.31633607446128 ] } },
{ "type": "Feature", "properties": { "rank": 112, "predicted": "Bare soil / sand", "confidence": 0.45, "p_road": 0.15, "p_building": 0.4, "p_bare": 0.45, "p_vegetation": 0.0, "p_water": 0.0 }, "geometry": { "type": "Point", "coordinates": [ 54.491841556262962, 24.350905015151017 ] } },
{ "type": "Feature", "properties": { "rank": 113, "predicted": "Building / roof", "confidence": 0.41, "p_road": 0.0, "p_building": 0.41, "p_bare": 0.25, "p_vegetation": 0.0, "p_water": 0.34 }, "geometry": { "type": "Point", "coordinates": [ 54.465498722413308, 24.382418834490743 ] } },
{ "type": "Feature", "properties": { "rank": 114, "predicted": "Building / roof", "confidence": 0.41, "p_road": 0.0, "p_building": 0.41, "p_bare": 0.27, "p_vegetation": 0.0, "p_water": 0.32 }, "geometry": { "type": "Point", "coordinates": [ 54.464564000889958, 24.379875916063153 ] } },
{ "type": "Feature", "properties": { "rank": 115, "predicted": "Building / roof", "confidence": 0.49, "p_road": 0.08, "p_building": 0.49, "p_bare": 0.43, "p_vegetation": 0.0, "p_water": 0.0 }, "geometry": { "type": "Point", "coordinates": [ 54.465026532907281, 24.331955624533784 ] } },
{ "type": "Feature", "properties": { "rank": 116, "predicted": "Bare soil / sand", "confidence": 0.37, "p_road": 0.0, "p_building": 0.32, "p_bare": 0.37, "p_vegetation": 0.0, "p_water": 0.31 }, "geometry": { "type": "Point", "coordinates": [ 54.461810487468888, 24.369720714862805 ] } },
{ "type": "Feature", "properties": { "rank": 117, "predicted": "Road / dark pavement", "confidence": 0.47, "p_road": 0.47, "p_building": 0.14, "p_bare": 0.39, "p_vegetation": 0.0, "p_water": 0.0 }, "geometry": { "type": "Point", "coordinates": [ 54.462927995231986, 24.353221890589598 ] } },
{ "type": "Feature", "properties": { "rank": 118, "predicted": "Building / roof", "confidence": 0.4, "p_road": 0.0, "p_building": 0.4, "p_bare": 0.25, "p_vegetation": 0.0, "p_water": 0.34 }, "geometry": { "type": "Point", "coordinates": [ 54.501836933198362, 24.383744750978792 ] } },
{ "type": "Feature", "properties": { "rank": 119, "predicted": "Bare soil / sand", "confidence": 0.53, "p_road": 0.4, "p_building": 0.07, "p_bare": 0.53, "p_vegetation": 0.0, "p_water": 0.0 }, "geometry": { "type": "Point", "coordinates": [ 54.471822615788135, 24.356800405905584 ] } },
{ "type": "Feature", "properties": { "rank": 120, "predicted": "Road / dark pavement", "confidence": 0.49, "p_road": 0.49, "p_building": 0.15, "p_bare": 0.36, "p_vegetation": 0.0, "p_water": 0.0 }, "geometry": { "type": "Point", "coordinates": [ 54.496903714771094, 24.349002940102906 ] } },
{ "type": "Feature", "properties": { "rank": 121, "predicted": "Building / roof", "confidence": 0.38, "p_road": 0.0, "p_building": 0.38, "p_bare": 0.32, "p_vegetation": 0.0, "p_water": 0.3 }, "geometry": { "type": "Point", "coordinates": [ 54.490858692235904, 24.385729503587982 ] } },
{ "type": "Feature", "properties": { "rank": 122, "predicted": "Bare soil / sand", "confidence": 0.36, "p_road": 0.35, "p_building": 0.29, "p_bare": 0.36, "p_vegetation": 0.0, "p_water": 0.0 }, "geometry": { "type": "Point", "coordinates": [ 54.538194524922858, 24.358705452908147 ] } },
{ "type": "Feature", "properties": { "rank": 123, "predicted": "Building / roof", "confidence": 0.41, "p_road": 0.0, "p_building": 0.41, "p_bare": 0.27, "p_vegetation": 0.0, "p_water": 0.32 }, "geometry": { "type": "Point", "coordinates": [ 54.488026630463139, 24.384418897350344 ] } },
{ "type": "Feature", "properties": { "rank": 124, "predicted": "Bare soil / sand", "confidence": 0.39, "p_road": 0.0, "p_building": 0.23, "p_bare": 0.39, "p_vegetation": 0.0, "p_water": 0.37 }, "geometry": { "type": "Point", "coordinates": [ 54.460887710838136, 24.386313008179041 ] } },
{ "type": "Feature", "properties": { "rank": 125, "predicted": "Building / roof", "confidence": 0.39, "p_road": 0.25, "p_building": 0.39, "p_bare": 0.36, "p_vegetation": 0.0, "p_water": 0.0 }, "geometry": { "type": "Point", "coordinates": [ 54.50014583634178, 24.344453095865308 ] } },
{ "type": "Feature", "properties": { "rank": 126, "predicted": "Bare soil / sand", "confidence": 0.52, "p_road": 0.0, "p_building": 0.48, "p_bare": 0.52, "p_vegetation": 0.0, "p_water": 0.0 }, "geometry": { "type": "Point", "coordinates": [ 54.521801211436888, 24.365659266456721 ] } },
{ "type": "Feature", "properties": { "rank": 127, "predicted": "Building / roof", "confidence": 0.4, "p_road": 0.32, "p_building": 0.4, "p_bare": 0.28, "p_vegetation": 0.0, "p_water": 0.0 }, "geometry": { "type": "Point", "coordinates": [ 54.481772115294262, 24.32203509477818 ] } },
{ "type": "Feature", "properties": { "rank": 128, "predicted": "Bare soil / sand", "confidence": 0.35, "p_road": 0.33, "p_building": 0.32, "p_bare": 0.35, "p_vegetation": 0.0, "p_water": 0.0 }, "geometry": { "type": "Point", "coordinates": [ 54.5293273510893, 24.384015245218002 ] } },
{ "type": "Feature", "properties": { "rank": 129, "predicted": "Building / roof", "confidence": 0.4, "p_road": 0.25, "p_building": 0.4, "p_bare": 0.35, "p_vegetation": 0.0, "p_water": 0.0 }, "geometry": { "type": "Point", "coordinates": [ 54.510034465859484, 24.352649148603426 ] } },
{ "type": "Feature", "properties": { "rank": 130, "predicted": "Bare soil / sand", "confidence": 0.51, "p_road": 0.04, "p_building": 0.45, "p_bare": 0.51, "p_vegetation": 0.0, "p_water": 0.0 }, "geometry": { "type": "Point", "coordinates": [ 54.540961432885325, 24.337899508362792 ] } },
{ "type": "Feature", "properties": { "rank": 131, "predicted": "Building / roof", "confidence": 0.4, "p_road": 0.0, "p_building": 0.4, "p_bare": 0.26, "p_vegetation": 0.0, "p_water": 0.33 }, "geometry": { "type": "Point", "coordinates": [ 54.512950108906658, 24.384920560049295 ] } },
{ "type": "Feature", "properties": { "rank": 132, "predicted": "Road / dark pavement", "confidence": 0.43, "p_road": 0.43, "p_building": 0.24, "p_bare": 0.31, "p_vegetation": 0.0, "p_water": 0.03 }, "geometry": { "type": "Point", "coordinates": [ 54.52650905688035, 24.316091595376754 ] } },
{ "type": "Feature", "properties": { "rank": 133, "predicted": "Building / roof", "confidence": 0.34, "p_road": 0.0, "p_building": 0.34, "p_bare": 0.33, "p_vegetation": 0.0, "p_water": 0.33 }, "geometry": { "type": "Point", "coordinates": [ 54.512260015574853, 24.389963885768907 ] } },
{ "type": "Feature", "properties": { "rank": 134, "predicted": "Bare soil / sand", "confidence": 0.38, "p_road": 0.04, "p_building": 0.28, "p_bare": 0.38, "p_vegetation": 0.02, "p_water": 0.29 }, "geometry": { "type": "Point", "coordinates": [ 54.464179992715955, 24.369489617327975 ] } },
{ "type": "Feature", "properties": { "rank": 135, "predicted": "Building / roof", "confidence": 0.41, "p_road": 0.0, "p_building": 0.41, "p_bare": 0.29, "p_vegetation": 0.0, "p_water": 0.3 }, "geometry": { "type": "Point", "coordinates": [ 54.516744761097513, 24.38741991181956 ] } },
{ "type": "Feature", "properties": { "rank": 136, "predicted": "Building / roof", "confidence": 0.5, "p_road": 0.14, "p_building": 0.5, "p_bare": 0.36, "p_vegetation": 0.0, "p_water": 0.0 }, "geometry": { "type": "Point", "coordinates": [ 54.511375562738792, 24.339492896079346 ] } },
{ "type": "Feature", "properties": { "rank": 137, "predicted": "Building / roof", "confidence": 0.36, "p_road": 0.0, "p_building": 0.36, "p_bare": 0.3, "p_vegetation": 0.0, "p_water": 0.34 }, "geometry": { "type": "Point", "coordinates": [ 54.486452134603894, 24.384302509412695 ] } },
{ "type": "Feature", "properties": { "rank": 138, "predicted": "Building / roof", "confidence": 0.41, "p_road": 0.0, "p_building": 0.41, "p_bare": 0.3, "p_vegetation": 0.0, "p_water": 0.29 }, "geometry": { "type": "Point", "coordinates": [ 54.45824367738188, 24.350977175834462 ] } },
{ "type": "Feature", "properties": { "rank": 139, "predicted": "Road / dark pavement", "confidence": 0.45, "p_road": 0.45, "p_building": 0.41, "p_bare": 0.14, "p_vegetation": 0.0, "p_water": 0.0 }, "geometry": { "type": "Point", "coordinates": [ 54.532545234202395, 24.345164380124892 ] } },
{ "type": "Feature", "properties": { "rank": 140, "predicted": "Building / roof", "confidence": 0.43, "p_road": 0.39, "p_building": 0.43, "p_bare": 0.18, "p_vegetation": 0.0, "p_water": 0.0 }, "geometry": { "type": "Point", "coordinates": [ 54.489278221344613, 24.316021722625589 ] } },
{ "type": "Feature", "properties": { "rank": 141, "predicted": "Road / dark pavement", "confidence": 0.47, "p_road": 0.47, "p_building": 0.39, "p_bare": 0.13, "p_vegetation": 0.0, "p_water": 0.0 }, "geometry": { "type": "Point", "coordinates": [ 54.514059543102768, 24.393694179803038 ] } },
{ "type": "Feature", "properties": { "rank": 142, "predicted": "Building / roof", "confidence": 0.41, "p_road": 0.0, "p_building": 0.41, "p_bare": 0.29, "p_vegetation": 0.0, "p_water": 0.3 }, "geometry": { "type": "Point", "coordinates": [ 54.495125262238574, 24.384265705949751 ] } },
{ "type": "Feature", "properties": { "rank": 143, "predicted": "Building / roof", "confidence": 0.37, "p_road": 0.01, "p_building": 0.37, "p_bare": 0.37, "p_vegetation": 0.0, "p_water": 0.26 }, "geometry": { "type": "Point", "coordinates": [ 54.457767457373208, 24.350156852514942 ] } },
{ "type": "Feature", "properties": { "rank": 144, "predicted": "Bare soil / sand", "confidence": 0.36, "p_road": 0.0, "p_building": 0.32, "p_bare": 0.36, "p_vegetation": 0.0, "p_water": 0.32 }, "geometry": { "type": "Point", "coordinates": [ 54.460285530680657, 24.362203607196971 ] } },
{ "type": "Feature", "properties": { "rank": 145, "predicted": "Bare soil / sand", "confidence": 0.36, "p_road": 0.0, "p_building": 0.32, "p_bare": 0.36, "p_vegetation": 0.0, "p_water": 0.31 }, "geometry": { "type": "Point", "coordinates": [ 54.460845888957159, 24.36374741302447 ] } },
{ "type": "Feature", "properties": { "rank": 146, "predicted": "Building / roof", "confidence": 0.4, "p_road": 0.0, "p_building": 0.4, "p_bare": 0.27, "p_vegetation": 0.0, "p_water": 0.33 }, "geometry": { "type": "Point", "coordinates": [ 54.464264862131266, 24.380051427053726 ] } },
{ "type": "Feature", "properties": { "rank": 147, "predicted": "Building / roof", "confidence": 0.51, "p_road": 0.0, "p_building": 0.51, "p_bare": 0.49, "p_vegetation": 0.0, "p_water": 0.0 }, "geometry": { "type": "Point", "coordinates": [ 54.503654855100628, 24.341351749159529 ] } },
{ "type": "Feature", "properties": { "rank": 148, "predicted": "Building / roof", "confidence": 0.5, "p_road": 0.35, "p_building": 0.5, "p_bare": 0.15, "p_vegetation": 0.0, "p_water": 0.0 }, "geometry": { "type": "Point", "coordinates": [ 54.531145359196088, 24.346224747624493 ] } },
{ "type": "Feature", "properties": { "rank": 149, "predicted": "Bare soil / sand", "confidence": 0.38, "p_road": 0.33, "p_building": 0.29, "p_bare": 0.38, "p_vegetation": 0.0, "p_water": 0.0 }, "geometry": { "type": "Point", "coordinates": [ 54.534042232242435, 24.364505042827542 ] } },
{ "type": "Feature", "properties": { "rank": 150, "predicted": "Bare soil / sand", "confidence": 0.42, "p_road": 0.38, "p_building": 0.2, "p_bare": 0.42, "p_vegetation": 0.0, "p_water": 0.0 }, "geometry": { "type": "Point", "coordinates": [ 54.467414072629957, 24.375320351668364 ] } },
{ "type": "Feature", "properties": { "rank": 151, "predicted": "Building / roof", "confidence": 0.36, "p_road": 0.0, "p_building": 0.36, "p_bare": 0.36, "p_vegetation": 0.0, "p_water": 0.27 }, "geometry": { "type": "Point", "coordinates": [ 54.464674784079165, 24.364443348324269 ] } },
{ "type": "Feature", "properties": { "rank": 152, "predicted": "Building / roof", "confidence": 0.45, "p_road": 0.22, "p_building": 0.45, "p_bare": 0.33, "p_vegetation": 0.0, "p_water": 0.0 }, "geometry": { "type": "Point", "coordinates": [ 54.498201753488878, 24.338102714909102 ] } },
{ "type": "Feature", "properties": { "rank": 153, "predicted": "Building / roof", "confidence": 0.46, "p_road": 0.44, "p_building": 0.46, "p_bare": 0.11, "p_vegetation": 0.0, "p_water": 0.0 }, "geometry": { "type": "Point", "coordinates": [ 54.475181974615275, 24.326528861969216 ] } },
{ "type": "Feature", "properties": { "rank": 154, "predicted": "Building / roof", "confidence": 0.4, "p_road": 0.0, "p_building": 0.4, "p_bare": 0.28, "p_vegetation": 0.0, "p_water": 0.32 }, "geometry": { "type": "Point", "coordinates": [ 54.465069657022234, 24.374288276179453 ] } },
{ "type": "Feature", "properties": { "rank": 155, "predicted": "Bare soil / sand", "confidence": 0.4, "p_road": 0.23, "p_building": 0.36, "p_bare": 0.4, "p_vegetation": 0.0, "p_water": 0.0 }, "geometry": { "type": "Point", "coordinates": [ 54.488901027372229, 24.320167506240097 ] } },
{ "type": "Feature", "properties": { "rank": 156, "predicted": "Bare soil / sand", "confidence": 0.39, "p_road": 0.0, "p_building": 0.36, "p_bare": 0.39, "p_vegetation": 0.0, "p_water": 0.24 }, "geometry": { "type": "Point", "coordinates": [ 54.466513523859774, 24.371063078148918 ] } },
{ "type": "Feature", "properties": { "rank": 157, "predicted": "Bare soil / sand", "confidence": 0.36, "p_road": 0.0, "p_building": 0.32, "p_bare": 0.36, "p_vegetation": 0.0, "p_water": 0.31 }, "geometry": { "type": "Point", "coordinates": [ 54.456809974108523, 24.358625192191056 ] } },
{ "type": "Feature", "properties": { "rank": 158, "predicted": "Building / roof", "confidence": 0.39, "p_road": 0.0, "p_building": 0.39, "p_bare": 0.27, "p_vegetation": 0.0, "p_water": 0.33 }, "geometry": { "type": "Point", "coordinates": [ 54.463826333044324, 24.377336293446497 ] } },
{ "type": "Feature", "properties": { "rank": 159, "predicted": "Building / roof", "confidence": 0.38, "p_road": 0.0, "p_building": 0.38, "p_bare": 0.32, "p_vegetation": 0.0, "p_water": 0.29 }, "geometry": { "type": "Point", "coordinates": [ 54.492463496221895, 24.384311912991748 ] } },
{ "type": "Feature", "properties": { "rank": 160, "predicted": "Road / dark pavement", "confidence": 0.38, "p_road": 0.38, "p_building": 0.35, "p_bare": 0.27, "p_vegetation": 0.0, "p_water": 0.0 }, "geometry": { "type": "Point", "coordinates": [ 54.531822775058224, 24.33161314431203 ] } },
{ "type": "Feature", "properties": { "rank": 161, "predicted": "Building / roof", "confidence": 0.39, "p_road": 0.0, "p_building": 0.39, "p_bare": 0.3, "p_vegetation": 0.0, "p_water": 0.31 }, "geometry": { "type": "Point", "coordinates": [ 54.514731942131952, 24.389553173270215 ] } },
{ "type": "Feature", "properties": { "rank": 162, "predicted": "Building / roof", "confidence": 0.39, "p_road": 0.0, "p_building": 0.39, "p_bare": 0.27, "p_vegetation": 0.0, "p_water": 0.34 }, "geometry": { "type": "Point", "coordinates": [ 54.463006423630176, 24.388785530649457 ] } },
{ "type": "Feature", "properties": { "rank": 163, "predicted": "Building / roof", "confidence": 0.42, "p_road": 0.3, "p_building": 0.42, "p_bare": 0.28, "p_vegetation": 0.0, "p_water": 0.0 }, "geometry": { "type": "Point", "coordinates": [ 54.516140053621854, 24.322511396554351 ] } },
{ "type": "Feature", "properties": { "rank": 164, "predicted": "Road / dark pavement", "confidence": 0.5, "p_road": 0.5, "p_building": 0.38, "p_bare": 0.12, "p_vegetation": 0.0, "p_water": 0.0 }, "geometry": { "type": "Point", "coordinates": [ 54.535809429868834, 24.319041079491669 ] } },
{ "type": "Feature", "properties": { "rank": 165, "predicted": "Road / dark pavement", "confidence": 0.43, "p_road": 0.43, "p_building": 0.33, "p_bare": 0.24, "p_vegetation": 0.0, "p_water": 0.0 }, "geometry": { "type": "Point", "coordinates": [ 54.51141798474206, 24.382638842939379 ] } },
{ "type": "Feature", "properties": { "rank": 166, "predicted": "Building / roof", "confidence": 0.38, "p_road": 0.01, "p_building": 0.38, "p_bare": 0.33, "p_vegetation": 0.0, "p_water": 0.29 }, "geometry": { "type": "Point", "coordinates": [ 54.460994837724243, 24.361222637375946 ] } },
{ "type": "Feature", "properties": { "rank": 167, "predicted": "Bare soil / sand", "confidence": 0.45, "p_road": 0.45, "p_building": 0.1, "p_bare": 0.45, "p_vegetation": 0.0, "p_water": 0.0 }, "geometry": { "type": "Point", "coordinates": [ 54.521660274598986, 24.342549745196717 ] } },
{ "type": "Feature", "properties": { "rank": 168, "predicted": "Bare soil / sand", "confidence": 0.36, "p_road": 0.0, "p_building": 0.33, "p_bare": 0.36, "p_vegetation": 0.0, "p_water": 0.31 }, "geometry": { "type": "Point", "coordinates": [ 54.459897573168732, 24.356962042786272 ] } },
{ "type": "Feature", "properties": { "rank": 169, "predicted": "Building / roof", "confidence": 0.36, "p_road": 0.0, "p_building": 0.36, "p_bare": 0.35, "p_vegetation": 0.0, "p_water": 0.29 }, "geometry": { "type": "Point", "coordinates": [ 54.460538387571596, 24.35940979449348 ] } },
{ "type": "Feature", "properties": { "rank": 170, "predicted": "Building / roof", "confidence": 0.39, "p_road": 0.38, "p_building": 0.39, "p_bare": 0.22, "p_vegetation": 0.0, "p_water": 0.0 }, "geometry": { "type": "Point", "coordinates": [ 54.534636263691233, 24.344024975000071 ] } },
{ "type": "Feature", "properties": { "rank": 171, "predicted": "Road / dark pavement", "confidence": 0.38, "p_road": 0.38, "p_building": 0.31, "p_bare": 0.31, "p_vegetation": 0.0, "p_water": 0.0 }, "geometry": { "type": "Point", "coordinates": [ 54.481530580004957, 24.324287611150609 ] } },
{ "type": "Feature", "properties": { "rank": 172, "predicted": "Bare soil / sand", "confidence": 0.45, "p_road": 0.24, "p_building": 0.3, "p_bare": 0.45, "p_vegetation": 0.0, "p_water": 0.0 }, "geometry": { "type": "Point", "coordinates": [ 54.509647082515535, 24.392538517195767 ] } },
{ "type": "Feature", "properties": { "rank": 173, "predicted": "Building / roof", "confidence": 0.43, "p_road": 0.0, "p_building": 0.43, "p_bare": 0.24, "p_vegetation": 0.0, "p_water": 0.33 }, "geometry": { "type": "Point", "coordinates": [ 54.50144108575752, 24.383828481445441 ] } },
{ "type": "Feature", "properties": { "rank": 174, "predicted": "Building / roof", "confidence": 0.4, "p_road": 0.0, "p_building": 0.4, "p_bare": 0.28, "p_vegetation": 0.0, "p_water": 0.32 }, "geometry": { "type": "Point", "coordinates": [ 54.507451841793994, 24.388891927073239 ] } },
{ "type": "Feature", "properties": { "rank": 175, "predicted": "Bare soil / sand", "confidence": 0.37, "p_road": 0.0, "p_building": 0.3, "p_bare": 0.37, "p_vegetation": 0.0, "p_water": 0.33 }, "geometry": { "type": "Point", "coordinates": [ 54.509681788724301, 24.315274798369025 ] } },
{ "type": "Feature", "properties": { "rank": 176, "predicted": "Building / roof", "confidence": 0.4, "p_road": 0.0, "p_building": 0.4, "p_bare": 0.29, "p_vegetation": 0.0, "p_water": 0.31 }, "geometry": { "type": "Point", "coordinates": [ 54.507112655775401, 24.386088233815958 ] } },
{ "type": "Feature", "properties": { "rank": 177, "predicted": "Bare soil / sand", "confidence": 0.54, "p_road": 0.42, "p_building": 0.04, "p_bare": 0.54, "p_vegetation": 0.0, "p_water": 0.0 }, "geometry": { "type": "Point", "coordinates": [ 54.533394829248856, 24.316564733179629 ] } },
{ "type": "Feature", "properties": { "rank": 178, "predicted": "Bare soil / sand", "confidence": 0.4, "p_road": 0.01, "p_building": 0.29, "p_bare": 0.4, "p_vegetation": 0.0, "p_water": 0.3 }, "geometry": { "type": "Point", "coordinates": [ 54.466422619357608, 24.365736223886415 ] } },
{ "type": "Feature", "properties": { "rank": 179, "predicted": "Bare soil / sand", "confidence": 0.57, "p_road": 0.0, "p_building": 0.43, "p_bare": 0.57, "p_vegetation": 0.0, "p_water": 0.0 }, "geometry": { "type": "Point", "coordinates": [ 54.459796088611085, 24.35217657650929 ] } },
{ "type": "Feature", "properties": { "rank": 180, "predicted": "Bare soil / sand", "confidence": 0.48, "p_road": 0.01, "p_building": 0.1, "p_bare": 0.48, "p_vegetation": 0.0, "p_water": 0.42 }, "geometry": { "type": "Point", "coordinates": [ 54.465273408574021, 24.35912802944955 ] } },
{ "type": "Feature", "properties": { "rank": 181, "predicted": "Bare soil / sand", "confidence": 0.49, "p_road": 0.37, "p_building": 0.14, "p_bare": 0.49, "p_vegetation": 0.0, "p_water": 0.0 }, "geometry": { "type": "Point", "coordinates": [ 54.476755883732409, 24.331609652492872 ] } },
{ "type": "Feature", "properties": { "rank": 182, "predicted": "Building / roof", "confidence": 0.44, "p_road": 0.23, "p_building": 0.44, "p_bare": 0.33, "p_vegetation": 0.0, "p_water": 0.0 }, "geometry": { "type": "Point", "coordinates": [ 54.483387657178064, 24.35491689350113 ] } },
{ "type": "Feature", "properties": { "rank": 183, "predicted": "Building / roof", "confidence": 0.37, "p_road": 0.25, "p_building": 0.37, "p_bare": 0.37, "p_vegetation": 0.0, "p_water": 0.0 }, "geometry": { "type": "Point", "coordinates": [ 54.536485044211233, 24.375737400595732 ] } },
{ "type": "Feature", "properties": { "rank": 184, "predicted": "Building / roof", "confidence": 0.41, "p_road": 0.0, "p_building": 0.41, "p_bare": 0.26, "p_vegetation": 0.0, "p_water": 0.33 }, "geometry": { "type": "Point", "coordinates": [ 54.513173234065299, 24.388624960903652 ] } },
{ "type": "Feature", "properties": { "rank": 185, "predicted": "Bare soil / sand", "confidence": 0.36, "p_road": 0.0, "p_building": 0.36, "p_bare": 0.36, "p_vegetation": 0.0, "p_water": 0.29 }, "geometry": { "type": "Point", "coordinates": [ 54.4908729518054, 24.385007653005704 ] } },
{ "type": "Feature", "properties": { "rank": 186, "predicted": "Road / dark pavement", "confidence": 0.4, "p_road": 0.4, "p_building": 0.23, "p_bare": 0.37, "p_vegetation": 0.0, "p_water": 0.0 }, "geometry": { "type": "Point", "coordinates": [ 54.504848920910995, 24.325665815854634 ] } },
{ "type": "Feature", "properties": { "rank": 187, "predicted": "Bare soil / sand", "confidence": 0.45, "p_road": 0.2, "p_building": 0.34, "p_bare": 0.45, "p_vegetation": 0.0, "p_water": 0.0 }, "geometry": { "type": "Point", "coordinates": [ 54.497225607445962, 24.367692366798035 ] } },
{ "type": "Feature", "properties": { "rank": 188, "predicted": "Building / roof", "confidence": 0.41, "p_road": 0.0, "p_building": 0.41, "p_bare": 0.29, "p_vegetation": 0.0, "p_water": 0.3 }, "geometry": { "type": "Point", "coordinates": [ 54.489142845783888, 24.387777058569132 ] } },
{ "type": "Feature", "properties": { "rank": 189, "predicted": "Building / roof", "confidence": 0.45, "p_road": 0.25, "p_building": 0.45, "p_bare": 0.3, "p_vegetation": 0.0, "p_water": 0.0 }, "geometry": { "type": "Point", "coordinates": [ 54.486675851317564, 24.358040328976639 ] } },
{ "type": "Feature", "properties": { "rank": 190, "predicted": "Building / roof", "confidence": 0.36, "p_road": 0.0, "p_building": 0.36, "p_bare": 0.32, "p_vegetation": 0.0, "p_water": 0.31 }, "geometry": { "type": "Point", "coordinates": [ 54.512432317383158, 24.391230381910198 ] } },
{ "type": "Feature", "properties": { "rank": 191, "predicted": "Road / dark pavement", "confidence": 0.38, "p_road": 0.38, "p_building": 0.38, "p_bare": 0.2, "p_vegetation": 0.04, "p_water": 0.0 }, "geometry": { "type": "Point", "coordinates": [ 54.518957146508988, 24.339707397478168 ] } },
{ "type": "Feature", "properties": { "rank": 192, "predicted": "Bare soil / sand", "confidence": 0.36, "p_road": 0.0, "p_building": 0.32, "p_bare": 0.36, "p_vegetation": 0.0, "p_water": 0.31 }, "geometry": { "type": "Point", "coordinates": [ 54.464772818149122, 24.3694092796128 ] } },
{ "type": "Feature", "properties": { "rank": 193, "predicted": "Bare soil / sand", "confidence": 0.38, "p_road": 0.25, "p_building": 0.37, "p_bare": 0.38, "p_vegetation": 0.0, "p_water": 0.0 }, "geometry": { "type": "Point", "coordinates": [ 54.474601861948173, 24.365692257239125 ] } },
{ "type": "Feature", "properties": { "rank": 194, "predicted": "Bare soil / sand", "confidence": 0.36, "p_road": 0.0, "p_building": 0.34, "p_bare": 0.36, "p_vegetation": 0.0, "p_water": 0.29 }, "geometry": { "type": "Point", "coordinates": [ 54.457662159169317, 24.360354423161805 ] } },
{ "type": "Feature", "properties": { "rank": 195, "predicted": "Bare soil / sand", "confidence": 0.46, "p_road": 0.44, "p_building": 0.1, "p_bare": 0.46, "p_vegetation": 0.0, "p_water": 0.0 }, "geometry": { "type": "Point", "coordinates": [ 54.469712375030575, 24.324181214083179 ] } },
{ "type": "Feature", "properties": { "rank": 196, "predicted": "Building / roof", "confidence": 0.37, "p_road": 0.27, "p_building": 0.37, "p_bare": 0.35, "p_vegetation": 0.01, "p_water": 0.0 }, "geometry": { "type": "Point", "coordinates": [ 54.529179684472822, 24.386540188694649 ] } },
{ "type": "Feature", "properties": { "rank": 197, "predicted": "Bare soil / sand", "confidence": 0.54, "p_road": 0.0, "p_building": 0.45, "p_bare": 0.54, "p_vegetation": 0.0, "p_water": 0.0 }, "geometry": { "type": "Point", "coordinates": [ 54.460151005539586, 24.349203951555083 ] } },
{ "type": "Feature", "properties": { "rank": 198, "predicted": "Road / dark pavement", "confidence": 0.43, "p_road": 0.43, "p_building": 0.35, "p_bare": 0.15, "p_vegetation": 0.06, "p_water": 0.01 }, "geometry": { "type": "Point", "coordinates": [ 54.541527949196634, 24.339172384337857 ] } },
{ "type": "Feature", "properties": { "rank": 199, "predicted": "Building / roof", "confidence": 0.38, "p_road": 0.0, "p_building": 0.38, "p_bare": 0.27, "p_vegetation": 0.0, "p_water": 0.36 }, "geometry": { "type": "Point", "coordinates": [ 54.504066610373194, 24.390641387722336 ] } },
{ "type": "Feature", "properties": { "rank": 200, "predicted": "Bare soil / sand", "confidence": 0.34, "p_road": 0.0, "p_building": 0.33, "p_bare": 0.34, "p_vegetation": 0.0, "p_water": 0.33 }, "geometry": { "type": "Point", "coordinates": [ 54.463038815113499, 24.372358821874069 ] } },
{ "type": "Feature", "properties": { "rank": 201, "predicted": "Road / dark pavement", "confidence": 0.38, "p_road": 0.38, "p_building": 0.29, "p_bare": 0.33, "p_vegetation": 0.0, "p_water": 0.0 }, "geometry": { "type": "Point", "coordinates": [ 54.490208039292412, 24.333818602227545 ] } },
{ "type": "Feature", "properties": { "rank": 202, "predicted": "Building / roof", "confidence": 0.39, "p_road": 0.0, "p_building": 0.39, "p_bare": 0.28, "p_vegetation": 0.0, "p_water": 0.34 }, "geometry": { "type": "Point", "coordinates": [ 54.51548482413137, 24.391370768459467 ] } },
{ "type": "Feature", "properties": { "rank": 203, "predicted": "Building / roof", "confidence": 0.36, "p_road": 0.0, "p_building": 0.36, "p_bare": 0.34, "p_vegetation": 0.0, "p_water": 0.3 }, "geometry": { "type": "Point", "coordinates": [ 54.512622296979096, 24.391594550493473 ] } },
{ "type": "Feature", "properties": { "rank": 204, "predicted": "Building / roof", "confidence": 0.35, "p_road": 0.0, "p_building": 0.35, "p_bare": 0.34, "p_vegetation": 0.0, "p_water": 0.31 }, "geometry": { "type": "Point", "coordinates": [ 54.480181043667642, 24.382483337032447 ] } },
{ "type": "Feature", "properties": { "rank": 205, "predicted": "Bare soil / sand", "confidence": 0.38, "p_road": 0.0, "p_building": 0.32, "p_bare": 0.38, "p_vegetation": 0.0, "p_water": 0.3 }, "geometry": { "type": "Point", "coordinates": [ 54.464042386139404, 24.366508740788827 ] } },
{ "type": "Feature", "properties": { "rank": 206, "predicted": "Building / roof", "confidence": 0.38, "p_road": 0.23, "p_building": 0.38, "p_bare": 0.38, "p_vegetation": 0.01, "p_water": 0.0 }, "geometry": { "type": "Point", "coordinates": [ 54.529177929127734, 24.386630422638959 ] } },
{ "type": "Feature", "properties": { "rank": 207, "predicted": "Building / roof", "confidence": 0.39, "p_road": 0.0, "p_building": 0.39, "p_bare": 0.28, "p_vegetation": 0.0, "p_water": 0.33 }, "geometry": { "type": "Point", "coordinates": [ 54.462610561492035, 24.374066582723842 ] } },
{ "type": "Feature", "properties": { "rank": 208, "predicted": "Bare soil / sand", "confidence": 0.36, "p_road": 0.0, "p_building": 0.33, "p_bare": 0.36, "p_vegetation": 0.0, "p_water": 0.32 }, "geometry": { "type": "Point", "coordinates": [ 54.465832979427198, 24.370600395761485 ] } },
{ "type": "Feature", "properties": { "rank": 209, "predicted": "Bare soil / sand", "confidence": 0.38, "p_road": 0.36, "p_building": 0.26, "p_bare": 0.38, "p_vegetation": 0.0, "p_water": 0.0 }, "geometry": { "type": "Point", "coordinates": [ 54.460413362579047, 24.340994701595964 ] } },
{ "type": "Feature", "properties": { "rank": 210, "predicted": "Bare soil / sand", "confidence": 0.35, "p_road": 0.02, "p_building": 0.34, "p_bare": 0.35, "p_vegetation": 0.01, "p_water": 0.29 }, "geometry": { "type": "Point", "coordinates": [ 54.459615871806278, 24.361199525509885 ] } },
{ "type": "Feature", "properties": { "rank": 211, "predicted": "Building / roof", "confidence": 0.42, "p_road": 0.0, "p_building": 0.42, "p_bare": 0.25, "p_vegetation": 0.0, "p_water": 0.34 }, "geometry": { "type": "Point", "coordinates": [ 54.510921359272416, 24.387865863858586 ] } },
{ "type": "Feature", "properties": { "rank": 212, "predicted": "Road / dark pavement", "confidence": 0.53, "p_road": 0.53, "p_building": 0.07, "p_bare": 0.4, "p_vegetation": 0.0, "p_water": 0.0 }, "geometry": { "type": "Point", "coordinates": [ 54.502972283589628, 24.35605317762586 ] } },
{ "type": "Feature", "properties": { "rank": 213, "predicted": "Bare soil / sand", "confidence": 0.52, "p_road": 0.45, "p_building": 0.03, "p_bare": 0.52, "p_vegetation": 0.0, "p_water": 0.0 }, "geometry": { "type": "Point", "coordinates": [ 54.462779165716846, 24.335979747697969 ] } },
{ "type": "Feature", "properties": { "rank": 214, "predicted": "Bare soil / sand", "confidence": 0.5, "p_road": 0.48, "p_building": 0.03, "p_bare": 0.5, "p_vegetation": 0.0, "p_water": 0.0 }, "geometry": { "type": "Point", "coordinates": [ 54.492451209055332, 24.319955437417565 ] } },
{ "type": "Feature", "properties": { "rank": 215, "predicted": "Building / roof", "confidence": 0.42, "p_road": 0.0, "p_building": 0.42, "p_bare": 0.24, "p_vegetation": 0.0, "p_water": 0.34 }, "geometry": { "type": "Point", "coordinates": [ 54.46541821037308, 24.381514889749024 ] } },
{ "type": "Feature", "properties": { "rank": 216, "predicted": "Road / dark pavement", "confidence": 0.37, "p_road": 0.37, "p_building": 0.36, "p_bare": 0.26, "p_vegetation": 0.01, "p_water": 0.0 }, "geometry": { "type": "Point", "coordinates": [ 54.4973096865616, 24.378434847104263 ] } },
{ "type": "Feature", "properties": { "rank": 217, "predicted": "Building / roof", "confidence": 0.55, "p_road": 0.0, "p_building": 0.55, "p_bare": 0.45, "p_vegetation": 0.0, "p_water": 0.0 }, "geometry": { "type": "Point", "coordinates": [ 54.516728593851866, 24.393286675928447 ] } },
{ "type": "Feature", "properties": { "rank": 218, "predicted": "Road / dark pavement", "confidence": 0.49, "p_road": 0.49, "p_building": 0.1, "p_bare": 0.41, "p_vegetation": 0.0, "p_water": 0.0 }, "geometry": { "type": "Point", "coordinates": [ 54.46257590613682, 24.346175724580597 ] } },
{ "type": "Feature", "properties": { "rank": 219, "predicted": "Bare soil / sand", "confidence": 0.34, "p_road": 0.0, "p_building": 0.33, "p_bare": 0.34, "p_vegetation": 0.0, "p_water": 0.33 }, "geometry": { "type": "Point", "coordinates": [ 54.463828667203416, 24.372281788460072 ] } },
{ "type": "Feature", "properties": { "rank": 220, "predicted": "Bare soil / sand", "confidence": 0.28, "p_road": 0.15, "p_building": 0.23, "p_bare": 0.28, "p_vegetation": 0.08, "p_water": 0.26 }, "geometry": { "type": "Point", "coordinates": [ 54.458462756398724, 24.35973603566331 ] } },
{ "type": "Feature", "properties": { "rank": 221, "predicted": "Building / roof", "confidence": 0.47, "p_road": 0.07, "p_building": 0.47, "p_bare": 0.46, "p_vegetation": 0.0, "p_water": 0.0 }, "geometry": { "type": "Point", "coordinates": [ 54.460848343636243, 24.324123370048788 ] } },
{ "type": "Feature", "properties": { "rank": 222, "predicted": "Building / roof", "confidence": 0.4, "p_road": 0.0, "p_building": 0.4, "p_bare": 0.28, "p_vegetation": 0.0, "p_water": 0.32 }, "geometry": { "type": "Point", "coordinates": [ 54.512904170979596, 24.387266613810468 ] } },
{ "type": "Feature", "properties": { "rank": 223, "predicted": "Bare soil / sand", "confidence": 0.46, "p_road": 0.36, "p_building": 0.18, "p_bare": 0.46, "p_vegetation": 0.01, "p_water": 0.0 }, "geometry": { "type": "Point", "coordinates": [ 54.526189691631608, 24.357878127299671 ] } },
{ "type": "Feature", "properties": { "rank": 224, "predicted": "Building / roof", "confidence": 0.36, "p_road": 0.0, "p_building": 0.36, "p_bare": 0.32, "p_vegetation": 0.0, "p_water": 0.32 }, "geometry": { "type": "Point", "coordinates": [ 54.508786906603362, 24.391170440679826 ] } },
{ "type": "Feature", "properties": { "rank": 225, "predicted": "Building / roof", "confidence": 0.52, "p_road": 0.07, "p_building": 0.52, "p_bare": 0.41, "p_vegetation": 0.0, "p_water": 0.0 }, "geometry": { "type": "Point", "coordinates": [ 54.47067456854478, 24.360030616722003 ] } },
{ "type": "Feature", "properties": { "rank": 226, "predicted": "Bare soil / sand", "confidence": 0.42, "p_road": 0.27, "p_building": 0.31, "p_bare": 0.42, "p_vegetation": 0.0, "p_water": 0.0 }, "geometry": { "type": "Point", "coordinates": [ 54.52019880300616, 24.356877593297444 ] } },
{ "type": "Feature", "properties": { "rank": 227, "predicted": "Building / roof", "confidence": 0.35, "p_road": 0.0, "p_building": 0.35, "p_bare": 0.31, "p_vegetation": 0.0, "p_water": 0.34 }, "geometry": { "type": "Point", "coordinates": [ 54.513282357562296, 24.388085182073109 ] } },
{ "type": "Feature", "properties": { "rank": 228, "predicted": "Bare soil / sand", "confidence": 0.37, "p_road": 0.0, "p_building": 0.3, "p_bare": 0.37, "p_vegetation": 0.0, "p_water": 0.34 }, "geometry": { "type": "Point", "coordinates": [ 54.458220951342092, 24.332383281661013 ] } },
{ "type": "Feature", "properties": { "rank": 229, "predicted": "Building / roof", "confidence": 0.42, "p_road": 0.0, "p_building": 0.42, "p_bare": 0.25, "p_vegetation": 0.0, "p_water": 0.33 }, "geometry": { "type": "Point", "coordinates": [ 54.517473216793235, 24.38544609175317 ] } },
{ "type": "Feature", "properties": { "rank": 230, "predicted": "Building / roof", "confidence": 0.57, "p_road": 0.0, "p_building": 0.57, "p_bare": 0.43, "p_vegetation": 0.0, "p_water": 0.0 }, "geometry": { "type": "Point", "coordinates": [ 54.494313145487794, 24.330456543260699 ] } },
{ "type": "Feature", "properties": { "rank": 231, "predicted": "Building / roof", "confidence": 0.35, "p_road": 0.0, "p_building": 0.35, "p_bare": 0.33, "p_vegetation": 0.0, "p_water": 0.32 }, "geometry": { "type": "Point", "coordinates": [ 54.510959752670267, 24.390935394040618 ] } },
{ "type": "Feature", "properties": { "rank": 232, "predicted": "Road / dark pavement", "confidence": 0.49, "p_road": 0.49, "p_building": 0.06, "p_bare": 0.45, "p_vegetation": 0.0, "p_water": 0.01 }, "geometry": { "type": "Point", "coordinates": [ 54.457078729185255, 24.345181018607224 ] } },
{ "type": "Feature", "properties": { "rank": 233, "predicted": "Building / roof", "confidence": 0.43, "p_road": 0.2, "p_building": 0.43, "p_bare": 0.37, "p_vegetation": 0.0, "p_water": 0.0 }, "geometry": { "type": "Point", "coordinates": [ 54.495291713160739, 24.325779102225518 ] } },
{ "type": "Feature", "properties": { "rank": 234, "predicted": "Building / roof", "confidence": 0.41, "p_road": 0.0, "p_building": 0.41, "p_bare": 0.32, "p_vegetation": 0.0, "p_water": 0.27 }, "geometry": { "type": "Point", "coordinates": [ 54.509166844856765, 24.391898785147973 ] } },
{ "type": "Feature", "properties": { "rank": 235, "predicted": "Building / roof", "confidence": 0.53, "p_road": 0.06, "p_building": 0.53, "p_bare": 0.41, "p_vegetation": 0.0, "p_water": 0.0 }, "geometry": { "type": "Point", "coordinates": [ 54.481830457246389, 24.373845764577531 ] } },
{ "type": "Feature", "properties": { "rank": 236, "predicted": "Building / roof", "confidence": 0.4, "p_road": 0.0, "p_building": 0.4, "p_bare": 0.27, "p_vegetation": 0.0, "p_water": 0.33 }, "geometry": { "type": "Point", "coordinates": [ 54.463432291822045, 24.377329694609365 ] } },
{ "type": "Feature", "properties": { "rank": 237, "predicted": "Bare soil / sand", "confidence": 0.4, "p_road": 0.0, "p_building": 0.24, "p_bare": 0.4, "p_vegetation": 0.0, "p_water": 0.35 }, "geometry": { "type": "Point", "coordinates": [ 54.493936244606971, 24.314564274057894 ] } },
{ "type": "Feature", "properties": { "rank": 238, "predicted": "Bare soil / sand", "confidence": 0.51, "p_road": 0.46, "p_building": 0.03, "p_bare": 0.51, "p_vegetation": 0.0, "p_water": 0.0 }, "geometry": { "type": "Point", "coordinates": [ 54.522352368010857, 24.317106938619851 ] } },
{ "type": "Feature", "properties": { "rank": 239, "predicted": "Road / dark pavement", "confidence": 0.35, "p_road": 0.35, "p_building": 0.31, "p_bare": 0.34, "p_vegetation": 0.0, "p_water": 0.0 }, "geometry": { "type": "Point", "coordinates": [ 54.505463553548999, 24.364669070496273 ] } },
{ "type": "Feature", "properties": { "rank": 240, "predicted": "Bare soil / sand", "confidence": 0.27, "p_road": 0.15, "p_building": 0.2, "p_bare": 0.27, "p_vegetation": 0.15, "p_water": 0.23 }, "geometry": { "type": "Point", "coordinates": [ 54.458772669766958, 24.359019156092732 ] } },
{ "type": "Feature", "properties": { "rank": 241, "predicted": "Building / roof", "confidence": 0.34, "p_road": 0.0, "p_building": 0.34, "p_bare": 0.33, "p_vegetation": 0.0, "p_water": 0.32 }, "geometry": { "type": "Point", "coordinates": [ 54.460732348593304, 24.3694318682698 ] } },
{ "type": "Feature", "properties": { "rank": 242, "predicted": "Building / roof", "confidence": 0.35, "p_road": 0.0, "p_building": 0.35, "p_bare": 0.34, "p_vegetation": 0.0, "p_water": 0.31 }, "geometry": { "type": "Point", "coordinates": [ 54.491663388098338, 24.389894836001815 ] } },
{ "type": "Feature", "properties": { "rank": 243, "predicted": "Building / roof", "confidence": 0.4, "p_road": 0.0, "p_building": 0.4, "p_bare": 0.27, "p_vegetation": 0.0, "p_water": 0.33 }, "geometry": { "type": "Point", "coordinates": [ 54.489010023755753, 24.384525468309338 ] } },
{ "type": "Feature", "properties": { "rank": 244, "predicted": "Building / roof", "confidence": 0.39, "p_road": 0.0, "p_building": 0.39, "p_bare": 0.28, "p_vegetation": 0.0, "p_water": 0.32 }, "geometry": { "type": "Point", "coordinates": [ 54.514327622915609, 24.385033440424053 ] } },
{ "type": "Feature", "properties": { "rank": 245, "predicted": "Building / roof", "confidence": 0.39, "p_road": 0.0, "p_building": 0.39, "p_bare": 0.24, "p_vegetation": 0.0, "p_water": 0.37 }, "geometry": { "type": "Point", "coordinates": [ 54.455507224461826, 24.394165493746769 ] } },
{ "type": "Feature", "properties": { "rank": 246, "predicted": "Water", "confidence": 0.35, "p_road": 0.0, "p_building": 0.34, "p_bare": 0.31, "p_vegetation": 0.0, "p_water": 0.35 }, "geometry": { "type": "Point", "coordinates": [ 54.459717393979901, 24.390625829217143 ] } },
{ "type": "Feature", "properties": { "rank": 247, "predicted": "Road / dark pavement", "confidence": 0.42, "p_road": 0.42, "p_building": 0.2, "p_bare": 0.38, "p_vegetation": 0.0, "p_water": 0.0 }, "geometry": { "type": "Point", "coordinates": [ 54.525444661457556, 24.335390525421555 ] } },
{ "type": "Feature", "properties": { "rank": 248, "predicted": "Road / dark pavement", "confidence": 0.43, "p_road": 0.43, "p_building": 0.35, "p_bare": 0.22, "p_vegetation": 0.0, "p_water": 0.0 }, "geometry": { "type": "Point", "coordinates": [ 54.530514762118536, 24.317781576529931 ] } },
{ "type": "Feature", "properties": { "rank": 249, "predicted": "Road / dark pavement", "confidence": 0.44, "p_road": 0.44, "p_building": 0.25, "p_bare": 0.31, "p_vegetation": 0.0, "p_water": 0.0 }, "geometry": { "type": "Point", "coordinates": [ 54.476723227606101, 24.318340773259056 ] } },
{ "type": "Feature", "properties": { "rank": 250, "predicted": "Building / roof", "confidence": 0.41, "p_road": 0.0, "p_building": 0.41, "p_bare": 0.27, "p_vegetation": 0.0, "p_water": 0.32 }, "geometry": { "type": "Point", "coordinates": [ 54.462590151575839, 24.380023376854517 ] } },
{ "type": "Feature", "properties": { "rank": 251, "predicted": "Building / roof", "confidence": 0.4, "p_road": 0.0, "p_building": 0.4, "p_bare": 0.27, "p_vegetation": 0.0, "p_water": 0.33 }, "geometry": { "type": "Point", "coordinates": [ 54.507818232703855, 24.385287493767393 ] } },
{ "type": "Feature", "properties": { "rank": 252, "predicted": "Bare soil / sand", "confidence": 0.38, "p_road": 0.3, "p_building": 0.18, "p_bare": 0.38, "p_vegetation": 0.14, "p_water": 0.0 }, "geometry": { "type": "Point", "coordinates": [ 54.536089016866114, 24.391075657084301 ] } },
{ "type": "Feature", "properties": { "rank": 253, "predicted": "Bare soil / sand", "confidence": 0.36, "p_road": 0.0, "p_building": 0.3, "p_bare": 0.36, "p_vegetation": 0.0, "p_water": 0.33 }, "geometry": { "type": "Point", "coordinates": [ 54.505145794437432, 24.385875316629573 ] } },
{ "type": "Feature", "properties": { "rank": 254, "predicted": "Building / roof", "confidence": 0.41, "p_road": 0.0, "p_building": 0.41, "p_bare": 0.26, "p_vegetation": 0.0, "p_water": 0.33 }, "geometry": { "type": "Point", "coordinates": [ 54.469501871079586, 24.384290979403275 ] } },
{ "type": "Feature", "properties": { "rank": 255, "predicted": "Bare soil / sand", "confidence": 0.42, "p_road": 0.35, "p_building": 0.23, "p_bare": 0.42, "p_vegetation": 0.0, "p_water": 0.0 }, "geometry": { "type": "Point", "coordinates": [ 54.487078303987715, 24.352631344445879 ] } },
{ "type": "Feature", "properties": { "rank": 256, "predicted": "Building / roof", "confidence": 0.46, "p_road": 0.13, "p_building": 0.46, "p_bare": 0.41, "p_vegetation": 0.0, "p_water": 0.0 }, "geometry": { "type": "Point", "coordinates": [ 54.504138310196637, 24.356884739998165 ] } },
{ "type": "Feature", "properties": { "rank": 257, "predicted": "Water", "confidence": 0.35, "p_road": 0.0, "p_building": 0.31, "p_bare": 0.34, "p_vegetation": 0.0, "p_water": 0.35 }, "geometry": { "type": "Point", "coordinates": [ 54.461387509986309, 24.385960350652027 ] } },
{ "type": "Feature", "properties": { "rank": 258, "predicted": "Bare soil / sand", "confidence": 0.49, "p_road": 0.0, "p_building": 0.16, "p_bare": 0.49, "p_vegetation": 0.0, "p_water": 0.35 }, "geometry": { "type": "Point", "coordinates": [ 54.459624805829776, 24.331143163703434 ] } },
{ "type": "Feature", "properties": { "rank": 259, "predicted": "Road / dark pavement", "confidence": 0.45, "p_road": 0.45, "p_building": 0.22, "p_bare": 0.34, "p_vegetation": 0.0, "p_water": 0.0 }, "geometry": { "type": "Point", "coordinates": [ 54.457927889029186, 24.342126428365642 ] } },
{ "type": "Feature", "properties": { "rank": 260, "predicted": "Road / dark pavement", "confidence": 0.4, "p_road": 0.4, "p_building": 0.21, "p_bare": 0.39, "p_vegetation": 0.0, "p_water": 0.0 }, "geometry": { "type": "Point", "coordinates": [ 54.499571838576465, 24.348595665401032 ] } },
{ "type": "Feature", "properties": { "rank": 261, "predicted": "Building / roof", "confidence": 0.5, "p_road": 0.41, "p_building": 0.5, "p_bare": 0.09, "p_vegetation": 0.0, "p_water": 0.0 }, "geometry": { "type": "Point", "coordinates": [ 54.464527650942351, 24.347110979692015 ] } },
{ "type": "Feature", "properties": { "rank": 262, "predicted": "Road / dark pavement", "confidence": 0.42, "p_road": 0.42, "p_building": 0.27, "p_bare": 0.3, "p_vegetation": 0.0, "p_water": 0.0 }, "geometry": { "type": "Point", "coordinates": [ 54.533964319353061, 24.343111415099784 ] } },
{ "type": "Feature", "properties": { "rank": 263, "predicted": "Road / dark pavement", "confidence": 0.46, "p_road": 0.46, "p_building": 0.1, "p_bare": 0.44, "p_vegetation": 0.0, "p_water": 0.0 }, "geometry": { "type": "Point", "coordinates": [ 54.489218436966297, 24.354020727026903 ] } },
{ "type": "Feature", "properties": { "rank": 264, "predicted": "Water", "confidence": 0.36, "p_road": 0.0, "p_building": 0.34, "p_bare": 0.3, "p_vegetation": 0.0, "p_water": 0.36 }, "geometry": { "type": "Point", "coordinates": [ 54.478946925724337, 24.395008975456435 ] } },
{ "type": "Feature", "properties": { "rank": 265, "predicted": "Road / dark pavement", "confidence": 0.52, "p_road": 0.52, "p_building": 0.09, "p_bare": 0.39, "p_vegetation": 0.0, "p_water": 0.0 }, "geometry": { "type": "Point", "coordinates": [ 54.541146960283967, 24.323189538526602 ] } },
{ "type": "Feature", "properties": { "rank": 266, "predicted": "Building / roof", "confidence": 0.48, "p_road": 0.44, "p_building": 0.48, "p_bare": 0.08, "p_vegetation": 0.0, "p_water": 0.0 }, "geometry": { "type": "Point", "coordinates": [ 54.513411683544504, 24.376443518808909 ] } },
{ "type": "Feature", "properties": { "rank": 267, "predicted": "Bare soil / sand", "confidence": 0.36, "p_road": 0.0, "p_building": 0.32, "p_bare": 0.36, "p_vegetation": 0.0, "p_water": 0.31 }, "geometry": { "type": "Point", "coordinates": [ 54.464563687928454, 24.365073308224851 ] } },
{ "type": "Feature", "properties": { "rank": 268, "predicted": "Building / roof", "confidence": 0.39, "p_road": 0.34, "p_building": 0.39, "p_bare": 0.28, "p_vegetation": 0.0, "p_water": 0.0 }, "geometry": { "type": "Point", "coordinates": [ 54.467624967841367, 24.320174926017042 ] } },
{ "type": "Feature", "properties": { "rank": 269, "predicted": "Building / roof", "confidence": 0.4, "p_road": 0.0, "p_building": 0.4, "p_bare": 0.24, "p_vegetation": 0.0, "p_water": 0.35 }, "geometry": { "type": "Point", "coordinates": [ 54.467097901605015, 24.386236501766206 ] } },
{ "type": "Feature", "properties": { "rank": 270, "predicted": "Building / roof", "confidence": 0.44, "p_road": 0.0, "p_building": 0.44, "p_bare": 0.25, "p_vegetation": 0.0, "p_water": 0.31 }, "geometry": { "type": "Point", "coordinates": [ 54.507483717677388, 24.387267743193654 ] } },
{ "type": "Feature", "properties": { "rank": 271, "predicted": "Road / dark pavement", "confidence": 0.48, "p_road": 0.48, "p_building": 0.17, "p_bare": 0.35, "p_vegetation": 0.0, "p_water": 0.0 }, "geometry": { "type": "Point", "coordinates": [ 54.512733068665689, 24.370836134385449 ] } },
{ "type": "Feature", "properties": { "rank": 272, "predicted": "Bare soil / sand", "confidence": 0.39, "p_road": 0.38, "p_building": 0.24, "p_bare": 0.39, "p_vegetation": 0.0, "p_water": 0.0 }, "geometry": { "type": "Point", "coordinates": [ 54.532539968414518, 24.386053407385162 ] } },
{ "type": "Feature", "properties": { "rank": 273, "predicted": "Building / roof", "confidence": 0.42, "p_road": 0.0, "p_building": 0.42, "p_bare": 0.26, "p_vegetation": 0.0, "p_water": 0.32 }, "geometry": { "type": "Point", "coordinates": [ 54.506597026042968, 24.387253144209197 ] } },
{ "type": "Feature", "properties": { "rank": 274, "predicted": "Bare soil / sand", "confidence": 0.34, "p_road": 0.0, "p_building": 0.32, "p_bare": 0.34, "p_vegetation": 0.0, "p_water": 0.33 }, "geometry": { "type": "Point", "coordinates": [ 54.460200163948691, 24.371408657998135 ] } },
{ "type": "Feature", "properties": { "rank": 275, "predicted": "Building / roof", "confidence": 0.39, "p_road": 0.0, "p_building": 0.39, "p_bare": 0.3, "p_vegetation": 0.0, "p_water": 0.31 }, "geometry": { "type": "Point", "coordinates": [ 54.510722546625587, 24.38795285714793 ] } },
{ "type": "Feature", "properties": { "rank": 276, "predicted": "Building / roof", "confidence": 0.39, "p_road": 0.0, "p_building": 0.39, "p_bare": 0.3, "p_vegetation": 0.0, "p_water": 0.31 }, "geometry": { "type": "Point", "coordinates": [ 54.517290284815253, 24.384720996015005 ] } },
{ "type": "Feature", "properties": { "rank": 277, "predicted": "Building / roof", "confidence": 0.46, "p_road": 0.11, "p_building": 0.46, "p_bare": 0.44, "p_vegetation": 0.0, "p_water": 0.0 }, "geometry": { "type": "Point", "coordinates": [ 54.476441102588993, 24.377276224924412 ] } },
{ "type": "Feature", "properties": { "rank": 278, "predicted": "Bare soil / sand", "confidence": 0.34, "p_road": 0.02, "p_building": 0.33, "p_bare": 0.34, "p_vegetation": 0.01, "p_water": 0.3 }, "geometry": { "type": "Point", "coordinates": [ 54.456706065417734, 24.358894226969849 ] } },
{ "type": "Feature", "properties": { "rank": 279, "predicted": "Road / dark pavement", "confidence": 0.42, "p_road": 0.42, "p_building": 0.18, "p_bare": 0.11, "p_vegetation": 0.29, "p_water": 0.0 }, "geometry": { "type": "Point", "coordinates": [ 54.54041146856764, 24.340869286456275 ] } },
{ "type": "Feature", "properties": { "rank": 280, "predicted": "Building / roof", "confidence": 0.4, "p_road": 0.0, "p_building": 0.4, "p_bare": 0.27, "p_vegetation": 0.0, "p_water": 0.33 }, "geometry": { "type": "Point", "coordinates": [ 54.480157775629124, 24.383656334922865 ] } },
{ "type": "Feature", "properties": { "rank": 281, "predicted": "Building / roof", "confidence": 0.42, "p_road": 0.37, "p_building": 0.42, "p_bare": 0.21, "p_vegetation": 0.0, "p_water": 0.0 }, "geometry": { "type": "Point", "coordinates": [ 54.504856139153304, 24.340378640955791 ] } },
{ "type": "Feature", "properties": { "rank": 282, "predicted": "Road / dark pavement", "confidence": 0.56, "p_road": 0.56, "p_building": 0.02, "p_bare": 0.42, "p_vegetation": 0.0, "p_water": 0.0 }, "geometry": { "type": "Point", "coordinates": [ 54.539424081644789, 24.371542803779214 ] } },
{ "type": "Feature", "properties": { "rank": 283, "predicted": "Building / roof", "confidence": 0.41, "p_road": 0.0, "p_building": 0.41, "p_bare": 0.26, "p_vegetation": 0.0, "p_water": 0.33 }, "geometry": { "type": "Point", "coordinates": [ 54.465061963630539, 24.379613472803737 ] } },
{ "type": "Feature", "properties": { "rank": 284, "predicted": "Road / dark pavement", "confidence": 0.43, "p_road": 0.43, "p_building": 0.3, "p_bare": 0.24, "p_vegetation": 0.03, "p_water": 0.0 }, "geometry": { "type": "Point", "coordinates": [ 54.529700615233857, 24.390159192004248 ] } },
{ "type": "Feature", "properties": { "rank": 285, "predicted": "Road / dark pavement", "confidence": 0.41, "p_road": 0.41, "p_building": 0.22, "p_bare": 0.37, "p_vegetation": 0.0, "p_water": 0.0 }, "geometry": { "type": "Point", "coordinates": [ 54.490026336396063, 24.372988924655832 ] } },
{ "type": "Feature", "properties": { "rank": 286, "predicted": "Road / dark pavement", "confidence": 0.46, "p_road": 0.46, "p_building": 0.2, "p_bare": 0.34, "p_vegetation": 0.0, "p_water": 0.01 }, "geometry": { "type": "Point", "coordinates": [ 54.483637679107808, 24.322336832323781 ] } },
{ "type": "Feature", "properties": { "rank": 287, "predicted": "Bare soil / sand", "confidence": 0.47, "p_road": 0.44, "p_building": 0.09, "p_bare": 0.47, "p_vegetation": 0.0, "p_water": 0.0 }, "geometry": { "type": "Point", "coordinates": [ 54.480697879800886, 24.321565955233858 ] } },
{ "type": "Feature", "properties": { "rank": 288, "predicted": "Building / roof", "confidence": 0.55, "p_road": 0.03, "p_building": 0.55, "p_bare": 0.42, "p_vegetation": 0.0, "p_water": 0.0 }, "geometry": { "type": "Point", "coordinates": [ 54.497622356631311, 24.362554022733253 ] } },
{ "type": "Feature", "properties": { "rank": 289, "predicted": "Bare soil / sand", "confidence": 0.53, "p_road": 0.4, "p_building": 0.07, "p_bare": 0.53, "p_vegetation": 0.0, "p_water": 0.0 }, "geometry": { "type": "Point", "coordinates": [ 54.471656491533906, 24.340370254725176 ] } },
{ "type": "Feature", "properties": { "rank": 290, "predicted": "Building / roof", "confidence": 0.35, "p_road": 0.0, "p_building": 0.35, "p_bare": 0.33, "p_vegetation": 0.0, "p_water": 0.32 }, "geometry": { "type": "Point", "coordinates": [ 54.510277872382687, 24.315013792219851 ] } },
{ "type": "Feature", "properties": { "rank": 291, "predicted": "Building / roof", "confidence": 0.35, "p_road": 0.0, "p_building": 0.35, "p_bare": 0.32, "p_vegetation": 0.0, "p_water": 0.33 }, "geometry": { "type": "Point", "coordinates": [ 54.481827190623136, 24.383954887001991 ] } },
{ "type": "Feature", "properties": { "rank": 292, "predicted": "Bare soil / sand", "confidence": 0.35, "p_road": 0.0, "p_building": 0.33, "p_bare": 0.35, "p_vegetation": 0.0, "p_water": 0.33 }, "geometry": { "type": "Point", "coordinates": [ 54.459430835546748, 24.365528885114362 ] } },
{ "type": "Feature", "properties": { "rank": 293, "predicted": "Building / roof", "confidence": 0.48, "p_road": 0.06, "p_building": 0.48, "p_bare": 0.46, "p_vegetation": 0.0, "p_water": 0.0 }, "geometry": { "type": "Point", "coordinates": [ 54.466749535305247, 24.319618749434589 ] } },
{ "type": "Feature", "properties": { "rank": 294, "predicted": "Bare soil / sand", "confidence": 0.37, "p_road": 0.0, "p_building": 0.32, "p_bare": 0.37, "p_vegetation": 0.0, "p_water": 0.31 }, "geometry": { "type": "Point", "coordinates": [ 54.482432598063326, 24.383242869570989 ] } },
{ "type": "Feature", "properties": { "rank": 295, "predicted": "Building / roof", "confidence": 0.4, "p_road": 0.0, "p_building": 0.4, "p_bare": 0.29, "p_vegetation": 0.0, "p_water": 0.31 }, "geometry": { "type": "Point", "coordinates": [ 54.506421241797575, 24.386167110711913 ] } },
{ "type": "Feature", "properties": { "rank": 296, "predicted": "Building / roof", "confidence": 0.54, "p_road": 0.01, "p_building": 0.54, "p_bare": 0.46, "p_vegetation": 0.0, "p_water": 0.0 }, "geometry": { "type": "Point", "coordinates": [ 54.50753098279867, 24.374812412015363 ] } },
{ "type": "Feature", "properties": { "rank": 297, "predicted": "Bare soil / sand", "confidence": 0.54, "p_road": 0.01, "p_building": 0.45, "p_bare": 0.54, "p_vegetation": 0.0, "p_water": 0.0 }, "geometry": { "type": "Point", "coordinates": [ 54.463616967833296, 24.358197715511579 ] } },
{ "type": "Feature", "properties": { "rank": 298, "predicted": "Building / roof", "confidence": 0.42, "p_road": 0.0, "p_building": 0.42, "p_bare": 0.26, "p_vegetation": 0.0, "p_water": 0.32 }, "geometry": { "type": "Point", "coordinates": [ 54.488614168601366, 24.384609164324029 ] } },
{ "type": "Feature", "properties": { "rank": 299, "predicted": "Building / roof", "confidence": 0.35, "p_road": 0.0, "p_building": 0.35, "p_bare": 0.34, "p_vegetation": 0.0, "p_water": 0.31 }, "geometry": { "type": "Point", "coordinates": [ 54.484585665140074, 24.384000734244772 ] } },
{ "type": "Feature", "properties": { "rank": 300, "predicted": "Bare soil / sand", "confidence": 0.3, "p_road": 0.26, "p_building": 0.02, "p_bare": 0.3, "p_vegetation": 0.13, "p_water": 0.28 }, "geometry": { "type": "Point", "coordinates": [ 54.487496560996057, 24.386305577974611 ] } }
]
}
