{
"type": "FeatureCollection",
"name": "musaffah_sam_segments",
"crs": { "type": "name", "properties": { "name": "urn:ogc:def:crs:OGC:1.3:CRS84" } },
"features": [
{ "type": "Feature", "properties": { "segment": "M-001-SAM001", "hotspot": "M-001", "label": "Building / roof", "purity": 0.78, "LST_C": 57.5, "area_m2": 83000, "candidate": false }, "geometry": { "type": "Polygon", "coordinates": [ [ [ 54.515683126427724, 24.348454375617749 ], [ 54.515684888230794, 24.348364142143442 ], [ 54.512828629082769, 24.348317307107411 ], [ 54.512830392897683, 24.348227073827534 ], [ 54.512633409915203, 24.348223841859184 ], [ 54.512636937797808, 24.348043375322849 ], [ 54.512735429145394, 24.348044991325452 ], [ 54.512740720695504, 24.347774291491756 ], [ 54.512642229556938, 24.347772675509404 ], [ 54.512647521238307, 24.347501975685216 ], [ 54.512746012167874, 24.347503591647317 ], [ 54.512747775974717, 24.34741335836345 ], [ 54.512649285114819, 24.347411742408095 ], [ 54.512652812841928, 24.347231275850287 ], [ 54.512751303562489, 24.347232891792142 ], [ 54.512763649847592, 24.346601258754973 ], [ 54.513945533316068, 24.346620644510271 ], [ 54.513949059076396, 24.346440177755529 ], [ 54.514047549282239, 24.346441792806644 ], [ 54.514045786476053, 24.346532026191362 ], [ 54.514341257354367, 24.346536870981883 ], [ 54.514343019951554, 24.346446637576936 ], [ 54.515721884102192, 24.34646923890736 ], [ 54.515720122480317, 24.346559472406717 ], [ 54.515818612911168, 24.346561086315365 ], [ 54.515820374463388, 24.346470852809261 ], [ 54.51591886483321, 24.34647246664732 ], [ 54.51591710335066, 24.346562700160163 ], [ 54.516015593798777, 24.346564313941119 ], [ 54.516017355211666, 24.346474080421533 ], [ 54.51660829766351, 24.346483761726052 ], [ 54.516604775665101, 24.346664228844919 ], [ 54.516703266243262, 24.346665842185693 ], [ 54.516701505300787, 24.346756075750065 ], [ 54.516799995957243, 24.346757689033733 ], [ 54.516785908664282, 24.347479557559744 ], [ 54.516687417450491, 24.347477944222167 ], [ 54.516675090128672, 24.348109579072627 ], [ 54.516773581830158, 24.348111192457374 ], [ 54.516770059799931, 24.348291659560246 ], [ 54.516671567959101, 24.348290046162024 ], [ 54.51666980686138, 24.348380279704926 ], [ 54.516177347438258, 24.348372211722328 ], [ 54.516175585983547, 24.348462445230339 ], [ 54.515683126427724, 24.348454375617749 ] ] ] } },
{ "type": "Feature", "properties": { "segment": "M-001-SAM002", "hotspot": "M-001", "label": "Building / roof", "purity": 0.71, "LST_C": 55.0, "area_m2": 49600, "candidate": false }, "geometry": { "type": "Polygon", "coordinates": [ [ [ 54.51115780363893, 24.348109360789351 ], [ 54.511159568620975, 24.348019127621875 ], [ 54.508598799989095, 24.347977064241903 ], [ 54.508605867076369, 24.347616132262829 ], [ 54.508507376370595, 24.347614513605606 ], [ 54.508521510687146, 24.346892649644268 ], [ 54.508620000835592, 24.3468942682474 ], [ 54.508625300852529, 24.346623569221919 ], [ 54.511776983481624, 24.346675330162988 ], [ 54.51177521904723, 24.346765563388892 ], [ 54.511873709341707, 24.346767179871613 ], [ 54.511868416195682, 24.347037879562407 ], [ 54.511769925692214, 24.347036263059433 ], [ 54.511750516058385, 24.348028828426202 ], [ 54.511652024797208, 24.348027211785094 ], [ 54.51165026016352, 24.348117444986343 ], [ 54.51115780363893, 24.348109360789351 ] ] ] } },
{ "type": "Feature", "properties": { "segment": "M-001-SAM003", "hotspot": "M-001", "label": "Bare soil / sand", "purity": 1.0, "LST_C": 57.2, "area_m2": 20600, "candidate": true }, "geometry": { "type": "Polygon", "coordinates": [ [ [ 54.505905367804715, 24.354702415579709 ], [ 54.505907137050606, 24.354612182852168 ], [ 54.505808641134863, 24.354610562006975 ], [ 54.505812179740047, 24.354430096561842 ], [ 54.505910675516411, 24.354431717393492 ], [ 54.505915983150139, 24.354161019196525 ], [ 54.505817487582846, 24.354159398385178 ], [ 54.505821026101387, 24.353978932928101 ], [ 54.5059195215293, 24.353980553725908 ], [ 54.505923059873808, 24.353800088250519 ], [ 54.507105004011748, 24.353819532680276 ], [ 54.507106772334723, 24.353729299859587 ], [ 54.507697744453203, 24.353739018585131 ], [ 54.507695976548376, 24.353829251446413 ], [ 54.507991462933568, 24.353834109967291 ], [ 54.507975553282243, 24.354646205847676 ], [ 54.50768006501535, 24.354641347144188 ], [ 54.507678297023951, 24.354731579993526 ], [ 54.50757980088261, 24.354729960291195 ], [ 54.507581568943699, 24.354639727448621 ], [ 54.50748307288071, 24.354638107689183 ], [ 54.507484841002842, 24.35454787485218 ], [ 54.506992361166233, 24.354539775130803 ], [ 54.506988824216371, 24.354720240735968 ], [ 54.505905367804715, 24.354702415579709 ] ] ] } },
{ "type": "Feature", "properties": { "segment": "M-001-SAM004", "hotspot": "M-001", "label": "Bare soil / sand", "purity": 0.98, "LST_C": 56.6, "area_m2": 20400, "candidate": true }, "geometry": { "type": "Polygon", "coordinates": [ [ [ 54.511044826807463, 24.353884281025589 ], [ 54.511046592342787, 24.3537940479345 ], [ 54.510160131634102, 24.353779488526946 ], [ 54.510161897787995, 24.35368925549546 ], [ 54.510063402266624, 24.353687637470937 ], [ 54.510081064026785, 24.352785307158015 ], [ 54.510179558851256, 24.352786925114966 ], [ 54.5101866230344, 24.352425992929348 ], [ 54.510876085096612, 24.352437316650672 ], [ 54.510874319551611, 24.35252754974616 ], [ 54.51146528778883, 24.352537253342902 ], [ 54.511452931658589, 24.353168885261585 ], [ 54.511551426882868, 24.35317050235146 ], [ 54.511549661756519, 24.353260735484682 ], [ 54.511451166462557, 24.353259118388046 ], [ 54.511438809848229, 24.353890750239884 ], [ 54.511044826807463, 24.353884281025589 ] ] ] } },
{ "type": "Feature", "properties": { "segment": "M-001-SAM005", "hotspot": "M-001", "label": "Building / roof", "purity": 0.98, "LST_C": 57.6, "area_m2": 17200, "candidate": true }, "geometry": { "type": "Polygon", "coordinates": [ [ [ 54.504450942043654, 24.353505071863211 ], [ 54.504473953689399, 24.352332047430419 ], [ 54.50555738874025, 24.352349881188378 ], [ 54.505559158039631, 24.352259648456855 ], [ 54.505854640299148, 24.352264510847636 ], [ 54.505844025627212, 24.35280590734067 ], [ 54.505745531113931, 24.352804286566986 ], [ 54.505731377175344, 24.353526148436679 ], [ 54.505238901951373, 24.353518043339555 ], [ 54.505240671572459, 24.353427810643879 ], [ 54.504748196913582, 24.353419703984002 ], [ 54.504746426944045, 24.353509936645818 ], [ 54.504450942043654, 24.353505071863211 ] ] ] } },
{ "type": "Feature", "properties": { "segment": "M-001-SAM006", "hotspot": "M-001", "label": "Building / roof", "purity": 0.58, "LST_C": 56.0, "area_m2": 16700, "candidate": false }, "geometry": { "type": "Polygon", "coordinates": [ [ [ 54.50457775770429, 24.352062971005445 ], [ 54.504579527674522, 24.351972738338045 ], [ 54.504481033901058, 24.351971116795109 ], [ 54.504502273703906, 24.350888324774537 ], [ 54.504896245505044, 24.350894810238085 ], [ 54.504898015153557, 24.350804577534852 ], [ 54.50578445158596, 24.350819166031286 ], [ 54.505761453632047, 24.351992191872238 ], [ 54.50477651524745, 24.351975981232343 ], [ 54.504774745416583, 24.352066213913279 ], [ 54.50457775770429, 24.352062971005445 ] ] ] } },
{ "type": "Feature", "properties": { "segment": "M-001-SAM007", "hotspot": "M-001", "label": "Building / roof", "purity": 0.72, "LST_C": 55.5, "area_m2": 15700, "candidate": false }, "geometry": { "type": "Polygon", "coordinates": [ [ [ 54.515352408743738, 24.350254201915085 ], [ 54.515354170928418, 24.350163968484861 ], [ 54.514763211958517, 24.350154280924571 ], [ 54.514793174884744, 24.348620313116111 ], [ 54.514891666840327, 24.348621927754479 ], [ 54.514893429218041, 24.348531694336508 ], [ 54.515188904927562, 24.348536537848279 ], [ 54.515187142758869, 24.348626771286487 ], [ 54.515679602795693, 24.348634842562788 ], [ 54.51566374602443, 24.349446943756416 ], [ 54.515762238684765, 24.349448557880795 ], [ 54.515760476847817, 24.349538791347531 ], [ 54.515661984117813, 24.349537177216405 ], [ 54.515651412496901, 24.350078577951312 ], [ 54.515552919357468, 24.350076963715882 ], [ 54.515551157320772, 24.350167197160779 ], [ 54.515452664120282, 24.350165582854746 ], [ 54.515450902005277, 24.35025581629171 ], [ 54.515352408743738, 24.350254201915085 ] ] ] } },
{ "type": "Feature", "properties": { "segment": "M-001-SAM008", "hotspot": "M-001", "label": "Building / roof", "purity": 0.63, "LST_C": 56.0, "area_m2": 15000, "candidate": false }, "geometry": { "type": "Polygon", "coordinates": [ [ [ 54.51777434175812, 24.347315220164727 ], [ 54.517776101985994, 24.347224986533387 ], [ 54.517677610894978, 24.347223373854515 ], [ 54.517679371183903, 24.347133140228721 ], [ 54.51738389817158, 24.347128301829208 ], [ 54.517394460978053, 24.346586900170649 ], [ 54.519364274165476, 24.346619144505144 ], [ 54.519350201501318, 24.347341014451196 ], [ 54.518759253839079, 24.347331343509229 ], [ 54.518761013370266, 24.347241109810547 ], [ 54.518465539864479, 24.347236273497803 ], [ 54.518463780124293, 24.347326507176287 ], [ 54.51777434175812, 24.347315220164727 ] ] ] } },
{ "type": "Feature", "properties": { "segment": "M-001-SAM009", "hotspot": "M-001", "label": "Building / roof", "purity": 0.97, "LST_C": 57.0, "area_m2": 12800, "candidate": true }, "geometry": { "type": "Polygon", "coordinates": [ [ [ 54.515781618321633, 24.348455989667968 ], [ 54.515783380055034, 24.348365756186919 ], [ 54.514207511902882, 24.348339923829133 ], [ 54.514209274742406, 24.348249690454786 ], [ 54.514110783125943, 24.348248075396441 ], [ 54.514109020216743, 24.348338308764042 ], [ 54.512828629082769, 24.348317307107411 ], [ 54.512830392897683, 24.348227073827534 ], [ 54.512731901402127, 24.348225457875287 ], [ 54.512733665278077, 24.348135224600963 ], [ 54.512635173860829, 24.348133608591606 ], [ 54.512636937797808, 24.348043375322849 ], [ 54.513326377412277, 24.348054686000221 ], [ 54.513328140852927, 24.347964452683023 ], [ 54.513426632191305, 24.34796606823193 ], [ 54.513424868820316, 24.348056301555882 ], [ 54.514508274878722, 24.34807406845399 ], [ 54.514510037483326, 24.347983835055835 ], [ 54.514608528925315, 24.347985449838543 ], [ 54.514606766390379, 24.348075683243447 ], [ 54.516773581830158, 24.348111192457374 ], [ 54.516768298771879, 24.348381893109902 ], [ 54.516177347438258, 24.348372211722328 ], [ 54.516175585983547, 24.348462445230339 ], [ 54.515781618321633, 24.348455989667968 ] ] ] } },
{ "type": "Feature", "properties": { "segment": "M-001-SAM010", "hotspot": "M-001", "label": "Building / roof", "purity": 0.98, "LST_C": 55.8, "area_m2": 9500, "candidate": true }, "geometry": { "type": "Polygon", "coordinates": [ [ [ 54.505989065816927, 24.345406818215345 ], [ 54.505990834240251, 24.345316585371584 ], [ 54.505793856788017, 24.345313344883959 ], [ 54.505797393887313, 24.345132879219925 ], [ 54.505698905313501, 24.345131258893893 ], [ 54.505700673919812, 24.345041026066863 ], [ 54.505799162423969, 24.345042646386123 ], [ 54.505820384188183, 24.343959852287359 ], [ 54.506411310379782, 24.34396957237507 ], [ 54.506383021103971, 24.345413298451575 ], [ 54.505989065816927, 24.345406818215345 ] ] ] } },
{ "type": "Feature", "properties": { "segment": "M-001-SAM011", "hotspot": "M-001", "label": "Building / roof", "purity": 0.99, "LST_C": 56.9, "area_m2": 9700, "candidate": true }, "geometry": { "type": "Polygon", "coordinates": [ [ [ 54.509176942963578, 24.35367307237626 ], [ 54.509178709805738, 24.353582839411164 ], [ 54.509080214440566, 24.353581220754744 ], [ 54.509101416707807, 24.352498425161635 ], [ 54.509495394875351, 24.352504899079666 ], [ 54.509497161395963, 24.352414666078783 ], [ 54.50959565588979, 24.352416284391879 ], [ 54.509593889438861, 24.352506517399522 ], [ 54.509889373181302, 24.352511371975911 ], [ 54.50986994394983, 24.353503935204287 ], [ 54.509771448593796, 24.353502317001681 ], [ 54.509769682178437, 24.353592550008521 ], [ 54.509277205179558, 24.353584458003724 ], [ 54.509275438407094, 24.353674690975577 ], [ 54.509176942963578, 24.35367307237626 ] ] ] } },
{ "type": "Feature", "properties": { "segment": "M-001-SAM012", "hotspot": "M-001", "label": "Building / roof", "purity": 0.89, "LST_C": 56.8, "area_m2": 8800, "candidate": true }, "geometry": { "type": "Polygon", "coordinates": [ [ [ 54.509205211399788, 24.352229344791514 ], [ 54.509228177873332, 24.351056315903886 ], [ 54.509326671295952, 24.351057934307171 ], [ 54.509328437817523, 24.3509677013007 ], [ 54.509820904711972, 24.350975792325492 ], [ 54.509819138538816, 24.35106602536575 ], [ 54.509917632013334, 24.351067643385893 ], [ 54.509899970502794, 24.351969973790471 ], [ 54.50980147633144, 24.351968355702752 ], [ 54.509797943786175, 24.352148821755826 ], [ 54.509305472362321, 24.352140730291726 ], [ 54.509303705728293, 24.352230963282672 ], [ 54.509205211399788, 24.352229344791514 ] ] ] } },
{ "type": "Feature", "properties": { "segment": "M-001-SAM013", "hotspot": "M-001", "label": "Building / roof", "purity": 1.0, "LST_C": 55.7, "area_m2": 8600, "candidate": true }, "geometry": { "type": "Polygon", "coordinates": [ [ [ 54.50480720078739, 24.345387371377932 ], [ 54.504808970046611, 24.345297138615408 ], [ 54.504710481420126, 24.345295517637428 ], [ 54.504715789354783, 24.345024819363015 ], [ 54.504814277772297, 24.345026440320673 ], [ 54.504835507895159, 24.34394364703428 ], [ 54.505327945933374, 24.343951750458775 ], [ 54.505308488866113, 24.344944311350243 ], [ 54.505406977265956, 24.344945931918094 ], [ 54.505405208459337, 24.345036164726018 ], [ 54.505503696937495, 24.345037785236801 ], [ 54.505498390674624, 24.345308483673712 ], [ 54.504907458681764, 24.345298759529545 ], [ 54.504905689492197, 24.34538899229884 ], [ 54.50480720078739, 24.345387371377932 ] ] ] } },
{ "type": "Feature", "properties": { "segment": "M-001-SAM014", "hotspot": "M-001", "label": "Bare soil / sand", "purity": 1.0, "LST_C": 56.7, "area_m2": 8400, "candidate": true }, "geometry": { "type": "Polygon", "coordinates": [ [ [ 54.510174260623096, 24.353057624241654 ], [ 54.5101866230344, 24.352425992929348 ], [ 54.510876085096612, 24.352437316650672 ], [ 54.510874319551611, 24.35252754974616 ], [ 54.51146528778883, 24.352537253342902 ], [ 54.511456462024739, 24.352988419005069 ], [ 54.511357966948481, 24.352986801864834 ], [ 54.511356201700039, 24.353077034986935 ], [ 54.510174260623096, 24.353057624241654 ] ] ] } },
{ "type": "Feature", "properties": { "segment": "M-001-SAM015", "hotspot": "M-001", "label": "Building / roof", "purity": 0.96, "LST_C": 55.2, "area_m2": 7500, "candidate": true }, "geometry": { "type": "Polygon", "coordinates": [ [ [ 54.517603670974935, 24.351013185060719 ], [ 54.517607192268386, 24.350832717908144 ], [ 54.517508698398991, 24.350831104895938 ], [ 54.517510459102475, 24.350740871324597 ], [ 54.517608952902187, 24.350742484330063 ], [ 54.517614234751832, 24.350471783588663 ], [ 54.51781122195905, 24.350475009367585 ], [ 54.517812982418988, 24.350384775771268 ], [ 54.517911475965853, 24.350386388558213 ], [ 54.517913236347496, 24.350296154953952 ], [ 54.51801172983329, 24.350297767670302 ], [ 54.518009969521337, 24.350388001281292 ], [ 54.518206956658155, 24.350391226535891 ], [ 54.518205196476934, 24.350481460159155 ], [ 54.5184021837876, 24.350484685171789 ], [ 54.518403943829462, 24.350394451535053 ], [ 54.518797918275503, 24.350400900767095 ], [ 54.518787359567391, 24.350942302731244 ], [ 54.518097901450709, 24.350931015621818 ], [ 54.518096141148078, 24.351021249231191 ], [ 54.517603670974935, 24.351013185060719 ] ] ] } },
{ "type": "Feature", "properties": { "segment": "M-001-SAM016", "hotspot": "M-001", "label": "Building / roof", "purity": 1.0, "LST_C": 55.7, "area_m2": 7500, "candidate": true }, "geometry": { "type": "Polygon", "coordinates": [ [ [ 54.517660007531603, 24.348125710046848 ], [ 54.517672329976492, 24.347494074724736 ], [ 54.518263277905938, 24.347503749961533 ], [ 54.518261518000557, 24.347593983622975 ], [ 54.518556992290655, 24.347598820399622 ], [ 54.51855875198703, 24.347508586717975 ], [ 54.518854226145685, 24.347513422899773 ], [ 54.518845428622662, 24.347964591397051 ], [ 54.518746936879474, 24.347962979366635 ], [ 54.518745177279342, 24.348053213055778 ], [ 54.518646685475105, 24.348051600954776 ], [ 54.518648445144905, 24.347961367272365 ], [ 54.518549953418947, 24.347959755114243 ], [ 54.518548193679479, 24.348049988789924 ], [ 54.518449701892472, 24.34804837656122 ], [ 54.518447942074708, 24.348138610228972 ], [ 54.517660007531603, 24.348125710046848 ] ] ] } },
{ "type": "Feature", "properties": { "segment": "M-001-SAM017", "hotspot": "M-001", "label": "Building / roof", "purity": 0.91, "LST_C": 57.6, "area_m2": 5300, "candidate": true }, "geometry": { "type": "Polygon", "coordinates": [ [ [ 54.504828992439492, 24.354323652075955 ], [ 54.504830762417342, 24.354233419418097 ], [ 54.504732266875692, 24.354231797897452 ], [ 54.504734036914563, 24.354141565245175 ], [ 54.504438550550681, 24.35413670032035 ], [ 54.504445631455816, 24.353775769780579 ], [ 54.505627574034222, 24.353795225706104 ], [ 54.50562226587725, 24.354065923856481 ], [ 54.505523770405645, 24.354064302860305 ], [ 54.505522000932963, 24.354154535567936 ], [ 54.505128018854435, 24.354148050917484 ], [ 54.505126249094324, 24.354238283596843 ], [ 54.505027753526662, 24.354236662267795 ], [ 54.505025983688192, 24.354326894939188 ], [ 54.504828992439492, 24.354323652075955 ] ] ] } },
{ "type": "Feature", "properties": { "segment": "M-001-SAM018", "hotspot": "M-001", "label": "Building / roof", "purity": 0.91, "LST_C": 55.6, "area_m2": 4500, "candidate": true }, "geometry": { "type": "Polygon", "coordinates": [ [ [ 54.515176569565462, 24.3491681718907 ], [ 54.515178331785933, 24.349077938459647 ], [ 54.514882854822289, 24.34907309482649 ], [ 54.514891666840327, 24.348621927754479 ], [ 54.515679602795693, 24.348634842562788 ], [ 54.515669031692518, 24.349176243369275 ], [ 54.515176569565462, 24.3491681718907 ] ] ] } },
{ "type": "Feature", "properties": { "segment": "M-001-SAM019", "hotspot": "M-001", "label": "Road / dark pavement", "purity": 0.67, "LST_C": 58.9, "area_m2": 4500, "candidate": false }, "geometry": { "type": "Polygon", "coordinates": [ [ [ 54.514473234211273, 24.344824050758113 ], [ 54.514474996574791, 24.344733817323746 ], [ 54.514376507657978, 24.344732202656164 ], [ 54.51438003249843, 24.344551735797346 ], [ 54.514281543729567, 24.344550121079418 ], [ 54.514285068674809, 24.344369654229318 ], [ 54.514383557304349, 24.344371268933763 ], [ 54.514385319694362, 24.34428103550017 ], [ 54.514582296840032, 24.344284264704044 ], [ 54.514585821315535, 24.344103797806319 ], [ 54.514979775153201, 24.344110255394042 ], [ 54.514981537099388, 24.344020021916403 ], [ 54.515080025510727, 24.344021636146994 ], [ 54.515072977952833, 24.344382570077332 ], [ 54.514974489262876, 24.344380955819773 ], [ 54.514972727282178, 24.344471189292623 ], [ 54.514874238531185, 24.344469574964474 ], [ 54.514867190243443, 24.344830508817008 ], [ 54.514473234211273, 24.344824050758113 ] ] ] } },
{ "type": "Feature", "properties": { "segment": "M-001-SAM020", "hotspot": "M-001", "label": "Building / roof", "purity": 0.39, "LST_C": 53.4, "area_m2": 4900, "candidate": false }, "geometry": { "type": "Polygon", "coordinates": [ [ [ 54.509591173395719, 24.342577644185685 ], [ 54.509598235899162, 24.342216711676826 ], [ 54.509696722511976, 24.342218329290077 ], [ 54.509705550098452, 24.341767163593371 ], [ 54.509804036371683, 24.341768781109003 ], [ 54.509802270941336, 24.341859014257491 ], [ 54.510196216399308, 24.341865483708741 ], [ 54.510190920892121, 24.342136183228121 ], [ 54.510289407487171, 24.342137800451624 ], [ 54.510282346968474, 24.342498733154454 ], [ 54.510183860094834, 24.342497115903921 ], [ 54.51018209487389, 24.342587349069891 ], [ 54.509591173395719, 24.342577644185685 ] ] ] } },
{ "type": "Feature", "properties": { "segment": "M-001-SAM021", "hotspot": "M-001", "label": "Building / roof", "purity": 0.98, "LST_C": 57.6, "area_m2": 4100, "candidate": true }, "geometry": { "type": "Polygon", "coordinates": [ [ [ 54.504438550550681, 24.35413670032035 ], [ 54.504445631455816, 24.353775769780579 ], [ 54.505627574034222, 24.353795225706104 ], [ 54.50562226587725, 24.354065923856481 ], [ 54.504932797757995, 24.354054575542055 ], [ 54.504931027867165, 24.354144808209067 ], [ 54.504438550550681, 24.35413670032035 ] ] ] } },
{ "type": "Feature", "properties": { "segment": "M-001-SAM022", "hotspot": "M-001", "label": "Road / dark pavement", "purity": 0.88, "LST_C": 55.7, "area_m2": 4300, "candidate": true }, "geometry": { "type": "Polygon", "coordinates": [ [ [ 54.511509061464693, 24.355336097219279 ], [ 54.511517888004079, 24.354884931678512 ], [ 54.511714881126892, 24.354888165923292 ], [ 54.511716646269441, 24.354797932798057 ], [ 54.512209128879249, 24.354806017258536 ], [ 54.51220559928246, 24.354986483575345 ], [ 54.512304095969739, 24.35498810028934 ], [ 54.512298801718828, 24.35525879977585 ], [ 54.512200304822457, 24.355257183041605 ], [ 54.512198539985171, 24.35534741619464 ], [ 54.511509061464693, 24.355336097219279 ] ] ] } },
{ "type": "Feature", "properties": { "segment": "M-001-SAM023", "hotspot": "M-001", "label": "Building / roof", "purity": 0.94, "LST_C": 54.4, "area_m2": 3600, "candidate": true }, "geometry": { "type": "Polygon", "coordinates": [ [ [ 54.510575683008533, 24.347648491999241 ], [ 54.510577448365353, 24.347558258866318 ], [ 54.510183485180832, 24.3475517889892 ], [ 54.510192313228636, 24.347100623441825 ], [ 54.510290803663459, 24.347102240973094 ], [ 54.510292569177409, 24.347012007853287 ], [ 54.510785021132897, 24.347020094518165 ], [ 54.510774430009491, 24.347561493421793 ], [ 54.510675939183102, 24.347559876175978 ], [ 54.510674173895943, 24.347650109315651 ], [ 54.510575683008533, 24.347648491999241 ] ] ] } },
{ "type": "Feature", "properties": { "segment": "M-001-SAM024", "hotspot": "M-001", "label": "Building / roof", "purity": 1.0, "LST_C": 53.8, "area_m2": 3500, "candidate": true }, "geometry": { "type": "Polygon", "coordinates": [ [ [ 54.508470721658092, 24.344454739726334 ], [ 54.508472488244756, 24.34436450670033 ], [ 54.508374000064109, 24.344362888158827 ], [ 54.508379299981158, 24.344092189093939 ], [ 54.509265692037786, 24.344106753486759 ], [ 54.509258627972002, 24.344467685814266 ], [ 54.508470721658092, 24.344454739726334 ] ] ] } },
{ "type": "Feature", "properties": { "segment": "M-001-SAM025", "hotspot": "M-001", "label": "Building / roof", "purity": 0.95, "LST_C": 55.3, "area_m2": 3800, "candidate": true }, "geometry": { "type": "Polygon", "coordinates": [ [ [ 54.511537976884213, 24.343783017141412 ], [ 54.511553855796834, 24.342970917893272 ], [ 54.511750830491287, 24.342974150610697 ], [ 54.511752594632398, 24.342883917341435 ], [ 54.511949569222111, 24.342887149790023 ], [ 54.511947805220295, 24.342977383072785 ], [ 54.512046292597766, 24.342978999208086 ], [ 54.512042764707516, 24.343159465783543 ], [ 54.51194427719075, 24.343157849634743 ], [ 54.511933692894743, 24.343699249291987 ], [ 54.511736717051292, 24.343696016721861 ], [ 54.511734952832406, 24.343786249980393 ], [ 54.511537976884213, 24.343783017141412 ] ] ] } },
{ "type": "Feature", "properties": { "segment": "M-001-SAM026", "hotspot": "M-001", "label": "Road / dark pavement", "purity": 0.92, "LST_C": 53.1, "area_m2": 2600, "candidate": true }, "geometry": { "type": "Polygon", "coordinates": [ [ [ 54.508509584566028, 24.342469612878524 ], [ 54.508516650099381, 24.342108680662321 ], [ 54.508615136547405, 24.342110298970965 ], [ 54.508616902839464, 24.34202006590716 ], [ 54.508518416461094, 24.34201844760528 ], [ 54.508520182814145, 24.341928214547053 ], [ 54.508618669122875, 24.341929832842172 ], [ 54.508620435397631, 24.341839599775991 ], [ 54.508915894166783, 24.34184445425808 ], [ 54.508903531524389, 24.342476085838264 ], [ 54.508509584566028, 24.342469612878524 ] ] ] } },
{ "type": "Feature", "properties": { "segment": "M-001-SAM027", "hotspot": "M-001", "label": "Road / dark pavement", "purity": 1.0, "LST_C": 59.1, "area_m2": 3100, "candidate": true }, "geometry": { "type": "Polygon", "coordinates": [ [ [ 54.516070193586799, 24.34376707427927 ], [ 54.516078999227851, 24.343315906484513 ], [ 54.515980511287474, 24.343314292946229 ], [ 54.515985794777549, 24.34304359227529 ], [ 54.516084282508977, 24.343045205793352 ], [ 54.516086043585432, 24.342954972227247 ], [ 54.51628301893485, 24.34295819905838 ], [ 54.516284779863376, 24.342867965477598 ], [ 54.516383267481373, 24.342869578790673 ], [ 54.516365658504512, 24.343771914612194 ], [ 54.516070193586799, 24.34376707427927 ] ] ] } },
{ "type": "Feature", "properties": { "segment": "M-001-SAM028", "hotspot": "M-001", "label": "Building / roof", "purity": 1.0, "LST_C": 56.8, "area_m2": 2800, "candidate": true }, "geometry": { "type": "Polygon", "coordinates": [ [ [ 54.512835684290614, 24.34795637398075 ], [ 54.512837448070989, 24.347866140696098 ], [ 54.512738956854108, 24.347864524770845 ], [ 54.512754831115714, 24.347052425216063 ], [ 54.513050302911225, 24.347057272618038 ], [ 54.513034430530659, 24.34786937235506 ], [ 54.512935939296504, 24.347867756557502 ], [ 54.512934175585805, 24.347957989848901 ], [ 54.512835684290614, 24.34795637398075 ] ] ] } },
{ "type": "Feature", "properties": { "segment": "M-001-SAM029", "hotspot": "M-001", "label": "Building / roof", "purity": 0.9, "LST_C": 54.9, "area_m2": 2900, "candidate": true }, "geometry": { "type": "Polygon", "coordinates": [ [ [ 54.510327877640627, 24.345207345206447 ], [ 54.510331408296722, 24.345026878915508 ], [ 54.51023291946413, 24.345025261539636 ], [ 54.510247042299937, 24.344303396382195 ], [ 54.510542507151882, 24.344308248156146 ], [ 54.510538976912741, 24.344488714493199 ], [ 54.510637465353319, 24.344490331637015 ], [ 54.510635700290443, 24.34458056481051 ], [ 54.510537211780203, 24.34457894765994 ], [ 54.510524855610385, 24.34521057979369 ], [ 54.510327877640627, 24.345207345206447 ] ] ] } },
{ "type": "Feature", "properties": { "segment": "M-001-SAM030", "hotspot": "M-001", "label": "Bare soil / sand", "purity": 0.93, "LST_C": 57.0, "area_m2": 2800, "candidate": true }, "geometry": { "type": "Polygon", "coordinates": [ [ [ 54.50844553222398, 24.350772667538216 ], [ 54.508447299346713, 24.350682434589007 ], [ 54.508250313223314, 24.350679196623229 ], [ 54.508255614957662, 24.350408497809006 ], [ 54.508945065077725, 24.350419829429768 ], [ 54.508943298329342, 24.350510062416358 ], [ 54.509041791307936, 24.350511680970666 ], [ 54.509038257924573, 24.350692146953794 ], [ 54.508939764806634, 24.350690528385979 ], [ 54.508937998032295, 24.350780761368984 ], [ 54.50844553222398, 24.350772667538216 ] ] ] } },
{ "type": "Feature", "properties": { "segment": "M-001-SAM031", "hotspot": "M-001", "label": "Road / dark pavement", "purity": 0.93, "LST_C": 52.8, "area_m2": 2800, "candidate": true }, "geometry": { "type": "Polygon", "coordinates": [ [ [ 54.506221407477732, 24.343605401088436 ], [ 54.506223175588524, 24.343515168207265 ], [ 54.506124688233861, 24.343513548258404 ], [ 54.506133529006192, 24.343062383868489 ], [ 54.506232016012603, 24.343064003783507 ], [ 54.50623732016313, 24.342793305114935 ], [ 54.506532780607479, 24.342798164416109 ], [ 54.506523941358047, 24.343249328959267 ], [ 54.506425454186356, 24.343247709222215 ], [ 54.506418382352351, 24.343608640808188 ], [ 54.506221407477732, 24.343605401088436 ] ] ] } },
{ "type": "Feature", "properties": { "segment": "M-001-SAM032", "hotspot": "M-001", "label": "Building / roof", "purity": 1.0, "LST_C": 57.1, "area_m2": 2800, "candidate": true }, "geometry": { "type": "Polygon", "coordinates": [ [ [ 54.516381376356833, 24.348014505009004 ], [ 54.516398988691023, 24.34711216968071 ], [ 54.516595970518139, 24.347115396621195 ], [ 54.516594209462866, 24.347205630172866 ], [ 54.516692700459032, 24.34720724355407 ], [ 54.516678612263746, 24.347929111978456 ], [ 54.516580120710223, 24.347927498543331 ], [ 54.516578359577338, 24.348017732084273 ], [ 54.516381376356833, 24.348014505009004 ] ] ] } },
{ "type": "Feature", "properties": { "segment": "M-001-SAM033", "hotspot": "M-001", "label": "Bare soil / sand", "purity": 0.59, "LST_C": 58.5, "area_m2": 2200, "candidate": false }, "geometry": { "type": "Polygon", "coordinates": [ [ [ 54.506739849342289, 24.347314668246391 ], [ 54.506741617390183, 24.347224435373565 ], [ 54.506643127127539, 24.347222815530305 ], [ 54.506644895236441, 24.347132582663047 ], [ 54.506743385429409, 24.347134202499547 ], [ 54.506745153459981, 24.34704396962433 ], [ 54.50743458456558, 24.347055306644727 ], [ 54.507429281910873, 24.347326005408849 ], [ 54.506739849342289, 24.347314668246391 ] ] ] } },
{ "type": "Feature", "properties": { "segment": "M-001-SAM034", "hotspot": "M-001", "label": "Road / dark pavement", "purity": 0.7, "LST_C": 55.6, "area_m2": 2300, "candidate": false }, "geometry": { "type": "Polygon", "coordinates": [ [ [ 54.513820346447332, 24.353027211211483 ], [ 54.513827400385814, 24.352666278036107 ], [ 54.514319875539684, 24.352674354980675 ], [ 54.514318112416454, 24.352764588310041 ], [ 54.514416607542827, 24.352766203514111 ], [ 54.51441131833041, 24.353036903515289 ], [ 54.513820346447332, 24.353027211211483 ] ] ] } },
{ "type": "Feature", "properties": { "segment": "M-001-SAM035", "hotspot": "M-001", "label": "Building / roof", "purity": 0.95, "LST_C": 54.7, "area_m2": 2200, "candidate": true }, "geometry": { "type": "Polygon", "coordinates": [ [ [ 54.51844975005492, 24.342993677348318 ], [ 54.518451509451097, 24.342903443619317 ], [ 54.518254533861629, 24.342900219610417 ], [ 54.518259812416375, 24.342629518456675 ], [ 54.518949225667654, 24.342640801229326 ], [ 54.51894394857559, 24.342911502524469 ], [ 54.518549997258766, 24.342905055528025 ], [ 54.518548237932237, 24.342995289263751 ], [ 54.51844975005492, 24.342993677348318 ] ] ] } },
{ "type": "Feature", "properties": { "segment": "M-001-SAM036", "hotspot": "M-001", "label": "Building / roof", "purity": 1.0, "LST_C": 56.2, "area_m2": 2000, "candidate": true }, "geometry": { "type": "Polygon", "coordinates": [ [ [ 54.511500923365887, 24.345677915011205 ], [ 54.511502687905569, 24.34558768179124 ], [ 54.511207219868652, 24.345582831648798 ], [ 54.511208984608665, 24.345492598447908 ], [ 54.511110495349968, 24.34549098161283 ], [ 54.511112260151002, 24.345400748417493 ], [ 54.51121074934003, 24.345402365245818 ], [ 54.511212514062763, 24.345312132042537 ], [ 54.511803448960492, 24.345321831631285 ], [ 54.51179992034232, 24.345502298117694 ], [ 54.511701431031767, 24.345500681665666 ], [ 54.51169790223971, 24.345681148133792 ], [ 54.511500923365887, 24.345677915011205 ] ] ] } },
{ "type": "Feature", "properties": { "segment": "M-001-SAM037", "hotspot": "M-001", "label": "Road / dark pavement", "purity": 1.0, "LST_C": 52.7, "area_m2": 1600, "candidate": true }, "geometry": { "type": "Polygon", "coordinates": [ [ [ 54.506223175588524, 24.343515168207265 ], [ 54.50623732016313, 24.342793305114935 ], [ 54.506434293784032, 24.342796544712886 ], [ 54.506420150323841, 24.343518407913486 ], [ 54.506223175588524, 24.343515168207265 ] ] ] } },
{ "type": "Feature", "properties": { "segment": "M-001-SAM038", "hotspot": "M-001", "label": "Bare soil / sand", "purity": 0.83, "LST_C": 57.2, "area_m2": 1200, "candidate": true }, "geometry": { "type": "Polygon", "coordinates": [ [ [ 54.510306308471748, 24.351344814042871 ], [ 54.510311605997913, 24.351074114827888 ], [ 54.510705580120849, 24.351080585248134 ], [ 54.510700283430864, 24.351351284544204 ], [ 54.510306308471748, 24.351344814042871 ] ] ] } },
{ "type": "Feature", "properties": { "segment": "M-001-SAM039", "hotspot": "M-001", "label": "Road / dark pavement", "purity": 0.77, "LST_C": 58.7, "area_m2": 1300, "candidate": false }, "geometry": { "type": "Polygon", "coordinates": [ [ [ 54.51594704738072, 24.345028730279566 ], [ 54.515948808716608, 24.344938496746444 ], [ 54.51585031953104, 24.344936883022985 ], [ 54.515853842316261, 24.344756415966646 ], [ 54.515952331362506, 24.344758029676616 ], [ 54.515954092672523, 24.344667796139916 ], [ 54.516151070651581, 24.344671023354859 ], [ 54.516149309480888, 24.344761256905045 ], [ 54.516247798553017, 24.344762870423498 ], [ 54.516242515198158, 24.345033571087118 ], [ 54.51594704738072, 24.345028730279566 ] ] ] } },
{ "type": "Feature", "properties": { "segment": "M-001-SAM040", "hotspot": "M-001", "label": "Road / dark pavement", "purity": 1.0, "LST_C": 55.8, "area_m2": 1100, "candidate": true }, "geometry": { "type": "Polygon", "coordinates": [ [ [ 54.517543910830234, 24.349026433242436 ], [ 54.517549192397439, 24.348755732453252 ], [ 54.517943161516392, 24.348762183499147 ], [ 54.5179396410376, 24.348942650747009 ], [ 54.517841148605584, 24.348941038067846 ], [ 54.517839388283583, 24.349031271683259 ], [ 54.517543910830234, 24.349026433242436 ] ] ] } },
{ "type": "Feature", "properties": { "segment": "M-001-SAM041", "hotspot": "M-001", "label": "Building / roof", "purity": 0.64, "LST_C": 55.8, "area_m2": 1100, "candidate": false }, "geometry": { "type": "Polygon", "coordinates": [ [ [ 54.51889987353389, 24.355276741858571 ], [ 54.518901633614433, 24.355186508244646 ], [ 54.51880313627921, 24.355184895803269 ], [ 54.518806656553835, 24.355004428585325 ], [ 54.519200645388857, 24.355010877913745 ], [ 54.519195365800371, 24.355281578819671 ], [ 54.51889987353389, 24.355276741858571 ] ] ] } },
{ "type": "Feature", "properties": { "segment": "M-001-SAM042", "hotspot": "M-001", "label": "Bare soil / sand", "purity": 1.0, "LST_C": 59.2, "area_m2": 500, "candidate": true }, "geometry": { "type": "Polygon", "coordinates": [ [ [ 54.510823493437563, 24.350089638441776 ], [ 54.510828789555369, 24.349818939075313 ], [ 54.510927282140862, 24.349820556362307 ], [ 54.510925516846576, 24.349910789492409 ], [ 54.511024009510393, 24.3499124067223 ], [ 54.511020479035246, 24.350092872992427 ], [ 54.510823493437563, 24.350089638441776 ] ] ] } },
{ "type": "Feature", "properties": { "segment": "M-001-SAM043", "hotspot": "M-001", "label": "Bare soil / sand", "purity": 1.0, "LST_C": 58.3, "area_m2": 500, "candidate": true }, "geometry": { "type": "Polygon", "coordinates": [ [ [ 54.515211986621701, 24.342308813755889 ], [ 54.515215509881649, 24.342128346724753 ], [ 54.515313996847553, 24.342129960686059 ], [ 54.515315758394941, 24.342039727161964 ], [ 54.515414245299823, 24.342041341052703 ], [ 54.515408960840723, 24.342312041641659 ], [ 54.515211986621701, 24.342308813755889 ] ] ] } },
{ "type": "Feature", "properties": { "segment": "M-001-SAM044", "hotspot": "M-001", "label": "Road / dark pavement", "purity": 1.0, "LST_C": 55.8, "area_m2": 400, "candidate": true }, "geometry": { "type": "Polygon", "coordinates": [ [ [ 54.518813696999658, 24.354643494135114 ], [ 54.518817217170863, 24.354463026902852 ], [ 54.519014210734767, 24.354466251613999 ], [ 54.519010690842357, 24.354646718873202 ], [ 54.518813696999658, 24.354643494135114 ] ] ] } },
{ "type": "Feature", "properties": { "segment": "M-009-SAM001", "hotspot": "M-009", "label": "Building / roof", "purity": 0.91, "LST_C": 56.4, "area_m2": 18400, "candidate": true }, "geometry": { "type": "Polygon", "coordinates": [ [ [ 54.51280086249848, 24.369889496416786 ], [ 54.512802628099728, 24.369799263395194 ], [ 54.512408595386603, 24.369792793771499 ], [ 54.512410361258219, 24.369702560775725 ], [ 54.512311853171305, 24.36970094321677 ], [ 54.512320682748481, 24.369249778253756 ], [ 54.512419190486639, 24.369251395778953 ], [ 54.512420956306386, 24.369161162776017 ], [ 54.512617971669151, 24.369164397621173 ], [ 54.512616205988898, 24.369254630637609 ], [ 54.513699791869286, 24.369272417790484 ], [ 54.513701556782273, 24.369182184699802 ], [ 54.513800064571683, 24.369183801323477 ], [ 54.513798299728442, 24.369274034420911 ], [ 54.515177410663661, 24.369296660535991 ], [ 54.515170355110385, 24.369657593291588 ], [ 54.515071846851292, 24.369655977528968 ], [ 54.51506655488641, 24.369926677062889 ], [ 54.514771029533172, 24.369921829330831 ], [ 54.514772793739361, 24.369831596174283 ], [ 54.514575777019893, 24.369828364046835 ], [ 54.514577541356957, 24.369738130902586 ], [ 54.51447903307993, 24.369736514749729 ], [ 54.514477268673119, 24.369826747887238 ], [ 54.513590693940856, 24.369812199574714 ], [ 54.513588928897626, 24.369902432650296 ], [ 54.51280086249848, 24.369889496416786 ] ] ] } },
{ "type": "Feature", "properties": { "segment": "M-009-SAM002", "hotspot": "M-009", "label": "Building / roof", "purity": 0.99, "LST_C": 55.4, "area_m2": 17700, "candidate": true }, "geometry": { "type": "Polygon", "coordinates": [ [ [ 54.514681043564664, 24.374523718731425 ], [ 54.514682808211361, 24.374433485635773 ], [ 54.513993224939433, 24.374422169662648 ], [ 54.513994990065875, 24.374331936613032 ], [ 54.513896478274219, 24.374330319796478 ], [ 54.513894713077995, 24.37442055283935 ], [ 54.513697689381061, 24.374417319000965 ], [ 54.513699454716821, 24.37432708597159 ], [ 54.513502431193977, 24.374323851890988 ], [ 54.513500665718688, 24.374414084906867 ], [ 54.513303642090875, 24.374410850557059 ], [ 54.513305407705715, 24.37432061755468 ], [ 54.513206895974548, 24.374319000290637 ], [ 54.51320513028994, 24.374409233286261 ], [ 54.512417036193611, 24.374396292818506 ], [ 54.512418802436379, 24.374306059876883 ], [ 54.512123267502204, 24.374301206166933 ], [ 54.512133866033089, 24.373759808613684 ], [ 54.513020467301516, 24.373774367652928 ], [ 54.513018701529226, 24.373864600642218 ], [ 54.513117212894265, 24.373866218000369 ], [ 54.513115447183104, 24.373956450995212 ], [ 54.513312470078645, 24.373959685533229 ], [ 54.513316001213255, 24.373779219515352 ], [ 54.514005580643122, 24.373790538290255 ], [ 54.514007345709082, 24.373700305232276 ], [ 54.514105857021008, 24.373701921937666 ], [ 54.514104092024809, 24.373792155002391 ], [ 54.514301114814103, 24.373795388234893 ], [ 54.5142993499488, 24.373885621311913 ], [ 54.51489041894262, 24.373895319515668 ], [ 54.514885125550727, 24.374166018861008 ], [ 54.514786613820853, 24.374164402633301 ], [ 54.514779555564985, 24.374525335050045 ], [ 54.514681043564664, 24.374523718731425 ] ] ] } },
{ "type": "Feature", "properties": { "segment": "M-009-SAM003", "hotspot": "M-009", "label": "Building / roof", "purity": 0.9, "LST_C": 55.2, "area_m2": 16700, "candidate": true }, "geometry": { "type": "Polygon", "coordinates": [ [ [ 54.513136635146594, 24.372873654978232 ], [ 54.513138400754038, 24.372783421969054 ], [ 54.512842869196433, 24.372778569945837 ], [ 54.512844635004527, 24.372688336955729 ], [ 54.512746124572374, 24.372686719493561 ], [ 54.512744358694519, 24.372776952476926 ], [ 54.512645848201245, 24.372775334944091 ], [ 54.512647614148868, 24.37268510196747 ], [ 54.512549103734003, 24.372683484377465 ], [ 54.512547337716619, 24.372773717347329 ], [ 54.512251806314616, 24.372768864173512 ], [ 54.512262403544973, 24.372227466457925 ], [ 54.512459423633842, 24.372230701890039 ], [ 54.51245765758992, 24.372320934859129 ], [ 54.512556167717094, 24.372322552486054 ], [ 54.512557933691248, 24.372232319510214 ], [ 54.512754953831994, 24.372235554558795 ], [ 54.512753187997362, 24.372325787548135 ], [ 54.513344249045602, 24.372335491200278 ], [ 54.513346014461668, 24.372245258170437 ], [ 54.51393707540246, 24.372254959480905 ], [ 54.513935310404968, 24.372345192551236 ], [ 54.514230841201297, 24.372350042363781 ], [ 54.514232605989505, 24.372259809273199 ], [ 54.514823667396833, 24.372269507131914 ], [ 54.514821903027205, 24.372359740262972 ], [ 54.51492041336175, 24.372361356355775 ], [ 54.514909827381196, 24.372902755157497 ], [ 54.513136635146594, 24.372873654978232 ] ] ] } },
{ "type": "Feature", "properties": { "segment": "M-009-SAM004", "hotspot": "M-009", "label": "Building / roof", "purity": 0.97, "LST_C": 55.4, "area_m2": 14900, "candidate": true }, "geometry": { "type": "Polygon", "coordinates": [ [ [ 54.512860526888382, 24.371876239990904 ], [ 54.512864058323046, 24.371695773985579 ], [ 54.512765548658273, 24.371694156597677 ], [ 54.512763782875503, 24.371784389594183 ], [ 54.512271234332509, 24.371776301662109 ], [ 54.512278298806919, 24.371415369803952 ], [ 54.512573827069666, 24.371420222673933 ], [ 54.512575592957376, 24.371329989686149 ], [ 54.513560687030811, 24.371346161697197 ], [ 54.513562452212291, 24.371255928640718 ], [ 54.514350527535143, 24.371268861593428 ], [ 54.51434876291173, 24.371359094703884 ], [ 54.514841310618067, 24.371367175755704 ], [ 54.514843074892688, 24.371276942611519 ], [ 54.514941584390108, 24.371278558623384 ], [ 54.514929234774705, 24.371910190654845 ], [ 54.514338174989831, 24.37190049334156 ], [ 54.514339939665078, 24.37181026023827 ], [ 54.513354841412351, 24.371794093003309 ], [ 54.513353076039493, 24.37188432603913 ], [ 54.513254566191989, 24.371882708957322 ], [ 54.513256331634601, 24.371792475928256 ], [ 54.513059312105035, 24.371789241586381 ], [ 54.513057546522901, 24.37187947460195 ], [ 54.512860526888382, 24.371876239990904 ] ] ] } },
{ "type": "Feature", "properties": { "segment": "M-009-SAM005", "hotspot": "M-009", "label": "Building / roof", "purity": 0.94, "LST_C": 55.3, "area_m2": 15500, "candidate": true }, "geometry": { "type": "Polygon", "coordinates": [ [ [ 54.512103836053775, 24.375293768236215 ], [ 54.512114435155347, 24.37475237076179 ], [ 54.513296579545091, 24.374771782554625 ], [ 54.513294813887036, 24.374862015551024 ], [ 54.513491838212559, 24.37486524996832 ], [ 54.513493603731064, 24.374775016958424 ], [ 54.513690627951611, 24.374778251106509 ], [ 54.513692393321932, 24.374688018081908 ], [ 54.513790905375394, 24.374689635053318 ], [ 54.513789140074842, 24.374779868084655 ], [ 54.514084676496388, 24.374784718635535 ], [ 54.514082911396514, 24.374874951685928 ], [ 54.51418142362408, 24.374876568415115 ], [ 54.514183188654187, 24.374786335357971 ], [ 54.514281700820618, 24.374787952016476 ], [ 54.514279935860287, 24.374878185080366 ], [ 54.51477249717091, 24.374886267447692 ], [ 54.514763673983971, 24.375337432917878 ], [ 54.512103836053775, 24.375293768236215 ] ] ] } },
{ "type": "Feature", "properties": { "segment": "M-009-SAM006", "hotspot": "M-009", "label": "Building / roof", "purity": 0.9, "LST_C": 52.5, "area_m2": 13500, "candidate": true }, "geometry": { "type": "Polygon", "coordinates": [ [ [ 54.517073917728531, 24.363009398039335 ], [ 54.517075679735775, 24.362919164642548 ], [ 54.516977176551826, 24.36291755053583 ], [ 54.516980700679895, 24.362737083752151 ], [ 54.516882197644023, 24.36273546959502 ], [ 54.516892770239529, 24.362194069255789 ], [ 54.516991272857041, 24.362195683372487 ], [ 54.516998320802593, 24.361834749762174 ], [ 54.517983344663222, 24.361850887145557 ], [ 54.517960447399822, 24.363023922185167 ], [ 54.517073917728531, 24.363009398039335 ] ] ] } },
{ "type": "Feature", "properties": { "segment": "M-009-SAM007", "hotspot": "M-009", "label": "Building / roof", "purity": 0.97, "LST_C": 54.6, "area_m2": 12200, "candidate": true }, "geometry": { "type": "Polygon", "coordinates": [ [ [ 54.516438389985858, 24.375364901585172 ], [ 54.516456024282455, 24.374462569468555 ], [ 54.517539657702805, 24.374480332725348 ], [ 54.517534369806931, 24.374751032595281 ], [ 54.517731394595991, 24.374754261487688 ], [ 54.517729632086315, 24.374844494788753 ], [ 54.517631119617697, 24.374842880367776 ], [ 54.517629357029627, 24.374933113660909 ], [ 54.51772786956802, 24.374934728088625 ], [ 54.517726107041092, 24.3750249613873 ], [ 54.51762759443293, 24.375023346952847 ], [ 54.517625831827608, 24.375113580243593 ], [ 54.517724344505538, 24.375115194684788 ], [ 54.517719056847113, 24.375385894570069 ], [ 54.516438389985858, 24.375364901585172 ] ] ] } },
{ "type": "Feature", "properties": { "segment": "M-009-SAM008", "hotspot": "M-009", "label": "Building / roof", "purity": 0.99, "LST_C": 54.9, "area_m2": 8500, "candidate": true }, "geometry": { "type": "Polygon", "coordinates": [ [ [ 54.506115844764935, 24.374112156769339 ], [ 54.50611761545558, 24.374021924258017 ], [ 54.505920593544666, 24.374018680359786 ], [ 54.505925905983183, 24.373747982859239 ], [ 54.506319949002489, 24.373754470318765 ], [ 54.50632171951893, 24.373664237789114 ], [ 54.506420230225658, 24.373665859487417 ], [ 54.506423771093004, 24.373485394410995 ], [ 54.507507387904077, 24.373503228724427 ], [ 54.507496769802607, 24.374044624385952 ], [ 54.50670868139634, 24.374031654418484 ], [ 54.506706911124297, 24.374121886970421 ], [ 54.506608400042744, 24.374120265430058 ], [ 54.506610170384548, 24.374030032884885 ], [ 54.506314637401168, 24.374025167900538 ], [ 54.506312866850053, 24.374115400425406 ], [ 54.506115844764935, 24.374112156769339 ] ] ] } },
{ "type": "Feature", "properties": { "segment": "M-009-SAM009", "hotspot": "M-009", "label": "Building / roof", "purity": 0.96, "LST_C": 54.7, "area_m2": 8200, "candidate": true }, "geometry": { "type": "Polygon", "coordinates": [ [ [ 54.508522566073168, 24.371985479266865 ], [ 54.508524334881564, 24.371895246564481 ], [ 54.508425825388173, 24.371893626343848 ], [ 54.508427594257675, 24.371803393647035 ], [ 54.508526103681312, 24.371805013860904 ], [ 54.508542022489344, 24.370992919474936 ], [ 54.508443513693528, 24.370991299321933 ], [ 54.508448820016291, 24.370720601192065 ], [ 54.508842854414418, 24.370727081339446 ], [ 54.508841085927841, 24.370817314077641 ], [ 54.50903810331836, 24.37082055378136 ], [ 54.509034566598267, 24.37100101928122 ], [ 54.50913307544603, 24.371002639050722 ], [ 54.50911539202373, 24.371904966545966 ], [ 54.509016882478399, 24.371903346708848 ], [ 54.509015114018794, 24.371993579445046 ], [ 54.508522566073168, 24.371985479266865 ] ] ] } },
{ "type": "Feature", "properties": { "segment": "M-009-SAM010", "hotspot": "M-009", "label": "Building / roof", "purity": 1.0, "LST_C": 55.2, "area_m2": 8300, "candidate": true }, "geometry": { "type": "Polygon", "coordinates": [ [ [ 54.50769202241645, 24.374138098858165 ], [ 54.507702639732692, 24.373596703122626 ], [ 54.508195193610604, 24.37360480646635 ], [ 54.508196962784169, 24.373514573805764 ], [ 54.508295473515972, 24.373516194275972 ], [ 54.508293704412168, 24.373606426943322 ], [ 54.509377323800877, 24.373624247971005 ], [ 54.50937378710217, 24.373804713450891 ], [ 54.509275276065829, 24.373803093663572 ], [ 54.509273507633729, 24.373893326394953 ], [ 54.508780952233053, 24.373885226465656 ], [ 54.508775645838284, 24.374155924551239 ], [ 54.508184578387379, 24.37414620240482 ], [ 54.508186347612899, 24.374055969751396 ], [ 54.508087836471162, 24.374054349176681 ], [ 54.508086067175867, 24.374144581823341 ], [ 54.50769202241645, 24.374138098858165 ] ] ] } },
{ "type": "Feature", "properties": { "segment": "M-009-SAM011", "hotspot": "M-009", "label": "Building / roof", "purity": 1.0, "LST_C": 54.6, "area_m2": 7600, "candidate": true }, "geometry": { "type": "Polygon", "coordinates": [ [ [ 54.502965269043223, 24.373969991202383 ], [ 54.502975906400088, 24.373428597409784 ], [ 54.503566968164257, 24.373438339599893 ], [ 54.50356874060811, 24.373348107256273 ], [ 54.50366725086274, 24.373349730724122 ], [ 54.503665478488657, 24.373439963074507 ], [ 54.504552071798621, 24.373454571469544 ], [ 54.504544984727069, 24.373815501103024 ], [ 54.504446474045537, 24.373813878176616 ], [ 54.504444702186191, 24.373904110575229 ], [ 54.504149169984345, 24.373899241392145 ], [ 54.504150942052981, 24.373809009013854 ], [ 54.503362857121203, 24.373796021767156 ], [ 54.503359311859001, 24.373976486414133 ], [ 54.502965269043223, 24.373969991202383 ] ] ] } },
{ "type": "Feature", "properties": { "segment": "M-009-SAM012", "hotspot": "M-009", "label": "Building / roof", "purity": 0.51, "LST_C": 56.0, "area_m2": 7300, "candidate": false }, "geometry": { "type": "Polygon", "coordinates": [ [ [ 54.517642035991429, 24.364192115953468 ], [ 54.517643797692436, 24.36410188253177 ], [ 54.516954268878209, 24.364090584513356 ], [ 54.516966603960569, 24.36345895085821 ], [ 54.517951640371976, 24.363475089454393 ], [ 54.517937548678965, 24.364196957023101 ], [ 54.517642035991429, 24.364192115953468 ] ] ] } },
{ "type": "Feature", "properties": { "segment": "M-009-SAM013", "hotspot": "M-009", "label": "Building / roof", "purity": 0.97, "LST_C": 56.5, "area_m2": 6500, "candidate": true }, "geometry": { "type": "Polygon", "coordinates": [ [ [ 54.510148212372776, 24.369484875065218 ], [ 54.510149979822742, 24.369394642221231 ], [ 54.50946042625327, 24.36938330781825 ], [ 54.509467497919566, 24.369022376619579 ], [ 54.509566005267388, 24.369023995984701 ], [ 54.509567773092577, 24.368933763175296 ], [ 54.510257324281383, 24.368945096894343 ], [ 54.510255556944436, 24.36903532975106 ], [ 54.510748094116188, 24.369043423381122 ], [ 54.510739259045423, 24.369494587815741 ], [ 54.510148212372776, 24.369484875065218 ] ] ] } },
{ "type": "Feature", "properties": { "segment": "M-009-SAM014", "hotspot": "M-009", "label": "Building / roof", "purity": 0.88, "LST_C": 54.1, "area_m2": 5200, "candidate": true }, "geometry": { "type": "Polygon", "coordinates": [ [ [ 54.516558062984622, 24.374283718178596 ], [ 54.516566879374061, 24.373832552029874 ], [ 54.517749019218186, 24.373851928411387 ], [ 54.517740207014924, 24.374303094964464 ], [ 54.517346158866758, 24.374296637058684 ], [ 54.517347921603744, 24.374206403777411 ], [ 54.517249409658042, 24.374204789147889 ], [ 54.517251172456177, 24.374114555872158 ], [ 54.516955636880162, 24.374109711620232 ], [ 54.516953873872723, 24.374199944875752 ], [ 54.516855361961539, 24.374198329990513 ], [ 54.516853598875699, 24.374288563238089 ], [ 54.516558062984622, 24.374283718178596 ] ] ] } },
{ "type": "Feature", "properties": { "segment": "M-009-SAM015", "hotspot": "M-009", "label": "Building / roof", "purity": 1.0, "LST_C": 55.0, "area_m2": 5900, "candidate": true }, "geometry": { "type": "Polygon", "coordinates": [ [ [ 54.503130112969266, 24.365578382582328 ], [ 54.503146061624641, 24.364766290877061 ], [ 54.504032594125746, 24.36478089744487 ], [ 54.50402727986814, 24.365051594873645 ], [ 54.503928776013012, 24.365049972156935 ], [ 54.503927004506728, 24.365140204624034 ], [ 54.503631492784194, 24.365135336070182 ], [ 54.503624405835538, 24.365496265845323 ], [ 54.503525901666443, 24.365494642839142 ], [ 54.503524129837857, 24.365584875273157 ], [ 54.503130112969266, 24.365578382582328 ] ] ] } },
{ "type": "Feature", "properties": { "segment": "M-009-SAM016", "hotspot": "M-009", "label": "Building / roof", "purity": 0.96, "LST_C": 56.8, "area_m2": 5700, "candidate": true }, "geometry": { "type": "Polygon", "coordinates": [ [ [ 54.517367498055236, 24.368159157034555 ], [ 54.517369260275274, 24.368068923678852 ], [ 54.517270753081789, 24.368067309443639 ], [ 54.517284851089535, 24.367345442608894 ], [ 54.517383357725052, 24.367347056790202 ], [ 54.517385119867456, 24.367256823423745 ], [ 54.517779146216817, 24.367263279482952 ], [ 54.517777384353401, 24.367353512876363 ], [ 54.517875891032048, 24.367355126738133 ], [ 54.517860034500792, 24.368167227285678 ], [ 54.517367498055236, 24.368159157034555 ] ] ] } },
{ "type": "Feature", "properties": { "segment": "M-009-SAM017", "hotspot": "M-009", "label": "Building / roof", "purity": 0.98, "LST_C": 54.9, "area_m2": 5100, "candidate": true }, "geometry": { "type": "Polygon", "coordinates": [ [ [ 54.516779770296523, 24.373023682801815 ], [ 54.516781533331304, 24.372933449544259 ], [ 54.516486000605674, 24.372928604596314 ], [ 54.516491290286126, 24.372657904877155 ], [ 54.517574908357567, 24.372675666651247 ], [ 54.517576670799713, 24.372585433335004 ], [ 54.517773692239892, 24.372588661904 ], [ 54.517764880640527, 24.373039828540641 ], [ 54.516779770296523, 24.373023682801815 ] ] ] } },
{ "type": "Feature", "properties": { "segment": "M-009-SAM018", "hotspot": "M-009", "label": "Building / roof", "purity": 1.0, "LST_C": 55.0, "area_m2": 4500, "candidate": true }, "geometry": { "type": "Polygon", "coordinates": [ [ [ 54.506019104495785, 24.374020302340867 ], [ 54.506020875247529, 24.373930069835108 ], [ 54.505922364366171, 24.373928447860798 ], [ 54.505925905983183, 24.373747982859239 ], [ 54.506319949002489, 24.373754470318765 ], [ 54.50632171951893, 24.373664237789114 ], [ 54.506420230225658, 24.373665859487417 ], [ 54.506423771093004, 24.373485394410995 ], [ 54.506916324058984, 24.373493501875956 ], [ 54.506905703445916, 24.374034897293907 ], [ 54.506019104495785, 24.374020302340867 ] ] ] } },
{ "type": "Feature", "properties": { "segment": "M-009-SAM019", "hotspot": "M-009", "label": "Building / roof", "purity": 1.0, "LST_C": 58.0, "area_m2": 4700, "candidate": true }, "geometry": { "type": "Polygon", "coordinates": [ [ [ 54.517202204689049, 24.366531728143933 ], [ 54.517214539937562, 24.365900094572844 ], [ 54.517707067578961, 24.365908164620805 ], [ 54.517705305775173, 24.365998398025376 ], [ 54.517902317031599, 24.366001625610711 ], [ 54.517891746864656, 24.366543026093904 ], [ 54.517202204689049, 24.366531728143933 ] ] ] } },
{ "type": "Feature", "properties": { "segment": "M-009-SAM020", "hotspot": "M-009", "label": "Road / dark pavement", "purity": 0.98, "LST_C": 56.0, "area_m2": 4300, "candidate": true }, "geometry": { "type": "Polygon", "coordinates": [ [ [ 54.51104361652304, 24.369048278792221 ], [ 54.51104538330199, 24.368958045881453 ], [ 54.510946875894142, 24.368956427481752 ], [ 54.510957476804712, 24.368415030032562 ], [ 54.511055983794073, 24.368416648391726 ], [ 54.511057750512478, 24.368326415472588 ], [ 54.511451778277433, 24.368332888243138 ], [ 54.511450011838022, 24.368423121189295 ], [ 54.511548518870619, 24.36842473922891 ], [ 54.511546752492308, 24.368514972180623 ], [ 54.511645259603306, 24.368516590163086 ], [ 54.511643493286087, 24.368606823120363 ], [ 54.511544986105335, 24.368605205131143 ], [ 54.511539686892547, 24.368875903975539 ], [ 54.511441179511195, 24.368874285902148 ], [ 54.511439413019893, 24.368964518841139 ], [ 54.511340905577448, 24.368962900697085 ], [ 54.511339139007738, 24.369053133628121 ], [ 54.51104361652304, 24.369048278792221 ] ] ] } },
{ "type": "Feature", "properties": { "segment": "M-009-SAM021", "hotspot": "M-009", "label": "Building / roof", "purity": 0.96, "LST_C": 55.2, "area_m2": 4700, "candidate": true }, "geometry": { "type": "Polygon", "coordinates": [ [ [ 54.502991861849594, 24.372616506640199 ], [ 54.503000725684473, 24.37216534505972 ], [ 54.503099234980141, 24.372166968822995 ], [ 54.503101007651317, 24.372076736496531 ], [ 54.503298026129173, 24.372079983817773 ], [ 54.503296253597505, 24.372170216157791 ], [ 54.503887309657848, 24.372179956628099 ], [ 54.503878448962197, 24.372631118513514 ], [ 54.502991861849594, 24.372616506640199 ] ] ] } },
{ "type": "Feature", "properties": { "segment": "M-009-SAM022", "hotspot": "M-009", "label": "Building / roof", "purity": 1.0, "LST_C": 57.6, "area_m2": 3600, "candidate": true }, "geometry": { "type": "Polygon", "coordinates": [ [ [ 54.517316569588182, 24.36572124195143 ], [ 54.517327141799917, 24.365179841646334 ], [ 54.517918171699833, 24.365189524805359 ], [ 54.517907601998637, 24.365730925352999 ], [ 54.517316569588182, 24.36572124195143 ] ] ] } },
{ "type": "Feature", "properties": { "segment": "M-009-SAM023", "hotspot": "M-009", "label": "Road / dark pavement", "purity": 1.0, "LST_C": 54.5, "area_m2": 3400, "candidate": true }, "geometry": { "type": "Polygon", "coordinates": [ [ [ 54.517066869613274, 24.363370331614544 ], [ 54.517068631655029, 24.363280098222525 ], [ 54.516970128192163, 24.363278484088852 ], [ 54.516973652389254, 24.363098017314726 ], [ 54.517072155712661, 24.36309963143492 ], [ 54.517073917728531, 24.363009398039335 ], [ 54.517566434126323, 24.363017467648188 ], [ 54.517564672459095, 24.363107701077471 ], [ 54.517958686011504, 24.363114155641405 ], [ 54.517953401794792, 24.363384856002938 ], [ 54.517066869613274, 24.363370331614544 ] ] ] } },
{ "type": "Feature", "properties": { "segment": "M-009-SAM024", "hotspot": "M-009", "label": "Road / dark pavement", "purity": 0.97, "LST_C": 56.0, "area_m2": 3700, "candidate": true }, "geometry": { "type": "Polygon", "coordinates": [ [ [ 54.510946875894142, 24.368956427481752 ], [ 54.510957476804712, 24.368415030032562 ], [ 54.511055983794073, 24.368416648391726 ], [ 54.511057750512478, 24.368326415472588 ], [ 54.511451778277433, 24.368332888243138 ], [ 54.511450011838022, 24.368423121189295 ], [ 54.511548518870619, 24.36842473922891 ], [ 54.511543219709722, 24.368695438080472 ], [ 54.51144471246787, 24.368693820020589 ], [ 54.511439413019893, 24.368964518841139 ], [ 54.510946875894142, 24.368956427481752 ] ] ] } },
{ "type": "Feature", "properties": { "segment": "M-009-SAM025", "hotspot": "M-009", "label": "Building / roof", "purity": 0.97, "LST_C": 54.9, "area_m2": 3000, "candidate": true }, "geometry": { "type": "Polygon", "coordinates": [ [ [ 54.507004214483707, 24.374036518635723 ], [ 54.507014834678166, 24.373495123177175 ], [ 54.507507387904077, 24.373503228724427 ], [ 54.507496769802607, 24.374044624385952 ], [ 54.507004214483707, 24.374036518635723 ] ] ] } },
{ "type": "Feature", "properties": { "segment": "M-009-SAM026", "hotspot": "M-009", "label": "Building / roof", "purity": 1.0, "LST_C": 54.9, "area_m2": 3000, "candidate": true }, "geometry": { "type": "Polygon", "coordinates": [ [ [ 54.503228617173399, 24.365580005850884 ], [ 54.50323038921119, 24.36548977343719 ], [ 54.503131885076797, 24.365488150175409 ], [ 54.503138973420128, 24.365127220535797 ], [ 54.50323747727559, 24.365128843770464 ], [ 54.503244565201179, 24.364767914084631 ], [ 54.503441572380275, 24.364771160308074 ], [ 54.503434485012548, 24.365132090048125 ], [ 54.503631492784194, 24.365135336070182 ], [ 54.503626177585708, 24.365406033403328 ], [ 54.503527673486353, 24.365404410403922 ], [ 54.503524129837857, 24.365584875273157 ], [ 54.503228617173399, 24.365580005850884 ] ] ] } },
{ "type": "Feature", "properties": { "segment": "M-009-SAM027", "hotspot": "M-009", "label": "Building / roof", "purity": 0.96, "LST_C": 53.9, "area_m2": 2800, "candidate": true }, "geometry": { "type": "Polygon", "coordinates": [ [ [ 54.516558062984622, 24.374283718178596 ], [ 54.516566879374061, 24.373832552029874 ], [ 54.517256460798791, 24.373843856037805 ], [ 54.517251172456177, 24.374114555872158 ], [ 54.516955636880162, 24.374109711620232 ], [ 54.516953873872723, 24.374199944875752 ], [ 54.516855361961539, 24.374198329990513 ], [ 54.516853598875699, 24.374288563238089 ], [ 54.516558062984622, 24.374283718178596 ] ] ] } },
{ "type": "Feature", "properties": { "segment": "M-009-SAM028", "hotspot": "M-009", "label": "Building / roof", "purity": 0.96, "LST_C": 55.6, "area_m2": 2600, "candidate": true }, "geometry": { "type": "Polygon", "coordinates": [ [ [ 54.516771166637902, 24.368420170562846 ], [ 54.51677292930232, 24.368329937251154 ], [ 54.516871436661901, 24.368331551826138 ], [ 54.516873199247939, 24.368241318506509 ], [ 54.516774691958105, 24.368239703938265 ], [ 54.516781742494956, 24.367878770674778 ], [ 54.517274277635494, 24.367886842742106 ], [ 54.517268990791997, 24.368157542792598 ], [ 54.517170483537399, 24.368155928486736 ], [ 54.517165196407007, 24.368426628506274 ], [ 54.516771166637902, 24.368420170562846 ] ] ] } },
{ "type": "Feature", "properties": { "segment": "M-009-SAM029", "hotspot": "M-009", "label": "Building / roof", "purity": 0.95, "LST_C": 55.9, "area_m2": 2000, "candidate": true }, "geometry": { "type": "Polygon", "coordinates": [ [ [ 54.50552189900074, 24.369228247196737 ], [ 54.505528981792217, 24.368867317075711 ], [ 54.506021516536961, 24.368875426010511 ], [ 54.50601443514045, 24.369236356266931 ], [ 54.50552189900074, 24.369228247196737 ] ] ] } },
{ "type": "Feature", "properties": { "segment": "M-009-SAM030", "hotspot": "M-009", "label": "Building / roof", "purity": 1.0, "LST_C": 56.4, "area_m2": 1900, "candidate": true }, "geometry": { "type": "Polygon", "coordinates": [ [ [ 54.509384901950988, 24.368208661984522 ], [ 54.509386669837781, 24.368118429177873 ], [ 54.509288163204744, 24.368116809752536 ], [ 54.509295234944339, 24.367755878541058 ], [ 54.5096892604125, 24.36776235575083 ], [ 54.509680422111273, 24.368213519897381 ], [ 54.509384901950988, 24.368208661984522 ] ] ] } },
{ "type": "Feature", "properties": { "segment": "M-009-SAM031", "hotspot": "M-009", "label": "Building / roof", "purity": 1.0, "LST_C": 54.3, "area_m2": 1600, "candidate": true }, "geometry": { "type": "Polygon", "coordinates": [ [ [ 54.517346158866758, 24.374296637058684 ], [ 54.517353209762938, 24.373935703926424 ], [ 54.517747256794792, 24.373942161724386 ], [ 54.517740207014924, 24.374303094964464 ], [ 54.517346158866758, 24.374296637058684 ] ] ] } },
{ "type": "Feature", "properties": { "segment": "M-009-SAM032", "hotspot": "M-009", "label": "Building / roof", "purity": 1.0, "LST_C": 55.4, "area_m2": 1500, "candidate": true }, "geometry": { "type": "Polygon", "coordinates": [ [ [ 54.506477491029578, 24.365723770501333 ], [ 54.506486339668946, 24.365272607309503 ], [ 54.506781852354855, 24.365277470324447 ], [ 54.50677300476152, 24.365728633617792 ], [ 54.506477491029578, 24.365723770501333 ] ] ] } },
{ "type": "Feature", "properties": { "segment": "M-009-SAM033", "hotspot": "M-009", "label": "Building / roof", "purity": 1.0, "LST_C": 56.1, "area_m2": 1600, "candidate": true }, "geometry": { "type": "Polygon", "coordinates": [ [ [ 54.508163347005585, 24.375228994152707 ], [ 54.508165116335036, 24.375138761513622 ], [ 54.508066604356053, 24.375137140857742 ], [ 54.508070143128521, 24.374956675589512 ], [ 54.508562702412291, 24.374964778161985 ], [ 54.508559164337548, 24.375145243497848 ], [ 54.508756188390763, 24.375148484106383 ], [ 54.508754419479942, 24.375238716786047 ], [ 54.508163347005585, 24.375228994152707 ] ] ] } },
{ "type": "Feature", "properties": { "segment": "M-009-SAM034", "hotspot": "M-009", "label": "Building / roof", "purity": 1.0, "LST_C": 55.5, "area_m2": 1400, "candidate": true }, "geometry": { "type": "Polygon", "coordinates": [ [ [ 54.504641325627922, 24.363888307034678 ], [ 54.504650180025031, 24.363437144366547 ], [ 54.504847185355082, 24.363440388597688 ], [ 54.504845414632456, 24.363530621147241 ], [ 54.50494391738021, 24.363532243173744 ], [ 54.504936834681914, 24.363893173387133 ], [ 54.504641325627922, 24.363888307034678 ] ] ] } },
{ "type": "Feature", "properties": { "segment": "M-009-SAM035", "hotspot": "M-009", "label": "Building / roof", "purity": 1.0, "LST_C": 55.0, "area_m2": 1200, "candidate": true }, "geometry": { "type": "Polygon", "coordinates": [ [ [ 54.507587575523438, 24.364388108335195 ], [ 54.507592882042054, 24.364117410146637 ], [ 54.507986895728969, 24.364123890875451 ], [ 54.507981590047116, 24.364394589145174 ], [ 54.507587575523438, 24.364388108335195 ] ] ] } },
{ "type": "Feature", "properties": { "segment": "M-009-SAM036", "hotspot": "M-009", "label": "Building / roof", "purity": 1.0, "LST_C": 54.9, "area_m2": 1200, "candidate": true }, "geometry": { "type": "Polygon", "coordinates": [ [ [ 54.50556905384795, 24.371846612140665 ], [ 54.505576137365985, 24.371485682131155 ], [ 54.505871664281308, 24.37149054808101 ], [ 54.505864581600363, 24.371851478171767 ], [ 54.50556905384795, 24.371846612140665 ] ] ] } },
{ "type": "Feature", "properties": { "segment": "M-009-SAM037", "hotspot": "M-009", "label": "Road / dark pavement", "purity": 1.0, "LST_C": 55.2, "area_m2": 1400, "candidate": true }, "geometry": { "type": "Polygon", "coordinates": [ [ [ 54.508169755081965, 24.364848992993394 ], [ 54.508171523555077, 24.364758760230458 ], [ 54.508073019614919, 24.364757140224548 ], [ 54.508076556674617, 24.364576674708626 ], [ 54.508273564284657, 24.364579914629488 ], [ 54.508275332662059, 24.364489681856213 ], [ 54.508472340167266, 24.364492921507964 ], [ 54.508467035427486, 24.364763619864789 ], [ 54.508565539402269, 24.364765239615107 ], [ 54.508563771208102, 24.364855472405093 ], [ 54.508169755081965, 24.364848992993394 ] ] ] } },
{ "type": "Feature", "properties": { "segment": "M-009-SAM038", "hotspot": "M-009", "label": "Building / roof", "purity": 1.0, "LST_C": 55.5, "area_m2": 1100, "candidate": true }, "geometry": { "type": "Polygon", "coordinates": [ [ [ 54.506470411962134, 24.366084701033305 ], [ 54.506477491029578, 24.365723770501333 ], [ 54.506674500175542, 24.365727012642875 ], [ 54.506672730561149, 24.365817245291193 ], [ 54.506771235216867, 24.365818866272878 ], [ 54.50676592653091, 24.366089564230965 ], [ 54.506470411962134, 24.366084701033305 ] ] ] } },
{ "type": "Feature", "properties": { "segment": "M-009-SAM039", "hotspot": "M-009", "label": "Building / roof", "purity": 1.0, "LST_C": 55.2, "area_m2": 900, "candidate": true }, "geometry": { "type": "Polygon", "coordinates": [ [ [ 54.512304393658901, 24.375116538408292 ], [ 54.512309692778082, 24.374845839628776 ], [ 54.512605229020004, 24.374850693076702 ], [ 54.512599930528765, 24.375121391916988 ], [ 54.512304393658901, 24.375116538408292 ] ] ] } },
{ "type": "Feature", "properties": { "segment": "M-009-SAM040", "hotspot": "M-009", "label": "Building / roof", "purity": 1.0, "LST_C": 57.1, "area_m2": 400, "candidate": true }, "geometry": { "type": "Polygon", "coordinates": [ [ [ 54.51692431048955, 24.365624551718081 ], [ 54.516931359746508, 24.365263618289177 ], [ 54.517029864743492, 24.365265232571112 ], [ 54.517022815765479, 24.365626166026974 ], [ 54.51692431048955, 24.365624551718081 ] ] ] } }
]
}
