{"type": "FeatureCollection", "features": [{"type": "Feature", "geometry": {"type": "Point", "coordinates": [46.797918, 24.596554]}, "properties": {"id": "R-0-4468", "pred": "White / cool coating", "row": 251, "col": 183}}, {"type": "Feature", "geometry": {"type": "Point", "coordinates": [46.883502, 24.574923]}, "properties": {"id": "R-0-5370", "pred": "White / cool coating", "row": 327, "col": 473}}, {"type": "Feature", "geometry": {"type": "Point", "coordinates": [46.822733, 24.571337]}, "properties": {"id": "R-0-5666", "pred": "White / cool coating", "row": 343, "col": 268}}, {"type": "Feature", "geometry": {"type": "Point", "coordinates": [46.841496, 24.639093]}, "properties": {"id": "R-0-603", "pred": "White / cool coating", "row": 92, "col": 328}}, {"type": "Feature", "geometry": {"type": "Point", "coordinates": [46.778279, 24.63227]}, "properties": {"id": "R-0-908", "pred": "White / cool coating", "row": 120, "col": 115}}, {"type": "Feature", "geometry": {"type": "Point", "coordinates": [46.852747, 24.61837]}, "properties": {"id": "R-0-2264", "pred": "White / cool coating", "row": 168, "col": 367}}, {"type": "Feature", "geometry": {"type": "Point", "coordinates": [46.872816, 24.553388]}, "properties": {"id": "R-0-6689", "pred": "White / cool coating", "row": 407, "col": 438}}, {"type": "Feature", "geometry": {"type": "Point", "coordinates": [46.81473, 24.570892]}, "properties": {"id": "R-0-5707", "pred": "White / cool coating", "row": 345, "col": 241}}, {"type": "Feature", "geometry": {"type": "Point", "coordinates": [46.872596, 24.598352]}, "properties": {"id": "R-0-4121", "pred": "White / cool coating", "row": 241, "col": 435}}, {"type": "Feature", "geometry": {"type": "Point", "coordinates": [46.861282, 24.614473]}, "properties": {"id": "R-0-2580", "pred": "White / cool coating", "row": 182, "col": 396}}, {"type": "Feature", "geometry": {"type": "Point", "coordinates": [46.839658, 24.635053]}, "properties": {"id": "R-0-809", "pred": "White / cool coating", "row": 107, "col": 322}}, {"type": "Feature", "geometry": {"type": "Point", "coordinates": [46.853503, 24.629466]}, "properties": {"id": "R-0-1064", "pred": "White / cool coating", "row": 127, "col": 369}}, {"type": "Feature", "geometry": {"type": "Point", "coordinates": [46.783822, 24.542549]}, "properties": {"id": "R-0-7606", "pred": "White / cool coating", "row": 451, "col": 138}}, {"type": "Feature", "geometry": {"type": "Point", "coordinates": [46.818455, 24.562179]}, "properties": {"id": "R-0-6218", "pred": "White / cool coating", "row": 377, "col": 254}}, {"type": "Feature", "geometry": {"type": "Point", "coordinates": [46.920244, 24.537082]}, "properties": {"id": "R-0-7941", "pred": "White / cool coating", "row": 465, "col": 599}}, {"type": "Feature", "geometry": {"type": "Point", "coordinates": [46.88689, 24.583547]}, "properties": {"id": "R-0-4978", "pred": "White / cool coating", "row": 295, "col": 484}}, {"type": "Feature", "geometry": {"type": "Point", "coordinates": [46.92583, 24.515071]}, "properties": {"id": "R-0-8463", "pred": "White / cool coating", "row": 546, "col": 619}}, {"type": "Feature", "geometry": {"type": "Point", "coordinates": [46.870858, 24.581039]}, "properties": {"id": "R-0-5136", "pred": "White / cool coating", "row": 305, "col": 430}}, {"type": "Feature", "geometry": {"type": "Point", "coordinates": [46.788502, 24.601]}, "properties": {"id": "R-0-3925", "pred": "White / cool coating", "row": 235, "col": 151}}, {"type": "Feature", "geometry": {"type": "Point", "coordinates": [46.891263, 24.578888]}, "properties": {"id": "R-0-5231", "pred": "White / cool coating", "row": 312, "col": 499}}, {"type": "Feature", "geometry": {"type": "Point", "coordinates": [46.933329, 24.521476]}, "properties": {"id": "R-0-8359", "pred": "White / cool coating", "row": 522, "col": 644}}, {"type": "Feature", "geometry": {"type": "Point", "coordinates": [46.861962, 24.620423]}, "properties": {"id": "R-0-2088", "pred": "White / cool coating", "row": 160, "col": 398}}, {"type": "Feature", "geometry": {"type": "Point", "coordinates": [46.897136, 24.575564]}, "properties": {"id": "R-0-5338", "pred": "White / cool coating", "row": 324, "col": 519}}, {"type": "Feature", "geometry": {"type": "Point", "coordinates": [46.872884, 24.557991]}, "properties": {"id": "R-0-6434", "pred": "White / cool coating", "row": 390, "col": 438}}, {"type": "Feature", "geometry": {"type": "Point", "coordinates": [46.860469, 24.619629]}, "properties": {"id": "R-0-2159", "pred": "White / cool coating", "row": 163, "col": 393}}, {"type": "Feature", "geometry": {"type": "Point", "coordinates": [46.926954, 24.530496]}, "properties": {"id": "R-0-8141", "pred": "White / cool coating", "row": 489, "col": 622}}, {"type": "Feature", "geometry": {"type": "Point", "coordinates": [46.769782, 24.639142]}, "properties": {"id": "R-0-640", "pred": "White / cool coating", "row": 95, "col": 86}}, {"type": "Feature", "geometry": {"type": "Point", "coordinates": [46.850797, 24.62679]}, "properties": {"id": "R-0-1433", "pred": "White / cool coating", "row": 137, "col": 360}}, {"type": "Feature", "geometry": {"type": "Point", "coordinates": [46.820139, 24.576243]}, "properties": {"id": "R-0-5343", "pred": "White / cool coating", "row": 325, "col": 259}}, {"type": "Feature", "geometry": {"type": "Point", "coordinates": [46.883579, 24.580068]}, "properties": {"id": "R-0-5186", "pred": "White / cool coating", "row": 308, "col": 473}}, {"type": "Feature", "geometry": {"type": "Point", "coordinates": [46.811173, 24.570664]}, "properties": {"id": "R-0-5729", "pred": "White / cool coating", "row": 346, "col": 229}}, {"type": "Feature", "geometry": {"type": "Point", "coordinates": [46.830992, 24.609698]}, "properties": {"id": "R-0-2901", "pred": "White / cool coating", "row": 201, "col": 294}}, {"type": "Feature", "geometry": {"type": "Point", "coordinates": [46.92054, 24.537078]}, "properties": {"id": "R-0-7942", "pred": "White / cool coating", "row": 465, "col": 600}}, {"type": "Feature", "geometry": {"type": "Point", "coordinates": [46.856835, 24.594214]}, "properties": {"id": "R-0-4605", "pred": "White / cool coating", "row": 257, "col": 382}}, {"type": "Feature", "geometry": {"type": "Point", "coordinates": [46.867111, 24.627943]}, "properties": {"id": "R-0-1239", "pred": "White / cool coating", "row": 132, "col": 415}}, {"type": "Feature", "geometry": {"type": "Point", "coordinates": [46.807797, 24.624334]}, "properties": {"id": "R-0-1802", "pred": "White / cool coating", "row": 148, "col": 215}}, {"type": "Feature", "geometry": {"type": "Point", "coordinates": [46.832267, 24.615912]}, "properties": {"id": "R-0-2479", "pred": "White / cool coating", "row": 178, "col": 298}}, {"type": "Feature", "geometry": {"type": "Point", "coordinates": [46.921345, 24.492648]}, "properties": {"id": "R-0-8935", "pred": "White / cool coating", "row": 629, "col": 605}}, {"type": "Feature", "geometry": {"type": "Point", "coordinates": [46.832173, 24.609413]}, "properties": {"id": "R-0-2917", "pred": "White / cool coating", "row": 202, "col": 298}}, {"type": "Feature", "geometry": {"type": "Point", "coordinates": [46.875042, 24.603468]}, "properties": {"id": "R-0-3440", "pred": "White / cool coating", "row": 222, "col": 443}}, {"type": "Feature", "geometry": {"type": "Point", "coordinates": [46.879128, 24.599354]}, "properties": {"id": "R-3-6752", "pred": "Concrete / cement", "row": 237, "col": 457}}, {"type": "Feature", "geometry": {"type": "Point", "coordinates": [46.773568, 24.571382]}, "properties": {"id": "R-3-16442", "pred": "Concrete / cement", "row": 345, "col": 102}}, {"type": "Feature", "geometry": {"type": "Point", "coordinates": [46.802175, 24.583502]}, "properties": {"id": "R-3-11046", "pred": "Concrete / cement", "row": 299, "col": 198}}, {"type": "Feature", "geometry": {"type": "Point", "coordinates": [46.774244, 24.577333]}, "properties": {"id": "R-3-13797", "pred": "Concrete / cement", "row": 323, "col": 104}}, {"type": "Feature", "geometry": {"type": "Point", "coordinates": [46.841417, 24.573005]}, "properties": {"id": "R-3-15474", "pred": "Concrete / cement", "row": 336, "col": 331}}, {"type": "Feature", "geometry": {"type": "Point", "coordinates": [46.805254, 24.571005]}, "properties": {"id": "R-3-16486", "pred": "Concrete / cement", "row": 345, "col": 209}}, {"type": "Feature", "geometry": {"type": "Point", "coordinates": [46.897071, 24.512186]}, "properties": {"id": "R-3-28279", "pred": "Concrete / cement", "row": 558, "col": 522}}, {"type": "Feature", "geometry": {"type": "Point", "coordinates": [46.81194, 24.582843]}, "properties": {"id": "R-3-11261", "pred": "Concrete / cement", "row": 301, "col": 231}}, {"type": "Feature", "geometry": {"type": "Point", "coordinates": [46.792982, 24.645097]}, "properties": {"id": "R-3-1270", "pred": "Concrete / cement", "row": 72, "col": 164}}, {"type": "Feature", "geometry": {"type": "Point", "coordinates": [46.889797, 24.639035]}, "properties": {"id": "R-3-1754", "pred": "Concrete / cement", "row": 90, "col": 491}}, {"type": "Feature", "geometry": {"type": "Point", "coordinates": [46.791988, 24.616939]}, "properties": {"id": "R-3-4348", "pred": "Concrete / cement", "row": 176, "col": 162}}, {"type": "Feature", "geometry": {"type": "Point", "coordinates": [46.767505, 24.561431]}, "properties": {"id": "R-3-20811", "pred": "Concrete / cement", "row": 382, "col": 82}}, {"type": "Feature", "geometry": {"type": "Point", "coordinates": [46.765356, 24.577167]}, "properties": {"id": "R-3-13922", "pred": "Concrete / cement", "row": 324, "col": 74}}, {"type": "Feature", "geometry": {"type": "Point", "coordinates": [46.876472, 24.580157]}, "properties": {"id": "R-3-12015", "pred": "Concrete / cement", "row": 308, "col": 449}}, {"type": "Feature", "geometry": {"type": "Point", "coordinates": [46.774683, 24.545366]}, "properties": {"id": "R-3-25541", "pred": "Concrete / cement", "row": 441, "col": 107}}, {"type": "Feature", "geometry": {"type": "Point", "coordinates": [46.847013, 24.591084]}, "properties": {"id": "R-3-9004", "pred": "Concrete / cement", "row": 269, "col": 349}}, {"type": "Feature", "geometry": {"type": "Point", "coordinates": [46.932337, 24.514717]}, "properties": {"id": "R-3-28096", "pred": "Concrete / cement", "row": 547, "col": 641}}, {"type": "Feature", "geometry": {"type": "Point", "coordinates": [46.767987, 24.532443]}, "properties": {"id": "R-3-26737", "pred": "Concrete / cement", "row": 489, "col": 85}}, {"type": "Feature", "geometry": {"type": "Point", "coordinates": [46.85822, 24.647825]}, "properties": {"id": "R-3-975", "pred": "Concrete / cement", "row": 59, "col": 384}}, {"type": "Feature", "geometry": {"type": "Point", "coordinates": [46.849967, 24.650907]}, "properties": {"id": "R-3-744", "pred": "Concrete / cement", "row": 48, "col": 356}}, {"type": "Feature", "geometry": {"type": "Point", "coordinates": [46.760788, 24.589409]}, "properties": {"id": "R-3-9505", "pred": "Concrete / cement", "row": 279, "col": 58}}, {"type": "Feature", "geometry": {"type": "Point", "coordinates": [46.793423, 24.530518]}, "properties": {"id": "R-3-26869", "pred": "Concrete / cement", "row": 495, "col": 171}}, {"type": "Feature", "geometry": {"type": "Point", "coordinates": [46.826492, 24.646589]}, "properties": {"id": "R-3-1088", "pred": "Concrete / cement", "row": 65, "col": 277}}, {"type": "Feature", "geometry": {"type": "Point", "coordinates": [46.778125, 24.579454]}, "properties": {"id": "R-3-12791", "pred": "Concrete / cement", "row": 315, "col": 117}}, {"type": "Feature", "geometry": {"type": "Point", "coordinates": [46.77465, 24.564056]}, "properties": {"id": "R-3-19757", "pred": "Concrete / cement", "row": 372, "col": 106}}, {"type": "Feature", "geometry": {"type": "Point", "coordinates": [46.894136, 24.494075]}, "properties": {"id": "R-3-28738", "pred": "Concrete / cement", "row": 625, "col": 513}}, {"type": "Feature", "geometry": {"type": "Point", "coordinates": [46.79339, 24.590649]}, "properties": {"id": "R-3-9217", "pred": "Concrete / cement", "row": 273, "col": 168}}, {"type": "Feature", "geometry": {"type": "Point", "coordinates": [46.783559, 24.586703]}, "properties": {"id": "R-3-10072", "pred": "Concrete / cement", "row": 288, "col": 135}}, {"type": "Feature", "geometry": {"type": "Point", "coordinates": [46.850615, 24.59429]}, "properties": {"id": "R-3-8062", "pred": "Concrete / cement", "row": 257, "col": 361}}, {"type": "Feature", "geometry": {"type": "Point", "coordinates": [46.873348, 24.549318]}, "properties": {"id": "R-3-24663", "pred": "Concrete / cement", "row": 422, "col": 440}}, {"type": "Feature", "geometry": {"type": "Point", "coordinates": [46.766803, 24.574712]}, "properties": {"id": "R-3-15083", "pred": "Concrete / cement", "row": 333, "col": 79}}, {"type": "Feature", "geometry": {"type": "Point", "coordinates": [46.853093, 24.58153]}, "properties": {"id": "R-3-11582", "pred": "Concrete / cement", "row": 304, "col": 370}}, {"type": "Feature", "geometry": {"type": "Point", "coordinates": [46.835577, 24.55845]}, "properties": {"id": "R-3-21633", "pred": "Concrete / cement", "row": 390, "col": 312}}, {"type": "Feature", "geometry": {"type": "Point", "coordinates": [46.792378, 24.581994]}, "properties": {"id": "R-3-11652", "pred": "Concrete / cement", "row": 305, "col": 165}}, {"type": "Feature", "geometry": {"type": "Point", "coordinates": [46.828753, 24.598349]}, "properties": {"id": "R-3-7136", "pred": "Concrete / cement", "row": 243, "col": 287}}, {"type": "Feature", "geometry": {"type": "Point", "coordinates": [46.882573, 24.591998]}, "properties": {"id": "R-3-8630", "pred": "Concrete / cement", "row": 264, "col": 469}}, {"type": "Feature", "geometry": {"type": "Point", "coordinates": [46.861462, 24.626659]}, "properties": {"id": "R-3-3020", "pred": "Concrete / cement", "row": 137, "col": 396}}, {"type": "Feature", "geometry": {"type": "Point", "coordinates": [46.790678, 24.566575]}, "properties": {"id": "R-3-18594", "pred": "Concrete / cement", "row": 362, "col": 160}}, {"type": "Feature", "geometry": {"type": "Point", "coordinates": [46.781445, 24.646588]}, "properties": {"id": "R-3-1122", "pred": "Concrete / cement", "row": 67, "col": 125}}, {"type": "Feature", "geometry": {"type": "Point", "coordinates": [46.805438, 24.563148]}, "properties": {"id": "R-3-20019", "pred": "Concrete / cement", "row": 374, "col": 210}}, {"type": "Feature", "geometry": {"type": "Point", "coordinates": [46.75632, 24.566438]}, "properties": {"id": "R-4-30693", "pred": "Metal sheet (bare / painted)", "row": 364, "col": 44}}, {"type": "Feature", "geometry": {"type": "Point", "coordinates": [46.890949, 24.636854]}, "properties": {"id": "R-4-6346", "pred": "Metal sheet (bare / painted)", "row": 98, "col": 495}}, {"type": "Feature", "geometry": {"type": "Point", "coordinates": [46.803347, 24.541234]}, "properties": {"id": "R-4-37483", "pred": "Metal sheet (bare / painted)", "row": 455, "col": 204}}, {"type": "Feature", "geometry": {"type": "Point", "coordinates": [46.824615, 24.639841]}, "properties": {"id": "R-4-5513", "pred": "Metal sheet (bare / painted)", "row": 90, "col": 271}}, {"type": "Feature", "geometry": {"type": "Point", "coordinates": [46.884254, 24.52616]}, "properties": {"id": "R-4-40320", "pred": "Metal sheet (bare / painted)", "row": 507, "col": 478}}, {"type": "Feature", "geometry": {"type": "Point", "coordinates": [46.887556, 24.627959]}, "properties": {"id": "R-4-9287", "pred": "Metal sheet (bare / painted)", "row": 131, "col": 484}}, {"type": "Feature", "geometry": {"type": "Point", "coordinates": [46.822126, 24.652059]}, "properties": {"id": "R-4-1188", "pred": "Metal sheet (bare / painted)", "row": 45, "col": 262}}, {"type": "Feature", "geometry": {"type": "Point", "coordinates": [46.870958, 24.627624]}, "properties": {"id": "R-4-9494", "pred": "Metal sheet (bare / painted)", "row": 133, "col": 428}}, {"type": "Feature", "geometry": {"type": "Point", "coordinates": [46.917255, 24.496221]}, "properties": {"id": "R-4-42581", "pred": "Metal sheet (bare / painted)", "row": 616, "col": 591}}, {"type": "Feature", "geometry": {"type": "Point", "coordinates": [46.845115, 24.603025]}, "properties": {"id": "R-4-19416", "pred": "Metal sheet (bare / painted)", "row": 225, "col": 342}}, {"type": "Feature", "geometry": {"type": "Point", "coordinates": [46.906126, 24.601994]}, "properties": {"id": "R-4-19623", "pred": "Metal sheet (bare / painted)", "row": 226, "col": 548}}, {"type": "Feature", "geometry": {"type": "Point", "coordinates": [46.866853, 24.610612]}, "properties": {"id": "R-4-16384", "pred": "Metal sheet (bare / painted)", "row": 196, "col": 415}}, {"type": "Feature", "geometry": {"type": "Point", "coordinates": [46.848096, 24.563985]}, "properties": {"id": "R-4-31172", "pred": "Metal sheet (bare / painted)", "row": 369, "col": 354}}, {"type": "Feature", "geometry": {"type": "Point", "coordinates": [46.846743, 24.613027]}, "properties": {"id": "R-4-15505", "pred": "Metal sheet (bare / painted)", "row": 188, "col": 347}}, {"type": "Feature", "geometry": {"type": "Point", "coordinates": [46.787306, 24.641914]}, "properties": {"id": "R-4-4812", "pred": "Metal sheet (bare / painted)", "row": 84, "col": 145}}, {"type": "Feature", "geometry": {"type": "Point", "coordinates": [46.921439, 24.498876]}, "properties": {"id": "R-4-42365", "pred": "Metal sheet (bare / painted)", "row": 606, "col": 605}}, {"type": "Feature", "geometry": {"type": "Point", "coordinates": [46.918871, 24.544141]}, "properties": {"id": "R-4-36452", "pred": "Metal sheet (bare / painted)", "row": 439, "col": 594}}, {"type": "Feature", "geometry": {"type": "Point", "coordinates": [46.866777, 24.605466]}, "properties": {"id": "R-4-18335", "pred": "Metal sheet (bare / painted)", "row": 215, "col": 415}}, {"type": "Feature", "geometry": {"type": "Point", "coordinates": [46.826369, 24.576981]}, "properties": {"id": "R-4-27814", "pred": "Metal sheet (bare / painted)", "row": 322, "col": 280}}, {"type": "Feature", "geometry": {"type": "Point", "coordinates": [46.922896, 24.536235]}, "properties": {"id": "R-4-38279", "pred": "Metal sheet (bare / painted)", "row": 468, "col": 608}}, {"type": "Feature", "geometry": {"type": "Point", "coordinates": [46.781975, 24.579409]}, "properties": {"id": "R-4-27385", "pred": "Metal sheet (bare / painted)", "row": 315, "col": 130}}, {"type": "Feature", "geometry": {"type": "Point", "coordinates": [46.922434, 24.505906]}, "properties": {"id": "R-4-41959", "pred": "Metal sheet (bare / painted)", "row": 580, "col": 608}}, {"type": "Feature", "geometry": {"type": "Point", "coordinates": [46.801948, 24.58838]}, "properties": {"id": "R-4-25736", "pred": "Metal sheet (bare / painted)", "row": 281, "col": 197}}, {"type": "Feature", "geometry": {"type": "Point", "coordinates": [46.815899, 24.651864]}, "properties": {"id": "R-4-1259", "pred": "Metal sheet (bare / painted)", "row": 46, "col": 241}}, {"type": "Feature", "geometry": {"type": "Point", "coordinates": [46.860641, 24.531057]}, "properties": {"id": "R-4-39602", "pred": "Metal sheet (bare / painted)", "row": 490, "col": 398}}, {"type": "Feature", "geometry": {"type": "Point", "coordinates": [46.865116, 24.613342]}, "properties": {"id": "R-4-15330", "pred": "Metal sheet (bare / painted)", "row": 186, "col": 409}}, {"type": "Feature", "geometry": {"type": "Point", "coordinates": [46.809657, 24.63]}, "properties": {"id": "R-4-8797", "pred": "Metal sheet (bare / painted)", "row": 127, "col": 221}}, {"type": "Feature", "geometry": {"type": "Point", "coordinates": [46.850058, 24.596735]}, "properties": {"id": "R-4-22943", "pred": "Metal sheet (bare / painted)", "row": 248, "col": 359}}, {"type": "Feature", "geometry": {"type": "Point", "coordinates": [46.857307, 24.586082]}, "properties": {"id": "R-4-26018", "pred": "Metal sheet (bare / painted)", "row": 287, "col": 384}}, {"type": "Feature", "geometry": {"type": "Point", "coordinates": [46.870808, 24.557746]}, "properties": {"id": "R-4-32826", "pred": "Metal sheet (bare / painted)", "row": 391, "col": 431}}, {"type": "Feature", "geometry": {"type": "Point", "coordinates": [46.908683, 24.536145]}, "properties": {"id": "R-4-38325", "pred": "Metal sheet (bare / painted)", "row": 469, "col": 560}}, {"type": "Feature", "geometry": {"type": "Point", "coordinates": [46.778502, 24.627121]}, "properties": {"id": "R-4-10161", "pred": "Metal sheet (bare / painted)", "row": 139, "col": 116}}, {"type": "Feature", "geometry": {"type": "Point", "coordinates": [46.841311, 24.646679]}, "properties": {"id": "R-4-2967", "pred": "Metal sheet (bare / painted)", "row": 64, "col": 327}}, {"type": "Feature", "geometry": {"type": "Point", "coordinates": [46.783039, 24.612712]}, "properties": {"id": "R-4-15881", "pred": "Metal sheet (bare / painted)", "row": 192, "col": 132}}, {"type": "Feature", "geometry": {"type": "Point", "coordinates": [46.78948, 24.648931]}, "properties": {"id": "R-4-2340", "pred": "Metal sheet (bare / painted)", "row": 58, "col": 152}}, {"type": "Feature", "geometry": {"type": "Point", "coordinates": [46.872212, 24.552583]}, "properties": {"id": "R-4-34380", "pred": "Metal sheet (bare / painted)", "row": 410, "col": 436}}, {"type": "Feature", "geometry": {"type": "Point", "coordinates": [46.872427, 24.626793]}, "properties": {"id": "R-4-9880", "pred": "Metal sheet (bare / painted)", "row": 136, "col": 433}}, {"type": "Feature", "geometry": {"type": "Point", "coordinates": [46.788809, 24.560096]}, "properties": {"id": "R-4-32444", "pred": "Metal sheet (bare / painted)", "row": 386, "col": 154}}, {"type": "Feature", "geometry": {"type": "Point", "coordinates": [46.832106, 24.584495]}, "properties": {"id": "R-4-26383", "pred": "Metal sheet (bare / painted)", "row": 294, "col": 299}}, {"type": "Feature", "geometry": {"type": "Point", "coordinates": [46.816287, 24.61719]}, "properties": {"id": "R-4-13997", "pred": "Metal sheet (bare / painted)", "row": 174, "col": 244}}, {"type": "Feature", "geometry": {"type": "Point", "coordinates": [46.862449, 24.553245]}, "properties": {"id": "R-5-22828", "pred": "Mixed / unsure", "row": 408, "col": 403}}, {"type": "Feature", "geometry": {"type": "Point", "coordinates": [46.872525, 24.513847]}, "properties": {"id": "R-5-31403", "pred": "Mixed / unsure", "row": 553, "col": 439}}, {"type": "Feature", "geometry": {"type": "Point", "coordinates": [46.899808, 24.5563]}, "properties": {"id": "R-5-21398", "pred": "Mixed / unsure", "row": 395, "col": 529}}, {"type": "Feature", "geometry": {"type": "Point", "coordinates": [46.833563, 24.603166]}, "properties": {"id": "R-5-9248", "pred": "Mixed / unsure", "row": 225, "col": 303}}, {"type": "Feature", "geometry": {"type": "Point", "coordinates": [46.906466, 24.546194]}, "properties": {"id": "R-5-25172", "pred": "Mixed / unsure", "row": 432, "col": 552}}, {"type": "Feature", "geometry": {"type": "Point", "coordinates": [46.855103, 24.557128]}, "properties": {"id": "R-5-21221", "pred": "Mixed / unsure", "row": 394, "col": 378}}, {"type": "Feature", "geometry": {"type": "Point", "coordinates": [46.874409, 24.560952]}, "properties": {"id": "R-5-19711", "pred": "Mixed / unsure", "row": 379, "col": 443}}, {"type": "Feature", "geometry": {"type": "Point", "coordinates": [46.86137, 24.62043]}, "properties": {"id": "R-5-6512", "pred": "Mixed / unsure", "row": 160, "col": 396}}, {"type": "Feature", "geometry": {"type": "Point", "coordinates": [46.799924, 24.571069]}, "properties": {"id": "R-5-16657", "pred": "Mixed / unsure", "row": 345, "col": 191}}, {"type": "Feature", "geometry": {"type": "Point", "coordinates": [46.860321, 24.569523]}, "properties": {"id": "R-5-16928", "pred": "Mixed / unsure", "row": 348, "col": 395}}, {"type": "Feature", "geometry": {"type": "Point", "coordinates": [46.89992, 24.54411]}, "properties": {"id": "R-5-25893", "pred": "Mixed / unsure", "row": 440, "col": 530}}, {"type": "Feature", "geometry": {"type": "Point", "coordinates": [46.884453, 24.539429]}, "properties": {"id": "R-5-27420", "pred": "Mixed / unsure", "row": 458, "col": 478}}, {"type": "Feature", "geometry": {"type": "Point", "coordinates": [46.782601, 24.581839]}, "properties": {"id": "R-5-13947", "pred": "Mixed / unsure", "row": 306, "col": 132}}, {"type": "Feature", "geometry": {"type": "Point", "coordinates": [46.866768, 24.584882]}, "properties": {"id": "R-5-13242", "pred": "Mixed / unsure", "row": 291, "col": 416}}, {"type": "Feature", "geometry": {"type": "Point", "coordinates": [46.917444, 24.528179]}, "properties": {"id": "R-5-29701", "pred": "Mixed / unsure", "row": 498, "col": 590}}, {"type": "Feature", "geometry": {"type": "Point", "coordinates": [46.877926, 24.55847]}, "properties": {"id": "R-5-20631", "pred": "Mixed / unsure", "row": 388, "col": 455}}, {"type": "Feature", "geometry": {"type": "Point", "coordinates": [46.809497, 24.598311]}, "properties": {"id": "R-5-10710", "pred": "Mixed / unsure", "row": 244, "col": 222}}, {"type": "Feature", "geometry": {"type": "Point", "coordinates": [46.790628, 24.563054]}, "properties": {"id": "R-5-19237", "pred": "Mixed / unsure", "row": 375, "col": 160}}, {"type": "Feature", "geometry": {"type": "Point", "coordinates": [46.829777, 24.566918]}, "properties": {"id": "R-5-17781", "pred": "Mixed / unsure", "row": 359, "col": 292}}, {"type": "Feature", "geometry": {"type": "Point", "coordinates": [46.790394, 24.567391]}, "properties": {"id": "R-5-17752", "pred": "Mixed / unsure", "row": 359, "col": 159}}, {"type": "Feature", "geometry": {"type": "Point", "coordinates": [46.839762, 24.642094]}, "properties": {"id": "R-5-2643", "pred": "Mixed / unsure", "row": 81, "col": 322}}, {"type": "Feature", "geometry": {"type": "Point", "coordinates": [46.870584, 24.562624]}, "properties": {"id": "R-5-19070", "pred": "Mixed / unsure", "row": 373, "col": 430}}, {"type": "Feature", "geometry": {"type": "Point", "coordinates": [46.879989, 24.577675]}, "properties": {"id": "R-5-14813", "pred": "Mixed / unsure", "row": 317, "col": 461}}, {"type": "Feature", "geometry": {"type": "Point", "coordinates": [46.929133, 24.53751]}, "properties": {"id": "R-5-27766", "pred": "Mixed / unsure", "row": 463, "col": 629}}, {"type": "Feature", "geometry": {"type": "Point", "coordinates": [46.770365, 24.596339]}, "properties": {"id": "R-5-11323", "pred": "Mixed / unsure", "row": 253, "col": 90}}, {"type": "Feature", "geometry": {"type": "Point", "coordinates": [46.880461, 24.549771]}, "properties": {"id": "R-5-23982", "pred": "Mixed / unsure", "row": 420, "col": 464}}, {"type": "Feature", "geometry": {"type": "Point", "coordinates": [46.873906, 24.566917]}, "properties": {"id": "R-5-17629", "pred": "Mixed / unsure", "row": 357, "col": 441}}, {"type": "Feature", "geometry": {"type": "Point", "coordinates": [46.882947, 24.557595]}, "properties": {"id": "R-5-20903", "pred": "Mixed / unsure", "row": 391, "col": 472}}, {"type": "Feature", "geometry": {"type": "Point", "coordinates": [46.910373, 24.530436]}, "properties": {"id": "R-5-29280", "pred": "Mixed / unsure", "row": 490, "col": 566}}, {"type": "Feature", "geometry": {"type": "Point", "coordinates": [46.898923, 24.556582]}, "properties": {"id": "R-5-21273", "pred": "Mixed / unsure", "row": 394, "col": 526}}, {"type": "Feature", "geometry": {"type": "Point", "coordinates": [46.867155, 24.55102]}, "properties": {"id": "R-5-23578", "pred": "Mixed / unsure", "row": 416, "col": 419}}, {"type": "Feature", "geometry": {"type": "Point", "coordinates": [46.776971, 24.539651]}, "properties": {"id": "R-5-27630", "pred": "Mixed / unsure", "row": 462, "col": 115}}, {"type": "Feature", "geometry": {"type": "Point", "coordinates": [46.876713, 24.556589]}, "properties": {"id": "R-5-21361", "pred": "Mixed / unsure", "row": 395, "col": 451}}, {"type": "Feature", "geometry": {"type": "Point", "coordinates": [46.791486, 24.560877]}, "properties": {"id": "R-5-20096", "pred": "Mixed / unsure", "row": 383, "col": 163}}, {"type": "Feature", "geometry": {"type": "Point", "coordinates": [46.795943, 24.561908]}, "properties": {"id": "R-5-19678", "pred": "Mixed / unsure", "row": 379, "col": 178}}, {"type": "Feature", "geometry": {"type": "Point", "coordinates": [46.774687, 24.608748]}, "properties": {"id": "R-5-8204", "pred": "Mixed / unsure", "row": 207, "col": 104}}, {"type": "Feature", "geometry": {"type": "Point", "coordinates": [46.883523, 24.556504]}, "properties": {"id": "R-5-21376", "pred": "Mixed / unsure", "row": 395, "col": 474}}, {"type": "Feature", "geometry": {"type": "Point", "coordinates": [46.893306, 24.557194]}, "properties": {"id": "R-5-21042", "pred": "Mixed / unsure", "row": 392, "col": 507}}, {"type": "Feature", "geometry": {"type": "Point", "coordinates": [46.867627, 24.562932]}, "properties": {"id": "R-5-18967", "pred": "Mixed / unsure", "row": 372, "col": 420}}, {"type": "Feature", "geometry": {"type": "Point", "coordinates": [46.774321, 24.582749]}, "properties": {"id": "R-5-13790", "pred": "Mixed / unsure", "row": 303, "col": 104}}]}